{"type":"FeatureCollection","features":[{"type":"Feature","id":"vial_nacional.2175","properties":{"gid":2175,"designacion_de_red_vial":"A014","tipo_de_via_de_transporte":"Autopista","tipo_de_superficie_de_via":"Pavimentado","jurisdiccion_de_via_de_transporte":"Ruta Nacional","autoridad_de_fuente":"IGN","fuente_de_captura":"Dirección Nacional de Vialidad","sourceFeatureId":"vial_nacional.2175","selectedForCorridor":"veladero","selectionMethod":"network shortest-path extract between fixed corridor anchors","selectionLengthKm":5.494491,"sourceGeometryClipped":true,"sourceGeometrySimplifiedToleranceM":10,"sourceGeometrySimplificationMethod":"Ramer-Douglas-Peucker on clipped source path"},"geometry":{"type":"LineString","coordinates":[[-68.552894,-31.538351],[-68.553064,-31.536995],[-68.553584,-31.535907],[-68.5569,-31.532916],[-68.557471,-31.532024],[-68.557748,-31.531134],[-68.557714,-31.52974],[-68.55719,-31.527725],[-68.555961,-31.525889],[-68.55471,-31.524858],[-68.55318,-31.524099],[-68.551774,-31.523732],[-68.545721,-31.523574],[-68.543901,-31.523304],[-68.541758,-31.522784],[-68.538997,-31.521743],[-68.531157,-31.517789],[-68.529582,-31.517207],[-68.52708,-31.516551],[-68.525253,-31.516225],[-68.522487,-31.516006],[-68.517435,-31.516261]]}},{"type":"Feature","id":"vial_nacional.2570","properties":{"gid":2570,"designacion_de_red_vial":"40","tipo_de_via_de_transporte":"Ruta","tipo_de_superficie_de_via":"Pavimentado","jurisdiccion_de_via_de_transporte":"Ruta Nacional","autoridad_de_fuente":"IGN","fuente_de_captura":"Dirección Nacional de Vialidad","sourceFeatureId":"vial_nacional.2570","selectedForCorridor":"veladero","selectionMethod":"network shortest-path extract between fixed corridor anchors","selectionLengthKm":0.011309,"sourceGeometryClipped":true,"sourceGeometrySimplifiedToleranceM":10,"sourceGeometrySimplificationMethod":"Ramer-Douglas-Peucker on clipped source path"},"geometry":{"type":"LineString","coordinates":[[-68.517435,-31.516261],[-68.517464,-31.516163]]}},{"type":"Feature","id":"vial_nacional.2565","properties":{"gid":2565,"designacion_de_red_vial":"40","tipo_de_via_de_transporte":"Ruta","tipo_de_superficie_de_via":"Pavimentado","jurisdiccion_de_via_de_transporte":"Ruta Nacional","autoridad_de_fuente":"IGN","fuente_de_captura":"Dirección Nacional de Vialidad","sourceFeatureId":"vial_nacional.2565","selectedForCorridor":"veladero","selectionMethod":"network shortest-path extract between fixed corridor anchors","selectionLengthKm":0.171976,"sourceGeometryClipped":true,"sourceGeometrySimplifiedToleranceM":10,"sourceGeometrySimplificationMethod":"Ramer-Douglas-Peucker on clipped source path"},"geometry":{"type":"LineString","coordinates":[[-68.517464,-31.516163],[-68.517929,-31.51467]]}},{"type":"Feature","id":"vial_nacional.1192","properties":{"gid":1192,"designacion_de_red_vial":"40","tipo_de_via_de_transporte":"Ruta","tipo_de_superficie_de_via":"Pavimentado","jurisdiccion_de_via_de_transporte":"Ruta Nacional","autoridad_de_fuente":"IGN","fuente_de_captura":"Dirección Nacional de Vialidad","sourceFeatureId":"vial_nacional.1192","selectedForCorridor":"veladero","selectionMethod":"network shortest-path extract between fixed corridor anchors","selectionLengthKm":0.024062,"sourceGeometryClipped":true,"sourceGeometrySimplifiedToleranceM":10,"sourceGeometrySimplificationMethod":"Ramer-Douglas-Peucker on clipped source path"},"geometry":{"type":"LineString","coordinates":[[-68.517929,-31.51467],[-68.517966,-31.514458]]}},{"type":"Feature","id":"vial_nacional.2201","properties":{"gid":2201,"designacion_de_red_vial":"40","tipo_de_via_de_transporte":"Ruta","tipo_de_superficie_de_via":"Pavimentado","jurisdiccion_de_via_de_transporte":"Ruta Nacional","autoridad_de_fuente":"IGN","fuente_de_captura":"Dirección Nacional de Vialidad","sourceFeatureId":"vial_nacional.2201","selectedForCorridor":"veladero","selectionMethod":"network shortest-path extract between fixed corridor anchors","selectionLengthKm":5.953652,"sourceGeometryClipped":true,"sourceGeometrySimplifiedToleranceM":10,"sourceGeometrySimplificationMethod":"Ramer-Douglas-Peucker on clipped source path"},"geometry":{"type":"LineString","coordinates":[[-68.517966,-31.514458],[-68.5176,-31.509871],[-68.518097,-31.498646],[-68.521253,-31.479669],[-68.521135,-31.477837],[-68.519711,-31.469676],[-68.519293,-31.461242]]}},{"type":"Feature","id":"vial_nacional.1174","properties":{"gid":1174,"designacion_de_red_vial":"40","tipo_de_via_de_transporte":"Ruta","tipo_de_superficie_de_via":"Pavimentado","jurisdiccion_de_via_de_transporte":"Ruta Nacional","autoridad_de_fuente":"IGN","fuente_de_captura":"Dirección Nacional de Vialidad","sourceFeatureId":"vial_nacional.1174","selectedForCorridor":"veladero","selectionMethod":"network shortest-path extract between fixed corridor anchors","selectionLengthKm":1.380341,"sourceGeometryClipped":true,"sourceGeometrySimplifiedToleranceM":10,"sourceGeometrySimplificationMethod":"Ramer-Douglas-Peucker on clipped source path"},"geometry":{"type":"LineString","coordinates":[[-68.519293,-31.461242],[-68.518468,-31.448849]]}},{"type":"Feature","id":"vial_nacional.1175","properties":{"gid":1175,"designacion_de_red_vial":"40","tipo_de_via_de_transporte":"Ruta","tipo_de_superficie_de_via":"Pavimentado","jurisdiccion_de_via_de_transporte":"Ruta Nacional","autoridad_de_fuente":"IGN","fuente_de_captura":"Dirección Nacional de Vialidad","sourceFeatureId":"vial_nacional.1175","selectedForCorridor":"veladero","selectionMethod":"network shortest-path extract between fixed corridor anchors","selectionLengthKm":0.264449,"sourceGeometryClipped":true,"sourceGeometrySimplifiedToleranceM":10,"sourceGeometrySimplificationMethod":"Ramer-Douglas-Peucker on clipped source path"},"geometry":{"type":"LineString","coordinates":[[-68.518468,-31.448849],[-68.518629,-31.448199],[-68.519027,-31.447608],[-68.519234,-31.4466]]}},{"type":"Feature","id":"vial_nacional.1172","properties":{"gid":1172,"designacion_de_red_vial":"40","tipo_de_via_de_transporte":"Ruta","tipo_de_superficie_de_via":"Pavimentado","jurisdiccion_de_via_de_transporte":"Ruta Nacional","autoridad_de_fuente":"IGN","fuente_de_captura":"Dirección Nacional de Vialidad","sourceFeatureId":"vial_nacional.1172","selectedForCorridor":"veladero","selectionMethod":"network shortest-path extract between fixed corridor anchors","selectionLengthKm":45.132592,"sourceGeometryClipped":true,"sourceGeometrySimplifiedToleranceM":10,"sourceGeometrySimplificationMethod":"Ramer-Douglas-Peucker on clipped source path"},"geometry":{"type":"LineString","coordinates":[[-68.519234,-31.4466],[-68.523091,-31.441598],[-68.52432,-31.440453],[-68.533691,-31.434875],[-68.541665,-31.431494],[-68.542746,-31.430868],[-68.543842,-31.429961],[-68.570091,-31.39612],[-68.571123,-31.39506],[-68.572836,-31.394075],[-68.576833,-31.392292],[-68.580884,-31.391727],[-68.587031,-31.390075],[-68.588781,-31.38918],[-68.591123,-31.38721],[-68.593315,-31.385981],[-68.594477,-31.385516],[-68.597946,-31.384573],[-68.603889,-31.379756],[-68.607174,-31.378093],[-68.608607,-31.376002],[-68.608626,-31.374878],[-68.606424,-31.370175],[-68.606002,-31.36811],[-68.607137,-31.303355],[-68.60739,-31.301359],[-68.608729,-31.29807],[-68.609869,-31.296374],[-68.61274,-31.293994],[-68.614355,-31.292183],[-68.617581,-31.290306],[-68.619775,-31.288653],[-68.62048,-31.287706],[-68.621378,-31.285591],[-68.623203,-31.282673],[-68.627823,-31.277454],[-68.628164,-31.276705],[-68.62834,-31.275717],[-68.629003,-31.263263],[-68.629181,-31.262515],[-68.629819,-31.261346],[-68.6393,-31.248164],[-68.640168,-31.247173],[-68.641436,-31.246096],[-68.65184,-31.238599],[-68.653487,-31.236986],[-68.654494,-31.235489],[-68.655574,-31.233085],[-68.656543,-31.230707],[-68.656923,-31.229002],[-68.656937,-31.227196],[-68.656454,-31.225285],[-68.641526,-31.190966],[-68.640954,-31.188784],[-68.640919,-31.187258],[-68.644688,-31.133461],[-68.644503,-31.132199],[-68.644078,-31.130981],[-68.642156,-31.128108],[-68.641141,-31.127064],[-68.636247,-31.123114],[-68.635428,-31.122103],[-68.635127,-31.121252],[-68.635385,-31.11966],[-68.637694,-31.115316],[-68.638047,-31.114234],[-68.639158,-31.103294],[-68.639053,-31.101884],[-68.638356,-31.098998]]}},{"type":"Feature","id":"vial_nacional.280","properties":{"gid":280,"designacion_de_red_vial":"149","tipo_de_via_de_transporte":"Ruta","tipo_de_superficie_de_via":"Pavimentado","jurisdiccion_de_via_de_transporte":"Ruta Nacional","autoridad_de_fuente":"IGN","fuente_de_captura":"Dirección Nacional de Vialidad","sourceFeatureId":"vial_nacional.280","selectedForCorridor":"veladero","selectionMethod":"network shortest-path extract between fixed corridor anchors","selectionLengthKm":0.170434,"sourceGeometryClipped":true,"sourceGeometrySimplifiedToleranceM":10,"sourceGeometrySimplificationMethod":"Ramer-Douglas-Peucker on clipped source path"},"geometry":{"type":"LineString","coordinates":[[-68.802796,-30.985628],[-68.803569,-30.984259]]}},{"type":"Feature","id":"vial_nacional.1870","properties":{"gid":1870,"designacion_de_red_vial":"149","tipo_de_via_de_transporte":"Ruta","tipo_de_superficie_de_via":"Pavimentado","jurisdiccion_de_via_de_transporte":"Ruta Nacional","autoridad_de_fuente":"IGN","fuente_de_captura":"Dirección Nacional de Vialidad","sourceFeatureId":"vial_nacional.1870","selectedForCorridor":"veladero","selectionMethod":"network shortest-path extract between fixed corridor anchors","selectionLengthKm":100.267276,"sourceGeometryClipped":true,"sourceGeometrySimplifiedToleranceM":10,"sourceGeometrySimplificationMethod":"Ramer-Douglas-Peucker on clipped source path"},"geometry":{"type":"LineString","coordinates":[[-68.803569,-30.984259],[-68.805393,-30.978906],[-68.810475,-30.967926],[-68.810658,-30.967217],[-68.812432,-30.950518],[-68.811262,-30.944807],[-68.811993,-30.940878],[-68.811963,-30.940267],[-68.811241,-30.937569],[-68.812587,-30.933617],[-68.812851,-30.931382],[-68.811947,-30.929076],[-68.812845,-30.926353],[-68.812626,-30.923325],[-68.810344,-30.920896],[-68.810113,-30.920232],[-68.81142,-30.915273],[-68.811825,-30.914641],[-68.81272,-30.913882],[-68.813331,-30.913112],[-68.814145,-30.911066],[-68.814085,-30.910406],[-68.813422,-30.908648],[-68.812439,-30.907085],[-68.812221,-30.906284],[-68.812691,-30.902562],[-68.813812,-30.900542],[-68.814257,-30.898848],[-68.814556,-30.898473],[-68.814942,-30.898335],[-68.815414,-30.898392],[-68.816644,-30.899536],[-68.817232,-30.899479],[-68.818229,-30.89868],[-68.818617,-30.898732],[-68.818945,-30.899011],[-68.81921,-30.900026],[-68.819853,-30.90052],[-68.820309,-30.900419],[-68.820966,-30.899889],[-68.821246,-30.899456],[-68.821502,-30.899385],[-68.82169,-30.899746],[-68.821295,-30.900487],[-68.821639,-30.901062],[-68.822154,-30.901135],[-68.822896,-30.900899],[-68.822971,-30.899947],[-68.8234,-30.899214],[-68.824208,-30.898411],[-68.825345,-30.897607],[-68.82571,-30.897761],[-68.826125,-30.898735],[-68.828197,-30.898316],[-68.828618,-30.8984],[-68.829206,-30.899651],[-68.829722,-30.899772],[-68.83142,-30.899296],[-68.832951,-30.897838],[-68.834687,-30.897461],[-68.836606,-30.897282],[-68.845234,-30.897374],[-68.847398,-30.897091],[-68.944009,-30.866841],[-68.945099,-30.866183],[-68.945516,-30.865335],[-68.94602,-30.862996],[-68.94587,-30.858769],[-68.946015,-30.857788],[-68.950003,-30.850105],[-68.950736,-30.847809],[-68.96359,-30.756562],[-68.963422,-30.753825],[-68.960754,-30.735046],[-68.960417,-30.731687],[-68.960644,-30.730941],[-68.961244,-30.730112],[-68.965822,-30.725278],[-68.966473,-30.724363],[-68.96708,-30.722402],[-68.967653,-30.717562],[-68.968023,-30.71659],[-68.969633,-30.713626],[-68.970584,-30.712361],[-68.971962,-30.711567],[-68.973474,-30.711272],[-68.978328,-30.710758],[-68.97963,-30.710418],[-68.980704,-30.70986],[-68.984809,-30.707139],[-68.985987,-30.706687],[-68.997579,-30.706081],[-68.999411,-30.705703],[-69.000568,-30.705126],[-69.012538,-30.697654],[-69.014367,-30.696961],[-69.024535,-30.693762],[-69.026908,-30.692594],[-69.030373,-30.690165],[-69.036289,-30.684528],[-69.037244,-30.683298],[-69.040267,-30.677898],[-69.047287,-30.670439],[-69.049368,-30.668833],[-69.054531,-30.666491],[-69.056002,-30.665685],[-69.057367,-30.664655],[-69.060037,-30.662085],[-69.06104,-30.660668],[-69.062867,-30.657374],[-69.064181,-30.651044],[-69.065319,-30.646976],[-69.066541,-30.643785],[-69.067184,-30.642892],[-69.068256,-30.642246],[-69.069436,-30.642081],[-69.070227,-30.642215],[-69.07218,-30.642909],[-69.073888,-30.643097],[-69.076252,-30.644345],[-69.077315,-30.645326],[-69.077936,-30.645562],[-69.079317,-30.64524],[-69.080472,-30.644478],[-69.081068,-30.643537],[-69.08311,-30.639263],[-69.084853,-30.637205],[-69.085614,-30.633076],[-69.08677,-30.631293],[-69.086506,-30.629271],[-69.086782,-30.628132],[-69.088237,-30.625395],[-69.100034,-30.596779],[-69.103307,-30.590992],[-69.106305,-30.584562],[-69.106536,-30.583533],[-69.107123,-30.573517],[-69.106681,-30.571913],[-69.10528,-30.568164],[-69.104913,-30.565073],[-69.105068,-30.553331],[-69.105278,-30.551878],[-69.109983,-30.54125],[-69.114587,-30.534877],[-69.120199,-30.524196],[-69.121127,-30.520874],[-69.121664,-30.519859],[-69.124517,-30.516012],[-69.128676,-30.50941],[-69.140452,-30.491821],[-69.144071,-30.485527],[-69.144988,-30.483248],[-69.145406,-30.478829],[-69.145723,-30.477192],[-69.151135,-30.463823],[-69.16594,-30.441344],[-69.166616,-30.440013],[-69.166941,-30.439085],[-69.167382,-30.436692],[-69.167544,-30.430529],[-69.167991,-30.42819],[-69.168436,-30.427028],[-69.16886,-30.426381],[-69.170028,-30.425327],[-69.176552,-30.420953],[-69.189792,-30.409623],[-69.191058,-30.408989],[-69.196734,-30.407373],[-69.197692,-30.407316],[-69.199037,-30.407659],[-69.203587,-30.409629],[-69.213303,-30.415969],[-69.214949,-30.416436],[-69.221159,-30.417371],[-69.221849,-30.41727],[-69.222258,-30.416896],[-69.223115,-30.41372],[-69.224151,-30.407731],[-69.223472,-30.399819],[-69.222877,-30.397011],[-69.222145,-30.395009],[-69.220157,-30.39193],[-69.219618,-30.390118],[-69.219589,-30.389185],[-69.218978,-30.3879],[-69.21823,-30.386912],[-69.216454,-30.3854],[-69.213932,-30.380702],[-69.212376,-30.378684],[-69.209801,-30.374426],[-69.20922,-30.373195],[-69.207457,-30.365697],[-69.207242,-30.364355],[-69.207142,-30.361202],[-69.206122,-30.35729],[-69.206188,-30.355747],[-69.206653,-30.354222],[-69.20632,-30.352463],[-69.207481,-30.348544],[-69.207301,-30.347422],[-69.207076,-30.346825],[-69.205719,-30.344991],[-69.202921,-30.338727],[-69.20249,-30.337702],[-69.2014,-30.333408],[-69.201871,-30.32758],[-69.204251,-30.320879],[-69.204624,-30.320807],[-69.209132,-30.321998]]}},{"type":"Feature","id":"vial_nacional.1875","properties":{"gid":1875,"designacion_de_red_vial":"150","tipo_de_via_de_transporte":"Ruta","tipo_de_superficie_de_via":"Pavimentado","jurisdiccion_de_via_de_transporte":"Ruta Nacional","autoridad_de_fuente":"IGN","fuente_de_captura":"Dirección Nacional de Vialidad","sourceFeatureId":"vial_nacional.1875","selectedForCorridor":"veladero","selectionMethod":"network shortest-path extract between fixed corridor anchors","selectionLengthKm":2.731829,"sourceGeometryClipped":true,"sourceGeometrySimplifiedToleranceM":10,"sourceGeometrySimplificationMethod":"Ramer-Douglas-Peucker on clipped source path"},"geometry":{"type":"LineString","coordinates":[[-69.22979,-30.305876],[-69.231731,-30.296624],[-69.231951,-30.294069],[-69.231808,-30.291983],[-69.23137,-30.289955],[-69.229626,-30.283833],[-69.228751,-30.281829]]}}]}