{"type":"FeatureCollection","features":[{"type":"Feature","id":"vial_provincial.10291","properties":{"gid":10291,"designacion_de_red_vial":"436","tipo_de_via_de_transporte":"Ruta","tipo_de_superficie_de_via":"Pavimentado","jurisdiccion_de_via_de_transporte":"Ruta Provincial","autoridad_de_fuente":"IGN","fuente_de_captura":"UNIDE","sourceFeatureId":"vial_provincial.10291","selectedForCorridor":"veladero","selectionMethod":"network shortest-path extract between fixed corridor anchors","selectionLengthKm":0.170469,"sourceGeometryClipped":true,"sourceGeometrySimplifiedToleranceM":10,"sourceGeometrySimplificationMethod":"Ramer-Douglas-Peucker on clipped source path"},"geometry":{"type":"LineString","coordinates":[[-68.638356,-31.098998],[-68.638585,-31.098173],[-68.639148,-31.09772]]}},{"type":"Feature","id":"vial_provincial.10290","properties":{"gid":10290,"designacion_de_red_vial":"436","tipo_de_via_de_transporte":"Ruta","tipo_de_superficie_de_via":"Pavimentado","jurisdiccion_de_via_de_transporte":"Ruta Provincial","autoridad_de_fuente":"IGN","fuente_de_captura":"UNIDE","sourceFeatureId":"vial_provincial.10290","selectedForCorridor":"veladero","selectionMethod":"network shortest-path extract between fixed corridor anchors","selectionLengthKm":22.842258,"sourceGeometryClipped":true,"sourceGeometrySimplifiedToleranceM":10,"sourceGeometrySimplificationMethod":"Ramer-Douglas-Peucker on clipped source path"},"geometry":{"type":"LineString","coordinates":[[-68.639148,-31.09772],[-68.640642,-31.097212],[-68.641289,-31.09671],[-68.648811,-31.086273],[-68.650746,-31.084232],[-68.652695,-31.081383],[-68.653472,-31.080692],[-68.660306,-31.076768],[-68.664613,-31.074665],[-68.665746,-31.074252],[-68.671978,-31.072687],[-68.673199,-31.0722],[-68.72481,-31.039479],[-68.725878,-31.039072],[-68.73222,-31.038135],[-68.735883,-31.036431],[-68.738183,-31.034532],[-68.741455,-31.030223],[-68.744014,-31.028553],[-68.745146,-31.02667],[-68.746391,-31.02528],[-68.747211,-31.024483],[-68.748361,-31.023858],[-68.748997,-31.022008],[-68.749337,-31.021943],[-68.749541,-31.022111],[-68.75005,-31.024533],[-68.750445,-31.025555],[-68.750938,-31.02611],[-68.751611,-31.026552],[-68.754643,-31.02661],[-68.756593,-31.025257],[-68.75698,-31.025146],[-68.76041,-31.025799],[-68.76103,-31.026574],[-68.761858,-31.027238],[-68.762188,-31.027846],[-68.762686,-31.028034],[-68.763091,-31.027883],[-68.764685,-31.023974],[-68.764979,-31.022622],[-68.766054,-31.020644],[-68.76613,-31.018724],[-68.765892,-31.017396],[-68.765806,-31.015448],[-68.766304,-31.012803],[-68.765874,-31.011072],[-68.766165,-31.010323],[-68.766488,-31.010172],[-68.767567,-31.010358],[-68.768416,-31.010135],[-68.769253,-31.010165],[-68.771987,-31.009208],[-68.773426,-31.00927],[-68.775461,-31.008589],[-68.776115,-31.008196],[-68.777222,-31.006997],[-68.777684,-31.006153],[-68.778056,-31.005812],[-68.78222,-31.004104],[-68.788521,-31.003943],[-68.789749,-31.004213],[-68.791365,-31.004927],[-68.791856,-31.004903],[-68.79243,-31.004648],[-68.792905,-31.00425],[-68.793011,-31.003857],[-68.792233,-31.001925],[-68.792368,-31.001465],[-68.793477,-31.000509],[-68.794098,-30.998902],[-68.795805,-30.997288],[-68.797804,-30.995784],[-68.798932,-30.994529],[-68.800111,-30.992546],[-68.802132,-30.990919],[-68.802739,-30.989779],[-68.802519,-30.98857],[-68.802745,-30.987497]]}},{"type":"Feature","id":"vial_provincial.10289","properties":{"gid":10289,"designacion_de_red_vial":"436","tipo_de_via_de_transporte":"Ruta","tipo_de_superficie_de_via":"Pavimentado","jurisdiccion_de_via_de_transporte":"Ruta Provincial","autoridad_de_fuente":"IGN","fuente_de_captura":"UNIDE","sourceFeatureId":"vial_provincial.10289","selectedForCorridor":"veladero","selectionMethod":"network shortest-path extract between fixed corridor anchors","selectionLengthKm":0.20972,"sourceGeometryClipped":true,"sourceGeometrySimplifiedToleranceM":10,"sourceGeometrySimplificationMethod":"Ramer-Douglas-Peucker on clipped source path"},"geometry":{"type":"LineString","coordinates":[[-68.802745,-30.987497],[-68.802883,-30.986735],[-68.802796,-30.985628]]}},{"type":"Feature","id":"vial_provincial.10552","properties":{"gid":10552,"designacion_de_red_vial":"432","tipo_de_via_de_transporte":"Ruta","tipo_de_superficie_de_via":"Pavimentado","jurisdiccion_de_via_de_transporte":"Ruta Provincial","autoridad_de_fuente":"IGN","fuente_de_captura":"UNIDE","sourceFeatureId":"vial_provincial.10552","selectedForCorridor":"veladero","selectionMethod":"network shortest-path extract between fixed corridor anchors","selectionLengthKm":3.282062,"sourceGeometryClipped":true,"sourceGeometrySimplifiedToleranceM":10,"sourceGeometrySimplificationMethod":"Ramer-Douglas-Peucker on clipped source path"},"geometry":{"type":"LineString","coordinates":[[-69.209132,-30.321998],[-69.209395,-30.32162],[-69.209419,-30.319981],[-69.209907,-30.318744],[-69.21262,-30.31715],[-69.213738,-30.316162],[-69.214155,-30.316139],[-69.21676,-30.317007],[-69.217343,-30.316828],[-69.2177,-30.316019],[-69.218164,-30.314068],[-69.218247,-30.31226],[-69.21795,-30.309666],[-69.218033,-30.309274],[-69.222235,-30.308355],[-69.224448,-30.30697],[-69.22979,-30.305876]]}},{"type":"Feature","id":"vial_provincial.11207","properties":{"gid":11207,"designacion_de_red_vial":"418","tipo_de_via_de_transporte":"Ruta","tipo_de_superficie_de_via":"Pavimentado","jurisdiccion_de_via_de_transporte":"Ruta Provincial","autoridad_de_fuente":"IGN","fuente_de_captura":"UNIDE","sourceFeatureId":"vial_provincial.11207","selectedForCorridor":"veladero","selectionMethod":"network shortest-path extract between fixed corridor anchors","selectionLengthKm":11.281388,"sourceGeometryClipped":true,"sourceGeometrySimplifiedToleranceM":10,"sourceGeometrySimplificationMethod":"Ramer-Douglas-Peucker on clipped source path"},"geometry":{"type":"LineString","coordinates":[[-69.228751,-30.281829],[-69.229447,-30.280264],[-69.230776,-30.27901],[-69.231001,-30.276417],[-69.232248,-30.273491],[-69.232535,-30.270046],[-69.232237,-30.267405],[-69.232591,-30.266433],[-69.24203,-30.253369],[-69.260959,-30.229241],[-69.263076,-30.226112],[-69.263897,-30.224529],[-69.264278,-30.222828],[-69.265586,-30.220722],[-69.26611,-30.21933],[-69.266967,-30.218093],[-69.267121,-30.21682],[-69.265182,-30.202864],[-69.265134,-30.201627],[-69.266205,-30.199581],[-69.266633,-30.198331],[-69.267443,-30.197201],[-69.267312,-30.195417],[-69.267776,-30.194477],[-69.268394,-30.194144],[-69.271273,-30.193608],[-69.271559,-30.193358],[-69.271538,-30.192979]]}}]}