{"type":"FeatureCollection","features":[{"type":"Feature","id":"osm-way-902151791","properties":{"highway":"residential","name":"Monseñor Orzali","osmWayId":902151791,"sourceFeatureId":"osm-way-902151791","selectedForCorridor":"veladero","selectionMethod":"network shortest-path extract between fixed corridor anchors","selectionLengthKm":0.723057,"sourceGeometryClipped":true,"sourceGeometrySimplifiedToleranceM":100,"sourceGeometrySimplificationMethod":"Ramer-Douglas-Peucker on clipped source path"},"geometry":{"type":"LineString","coordinates":[[-69.271567,-30.192596],[-69.278631,-30.194601]]}},{"type":"Feature","id":"osm-way-334802858","properties":{"highway":"residential","name":"Monseñor Orzali","osmWayId":334802858,"sourceFeatureId":"osm-way-334802858","selectedForCorridor":"veladero","selectionMethod":"network shortest-path extract between fixed corridor anchors","selectionLengthKm":1.24574,"sourceGeometryClipped":true,"sourceGeometrySimplifiedToleranceM":100,"sourceGeometrySimplificationMethod":"Ramer-Douglas-Peucker on clipped source path"},"geometry":{"type":"LineString","coordinates":[[-69.278631,-30.194601],[-69.28651,-30.196567],[-69.287794,-30.199968]]}},{"type":"Feature","id":"osm-way-460236251","properties":{"highway":"unclassified","osmWayId":460236251,"sourceFeatureId":"osm-way-460236251","selectedForCorridor":"veladero","selectionMethod":"network shortest-path extract between fixed corridor anchors","selectionLengthKm":0.391723,"sourceGeometryClipped":true,"sourceGeometrySimplifiedToleranceM":100,"sourceGeometrySimplificationMethod":"Ramer-Douglas-Peucker on clipped source path"},"geometry":{"type":"LineString","coordinates":[[-69.287794,-30.199968],[-69.290114,-30.202265]]}},{"type":"Feature","id":"osm-way-895225206","properties":{"highway":"tertiary","name":"Camino a Veladero","osmWayId":895225206,"sourceFeatureId":"osm-way-895225206","selectedForCorridor":"veladero","selectionMethod":"network shortest-path extract between fixed corridor anchors","selectionLengthKm":4.230429,"sourceGeometryClipped":true,"sourceGeometrySimplifiedToleranceM":100,"sourceGeometrySimplificationMethod":"Ramer-Douglas-Peucker on clipped source path"},"geometry":{"type":"LineString","coordinates":[[-69.290114,-30.202265],[-69.297514,-30.200315],[-69.305212,-30.200876],[-69.332426,-30.195403]]}},{"type":"Feature","id":"osm-way-202755706","properties":{"bridge":"yes","highway":"tertiary","layer":"1","name":"Camino a Veladero","oneway":"no","osmWayId":202755706,"sourceFeatureId":"osm-way-202755706","selectedForCorridor":"veladero","selectionMethod":"network shortest-path extract between fixed corridor anchors","selectionLengthKm":0.030888,"sourceGeometryClipped":true,"sourceGeometrySimplifiedToleranceM":100,"sourceGeometrySimplificationMethod":"Ramer-Douglas-Peucker on clipped source path"},"geometry":{"type":"LineString","coordinates":[[-69.332426,-30.195403],[-69.332669,-30.195221]]}},{"type":"Feature","id":"osm-way-202755694","properties":{"highway":"tertiary","name":"Camino a Veladero","oneway":"no","osmWayId":202755694,"sourceFeatureId":"osm-way-202755694","selectedForCorridor":"veladero","selectionMethod":"network shortest-path extract between fixed corridor anchors","selectionLengthKm":2.05051,"sourceGeometryClipped":true,"sourceGeometrySimplifiedToleranceM":100,"sourceGeometrySimplificationMethod":"Ramer-Douglas-Peucker on clipped source path"},"geometry":{"type":"LineString","coordinates":[[-69.332669,-30.195221],[-69.353761,-30.193481]]}},{"type":"Feature","id":"osm-way-202755695","properties":{"bridge":"yes","highway":"tertiary","layer":"1","name":"Camino a Veladero","oneway":"no","osmWayId":202755695,"sourceFeatureId":"osm-way-202755695","selectedForCorridor":"veladero","selectionMethod":"network shortest-path extract between fixed corridor anchors","selectionLengthKm":0.028408,"sourceGeometryClipped":true,"sourceGeometrySimplifiedToleranceM":100,"sourceGeometrySimplificationMethod":"Ramer-Douglas-Peucker on clipped source path"},"geometry":{"type":"LineString","coordinates":[[-69.353761,-30.193481],[-69.354034,-30.193383]]}},{"type":"Feature","id":"osm-way-202796801","properties":{"highway":"tertiary","name":"Camino a Veladero","oneway":"no","osmWayId":202796801,"sourceFeatureId":"osm-way-202796801","selectedForCorridor":"veladero","selectionMethod":"network shortest-path extract between fixed corridor anchors","selectionLengthKm":7.851845,"sourceGeometryClipped":true,"sourceGeometrySimplifiedToleranceM":100,"sourceGeometrySimplificationMethod":"Ramer-Douglas-Peucker on clipped source path"},"geometry":{"type":"LineString","coordinates":[[-69.354034,-30.193383],[-69.380384,-30.19215],[-69.398043,-30.189081],[-69.424737,-30.189076],[-69.434336,-30.186981]]}},{"type":"Feature","id":"osm-way-202796800","properties":{"bridge":"yes","highway":"tertiary","layer":"1","name":"Camino a Veladero","oneway":"no","osmWayId":202796800,"sourceFeatureId":"osm-way-202796800","selectedForCorridor":"veladero","selectionMethod":"network shortest-path extract between fixed corridor anchors","selectionLengthKm":0.018923,"sourceGeometryClipped":true,"sourceGeometrySimplifiedToleranceM":100,"sourceGeometrySimplificationMethod":"Ramer-Douglas-Peucker on clipped source path"},"geometry":{"type":"LineString","coordinates":[[-69.434336,-30.186981],[-69.434468,-30.186855]]}},{"type":"Feature","id":"osm-way-202799443","properties":{"highway":"tertiary","name":"Camino a Veladero","oneway":"no","osmWayId":202799443,"sourceFeatureId":"osm-way-202799443","selectedForCorridor":"veladero","selectionMethod":"network shortest-path extract between fixed corridor anchors","selectionLengthKm":14.959874,"sourceGeometryClipped":true,"sourceGeometrySimplifiedToleranceM":100,"sourceGeometrySimplificationMethod":"Ramer-Douglas-Peucker on clipped source path"},"geometry":{"type":"LineString","coordinates":[[-69.434468,-30.186855],[-69.453793,-30.177946],[-69.456698,-30.171575],[-69.456703,-30.167011],[-69.472416,-30.15318],[-69.479862,-30.142469],[-69.483401,-30.130215],[-69.483799,-30.113165],[-69.492902,-30.107819],[-69.499165,-30.097192],[-69.508942,-30.095697],[-69.510332,-30.093093],[-69.508341,-30.090549],[-69.510804,-30.088451]]}},{"type":"Feature","id":"osm-way-202799442","properties":{"bridge":"yes","highway":"tertiary","layer":"1","oneway":"no","osmWayId":202799442,"sourceFeatureId":"osm-way-202799442","selectedForCorridor":"veladero","selectionMethod":"network shortest-path extract between fixed corridor anchors","selectionLengthKm":0.018989,"sourceGeometryClipped":true,"sourceGeometrySimplifiedToleranceM":100,"sourceGeometrySimplificationMethod":"Ramer-Douglas-Peucker on clipped source path"},"geometry":{"type":"LineString","coordinates":[[-69.510804,-30.088451],[-69.510938,-30.088326]]}},{"type":"Feature","id":"osm-way-1067023015","properties":{"highway":"tertiary","name":"Camino a Veladero","osmWayId":1067023015,"sourceFeatureId":"osm-way-1067023015","selectedForCorridor":"veladero","selectionMethod":"network shortest-path extract between fixed corridor anchors","selectionLengthKm":5.465443,"sourceGeometryClipped":true,"sourceGeometrySimplifiedToleranceM":100,"sourceGeometrySimplificationMethod":"Ramer-Douglas-Peucker on clipped source path"},"geometry":{"type":"LineString","coordinates":[[-69.510938,-30.088326],[-69.52192,-30.084236],[-69.530872,-30.076758],[-69.539482,-30.063737],[-69.541043,-30.058388],[-69.546639,-30.053559]]}},{"type":"Feature","id":"osm-way-1067023016","properties":{"bridge":"yes","highway":"tertiary","layer":"1","name":"Camino a Veladero","osmWayId":1067023016,"sourceFeatureId":"osm-way-1067023016","selectedForCorridor":"veladero","selectionMethod":"network shortest-path extract between fixed corridor anchors","selectionLengthKm":0.009441,"sourceGeometryClipped":true,"sourceGeometrySimplifiedToleranceM":100,"sourceGeometrySimplificationMethod":"Ramer-Douglas-Peucker on clipped source path"},"geometry":{"type":"LineString","coordinates":[[-69.546639,-30.053559],[-69.54672,-30.05351]]}},{"type":"Feature","id":"osm-way-334800560","properties":{"highway":"tertiary","name":"Camino a Veladero","osmWayId":334800560,"sourceFeatureId":"osm-way-334800560","selectedForCorridor":"veladero","selectionMethod":"network shortest-path extract between fixed corridor anchors","selectionLengthKm":60.19099,"sourceGeometryClipped":true,"sourceGeometrySimplifiedToleranceM":100,"sourceGeometrySimplificationMethod":"Ramer-Douglas-Peucker on clipped source path"},"geometry":{"type":"LineString","coordinates":[[-69.54672,-30.05351],[-69.569742,-30.031167],[-69.571964,-30.030279],[-69.573074,-30.031432],[-69.571395,-30.03243],[-69.576062,-30.032779],[-69.575407,-30.029635],[-69.577419,-30.026537],[-69.586799,-30.018527],[-69.585701,-30.022631],[-69.596221,-30.008082],[-69.600156,-29.999207],[-69.610356,-29.987223],[-69.613039,-29.986935],[-69.61247,-29.990061],[-69.613395,-29.987927],[-69.613867,-29.989687],[-69.615769,-29.988184],[-69.614964,-29.990821],[-69.617201,-29.989081],[-69.618787,-29.991005],[-69.618591,-29.989502],[-69.620055,-29.990754],[-69.619063,-29.992031],[-69.621666,-29.989999],[-69.621592,-29.992127],[-69.62313,-29.989858],[-69.622783,-29.992248],[-69.624738,-29.99047],[-69.624025,-29.993899],[-69.625548,-29.991613],[-69.625913,-29.995214],[-69.62763,-29.992919],[-69.626138,-29.989562],[-69.624363,-29.987353],[-69.621275,-29.986801],[-69.619924,-29.983801],[-69.627393,-29.979561],[-69.624248,-29.982367],[-69.633959,-29.980259],[-69.634862,-29.977353],[-69.632836,-29.973996],[-69.636143,-29.969488],[-69.635191,-29.967035],[-69.629847,-29.964661],[-69.626983,-29.961581],[-69.629273,-29.957008],[-69.642334,-29.953823],[-69.640248,-29.95315],[-69.64355,-29.95365],[-69.640906,-29.952153],[-69.644629,-29.953228],[-69.649243,-29.958489],[-69.654274,-29.960022],[-69.663174,-29.959466],[-69.668296,-29.957525],[-69.674937,-29.958265],[-69.677657,-29.956105],[-69.680855,-29.958685],[-69.68992,-29.959885],[-69.686084,-29.962861],[-69.697606,-29.963955],[-69.70415,-29.968005],[-69.712772,-29.970764],[-69.717927,-29.967566],[-69.722518,-29.966798],[-69.727176,-29.971716],[-69.727809,-29.963422],[-69.731544,-29.955144],[-69.742116,-29.942519],[-69.744621,-29.935728],[-69.744137,-29.931606],[-69.74137,-29.92828],[-69.741837,-29.92093],[-69.738766,-29.918024],[-69.737845,-29.914245],[-69.736577,-29.899512],[-69.729456,-29.878499],[-69.71301,-29.846366],[-69.705146,-29.838396],[-69.687427,-29.826235],[-69.685254,-29.819886],[-69.678254,-29.812294],[-69.677836,-29.80827]]}},{"type":"Feature","id":"osm-way-1067023020","properties":{"bridge":"yes","highway":"tertiary","layer":"1","name":"Camino a Veladero","osmWayId":1067023020,"sourceFeatureId":"osm-way-1067023020","selectedForCorridor":"veladero","selectionMethod":"network shortest-path extract between fixed corridor anchors","selectionLengthKm":0.050027,"sourceGeometryClipped":true,"sourceGeometrySimplifiedToleranceM":100,"sourceGeometrySimplificationMethod":"Ramer-Douglas-Peucker on clipped source path"},"geometry":{"type":"LineString","coordinates":[[-69.677836,-29.80827],[-69.678209,-29.807957]]}},{"type":"Feature","id":"osm-way-1067023019","properties":{"highway":"tertiary","name":"Camino a Veladero","osmWayId":1067023019,"sourceFeatureId":"osm-way-1067023019","selectedForCorridor":"veladero","selectionMethod":"network shortest-path extract between fixed corridor anchors","selectionLengthKm":22.260106,"sourceGeometryClipped":true,"sourceGeometrySimplifiedToleranceM":100,"sourceGeometrySimplificationMethod":"Ramer-Douglas-Peucker on clipped source path"},"geometry":{"type":"LineString","coordinates":[[-69.678209,-29.807957],[-69.689533,-29.803921],[-69.702676,-29.802065],[-69.709021,-29.798863],[-69.715356,-29.791402],[-69.732889,-29.776822],[-69.733369,-29.773735],[-69.737268,-29.76916],[-69.738931,-29.760176],[-69.741314,-29.756652],[-69.74337,-29.737922],[-69.742559,-29.733818],[-69.739905,-29.732057],[-69.738972,-29.729134],[-69.740473,-29.720772],[-69.735483,-29.713602],[-69.725581,-29.706975],[-69.722899,-29.703079],[-69.72487,-29.683207],[-69.729346,-29.67188],[-69.731776,-29.657484],[-69.727946,-29.652546],[-69.728719,-29.649231]]}},{"type":"Feature","id":"osm-way-1067023024","properties":{"bridge":"yes","highway":"tertiary","layer":"1","name":"Camino a Veladero","osmWayId":1067023024,"sourceFeatureId":"osm-way-1067023024","selectedForCorridor":"veladero","selectionMethod":"network shortest-path extract between fixed corridor anchors","selectionLengthKm":0.030758,"sourceGeometryClipped":true,"sourceGeometrySimplifiedToleranceM":100,"sourceGeometrySimplificationMethod":"Ramer-Douglas-Peucker on clipped source path"},"geometry":{"type":"LineString","coordinates":[[-69.728719,-29.649231],[-69.728794,-29.648963]]}},{"type":"Feature","id":"osm-way-1067023023","properties":{"highway":"tertiary","name":"Camino a Veladero","osmWayId":1067023023,"sourceFeatureId":"osm-way-1067023023","selectedForCorridor":"veladero","selectionMethod":"network shortest-path extract between fixed corridor anchors","selectionLengthKm":6.896109,"sourceGeometryClipped":true,"sourceGeometrySimplifiedToleranceM":100,"sourceGeometrySimplificationMethod":"Ramer-Douglas-Peucker on clipped source path"},"geometry":{"type":"LineString","coordinates":[[-69.728794,-29.648963],[-69.732123,-29.636503],[-69.73005,-29.632531],[-69.730524,-29.619806],[-69.733514,-29.614115],[-69.742189,-29.610445],[-69.744743,-29.605691],[-69.747044,-29.594371]]}},{"type":"Feature","id":"osm-way-246355411","properties":{"highway":"tertiary","name":"Camino a Veladero","osmWayId":246355411,"sourceFeatureId":"osm-way-246355411","selectedForCorridor":"veladero","selectionMethod":"network shortest-path extract between fixed corridor anchors","selectionLengthKm":30.504006,"sourceGeometryClipped":true,"sourceGeometrySimplifiedToleranceM":100,"sourceGeometrySimplificationMethod":"Ramer-Douglas-Peucker on clipped source path"},"geometry":{"type":"LineString","coordinates":[[-69.747044,-29.594371],[-69.746184,-29.586092],[-69.742764,-29.580192],[-69.742953,-29.5762],[-69.745497,-29.568589],[-69.751399,-29.558771],[-69.750064,-29.552199],[-69.75273,-29.544517],[-69.766508,-29.524518],[-69.767433,-29.511111],[-69.770977,-29.499727],[-69.770921,-29.495372],[-69.764846,-29.490886],[-69.769139,-29.488387],[-69.769953,-29.485345],[-69.778327,-29.478762],[-69.783441,-29.471758],[-69.793288,-29.465433],[-69.801752,-29.456887],[-69.817543,-29.450273],[-69.82126,-29.444701],[-69.828906,-29.445134],[-69.83172,-29.440887],[-69.845877,-29.433736],[-69.847691,-29.430147],[-69.861393,-29.428836],[-69.876599,-29.415812],[-69.883345,-29.414203],[-69.889595,-29.410569],[-69.891837,-29.411401],[-69.900676,-29.402209]]}},{"type":"Feature","id":"osm-way-1067051854","properties":{"bridge":"yes","highway":"tertiary","layer":"1","name":"Camino a Veladero","osmWayId":1067051854,"sourceFeatureId":"osm-way-1067051854","selectedForCorridor":"veladero","selectionMethod":"network shortest-path extract between fixed corridor anchors","selectionLengthKm":0.049982,"sourceGeometryClipped":true,"sourceGeometrySimplifiedToleranceM":100,"sourceGeometrySimplificationMethod":"Ramer-Douglas-Peucker on clipped source path"},"geometry":{"type":"LineString","coordinates":[[-69.900676,-29.402209],[-69.900904,-29.401807]]}},{"type":"Feature","id":"osm-way-1464930582","properties":{"highway":"tertiary","name":"Camino a Veladero","surface":"unpaved","osmWayId":1464930582,"sourceFeatureId":"osm-way-1464930582","selectedForCorridor":"veladero","selectionMethod":"network shortest-path extract between fixed corridor anchors","selectionLengthKm":4.636051,"sourceGeometryClipped":true,"sourceGeometrySimplifiedToleranceM":100,"sourceGeometrySimplificationMethod":"Ramer-Douglas-Peucker on clipped source path"},"geometry":{"type":"LineString","coordinates":[[-69.900904,-29.401807],[-69.915707,-29.389197],[-69.916542,-29.383677],[-69.928794,-29.370133]]}},{"type":"Feature","id":"osm-way-1067051853","properties":{"highway":"unclassified","name":"Camino a Veladero","surface":"unpaved","osmWayId":1067051853,"sourceFeatureId":"osm-way-1067051853","selectedForCorridor":"veladero","selectionMethod":"network shortest-path extract between fixed corridor anchors","selectionLengthKm":0.465429,"sourceGeometryClipped":true,"sourceGeometrySimplifiedToleranceM":100,"sourceGeometrySimplificationMethod":"Ramer-Douglas-Peucker on clipped source path"},"geometry":{"type":"LineString","coordinates":[[-69.928794,-29.370133],[-69.932118,-29.367215]]}},{"type":"Feature","id":"osm-way-246645197","properties":{"highway":"track","osmWayId":246645197,"sourceFeatureId":"osm-way-246645197","selectedForCorridor":"veladero","selectionMethod":"network shortest-path extract between fixed corridor anchors","selectionLengthKm":3.118573,"sourceGeometryClipped":true,"sourceGeometrySimplifiedToleranceM":100,"sourceGeometrySimplificationMethod":"Ramer-Douglas-Peucker on clipped source path"},"geometry":{"type":"LineString","coordinates":[[-69.932118,-29.367215],[-69.931369,-29.370227],[-69.932855,-29.373649],[-69.942398,-29.390911],[-69.942407,-29.389725]]}},{"type":"Feature","id":"osm-way-246643818","properties":{"highway":"track","osmWayId":246643818,"sourceFeatureId":"osm-way-246643818","selectedForCorridor":"veladero","selectionMethod":"network shortest-path extract between fixed corridor anchors","selectionLengthKm":0.097488,"sourceGeometryClipped":true,"sourceGeometrySimplifiedToleranceM":100,"sourceGeometrySimplificationMethod":"Ramer-Douglas-Peucker on clipped source path"},"geometry":{"type":"LineString","coordinates":[[-69.942407,-29.389725],[-69.941942,-29.388953]]}},{"type":"Feature","id":"osm-way-246644692","properties":{"highway":"track","osmWayId":246644692,"sourceFeatureId":"osm-way-246644692","selectedForCorridor":"veladero","selectionMethod":"network shortest-path extract between fixed corridor anchors","selectionLengthKm":0.399254,"sourceGeometryClipped":true,"sourceGeometrySimplifiedToleranceM":100,"sourceGeometrySimplificationMethod":"Ramer-Douglas-Peucker on clipped source path"},"geometry":{"type":"LineString","coordinates":[[-69.941942,-29.388953],[-69.944424,-29.389645]]}},{"type":"Feature","id":"osm-way-246644691","properties":{"highway":"track","osmWayId":246644691,"sourceFeatureId":"osm-way-246644691","selectedForCorridor":"veladero","selectionMethod":"network shortest-path extract between fixed corridor anchors","selectionLengthKm":2.393416,"sourceGeometryClipped":true,"sourceGeometrySimplifiedToleranceM":100,"sourceGeometrySimplificationMethod":"Ramer-Douglas-Peucker on clipped source path"},"geometry":{"type":"LineString","coordinates":[[-69.944424,-29.389645],[-69.942548,-29.376697],[-69.944801,-29.368904]]}},{"type":"Feature","id":"osm-way-246643820","properties":{"highway":"track","osmWayId":246643820,"sourceFeatureId":"osm-way-246643820","selectedForCorridor":"veladero","selectionMethod":"network shortest-path extract between fixed corridor anchors","selectionLengthKm":0.815906,"sourceGeometryClipped":true,"sourceGeometrySimplifiedToleranceM":100,"sourceGeometrySimplificationMethod":"Ramer-Douglas-Peucker on clipped source path"},"geometry":{"type":"LineString","coordinates":[[-69.944801,-29.368904],[-69.946796,-29.375821]]}},{"type":"Feature","id":"osm-way-246643821","properties":{"highway":"track","osmWayId":246643821,"sourceFeatureId":"osm-way-246643821","selectedForCorridor":"veladero","selectionMethod":"network shortest-path extract between fixed corridor anchors","selectionLengthKm":1.489518,"sourceGeometryClipped":true,"sourceGeometrySimplifiedToleranceM":100,"sourceGeometrySimplificationMethod":"Ramer-Douglas-Peucker on clipped source path"},"geometry":{"type":"LineString","coordinates":[[-69.946796,-29.375821],[-69.95053,-29.365907],[-69.951464,-29.368385]]}}]}