{"type":"FeatureCollection","features":[{"type":"Feature","id":"vial_nacional.2175","properties":{"gid":2175,"designacion_de_red_vial":"A014","tipo_de_via_de_transporte":"Autopista","tipo_de_superficie_de_via":"Pavimentado","jurisdiccion_de_via_de_transporte":"Ruta Nacional","autoridad_de_fuente":"IGN","fuente_de_captura":"Dirección Nacional de Vialidad","sourceFeatureId":"vial_nacional.2175","selectedForCorridor":"hualilan","selectionMethod":"network path extract between fixed corridor anchors","selectionLengthKm":5.530301,"sourceGeometryClipped":true,"sourceGeometrySimplifiedToleranceM":10,"sourceGeometrySimplificationMethod":"Ramer-Douglas-Peucker on clipped source path"},"geometry":{"type":"LineString","coordinates":[[-68.552855,-31.538733],[-68.553064,-31.536995],[-68.553584,-31.535907],[-68.5569,-31.532916],[-68.557471,-31.532024],[-68.557748,-31.531134],[-68.557714,-31.52974],[-68.55719,-31.527725],[-68.555961,-31.525889],[-68.55471,-31.524858],[-68.55318,-31.524099],[-68.551774,-31.523732],[-68.545721,-31.523574],[-68.543901,-31.523304],[-68.541758,-31.522784],[-68.538997,-31.521743],[-68.531157,-31.517789],[-68.529582,-31.517207],[-68.52708,-31.516551],[-68.525253,-31.516225],[-68.522487,-31.516006],[-68.517435,-31.516262]]}},{"type":"Feature","id":"vial_nacional.2570","properties":{"gid":2570,"designacion_de_red_vial":"40","tipo_de_via_de_transporte":"Ruta","tipo_de_superficie_de_via":"Pavimentado","jurisdiccion_de_via_de_transporte":"Ruta Nacional","autoridad_de_fuente":"IGN","fuente_de_captura":"Dirección Nacional de Vialidad","sourceFeatureId":"vial_nacional.2570","selectedForCorridor":"hualilan","selectionMethod":"network path extract between fixed corridor anchors","selectionLengthKm":0.011346,"sourceGeometryClipped":true,"sourceGeometrySimplifiedToleranceM":10,"sourceGeometrySimplificationMethod":"Ramer-Douglas-Peucker on clipped source path"},"geometry":{"type":"LineString","coordinates":[[-68.517435,-31.516262],[-68.517464,-31.516163]]}},{"type":"Feature","id":"vial_nacional.2565","properties":{"gid":2565,"designacion_de_red_vial":"40","tipo_de_via_de_transporte":"Ruta","tipo_de_superficie_de_via":"Pavimentado","jurisdiccion_de_via_de_transporte":"Ruta Nacional","autoridad_de_fuente":"IGN","fuente_de_captura":"Dirección Nacional de Vialidad","sourceFeatureId":"vial_nacional.2565","selectedForCorridor":"hualilan","selectionMethod":"network path extract between fixed corridor anchors","selectionLengthKm":0.171766,"sourceGeometryClipped":true,"sourceGeometrySimplifiedToleranceM":10,"sourceGeometrySimplificationMethod":"Ramer-Douglas-Peucker on clipped source path"},"geometry":{"type":"LineString","coordinates":[[-68.517464,-31.516163],[-68.517929,-31.51467]]}},{"type":"Feature","id":"vial_nacional.1192","properties":{"gid":1192,"designacion_de_red_vial":"40","tipo_de_via_de_transporte":"Ruta","tipo_de_superficie_de_via":"Pavimentado","jurisdiccion_de_via_de_transporte":"Ruta Nacional","autoridad_de_fuente":"IGN","fuente_de_captura":"Dirección Nacional de Vialidad","sourceFeatureId":"vial_nacional.1192","selectedForCorridor":"hualilan","selectionMethod":"network path extract between fixed corridor anchors","selectionLengthKm":0.023723,"sourceGeometryClipped":true,"sourceGeometrySimplifiedToleranceM":10,"sourceGeometrySimplificationMethod":"Ramer-Douglas-Peucker on clipped source path"},"geometry":{"type":"LineString","coordinates":[[-68.517929,-31.51467],[-68.517966,-31.514459]]}},{"type":"Feature","id":"vial_nacional.2201","properties":{"gid":2201,"designacion_de_red_vial":"40","tipo_de_via_de_transporte":"Ruta","tipo_de_superficie_de_via":"Pavimentado","jurisdiccion_de_via_de_transporte":"Ruta Nacional","autoridad_de_fuente":"IGN","fuente_de_captura":"Dirección Nacional de Vialidad","sourceFeatureId":"vial_nacional.2201","selectedForCorridor":"hualilan","selectionMethod":"network path extract between fixed corridor anchors","selectionLengthKm":5.951788,"sourceGeometryClipped":true,"sourceGeometrySimplifiedToleranceM":10,"sourceGeometrySimplificationMethod":"Ramer-Douglas-Peucker on clipped source path"},"geometry":{"type":"LineString","coordinates":[[-68.517966,-31.514459],[-68.5176,-31.509871],[-68.518097,-31.498646],[-68.521253,-31.479669],[-68.521135,-31.477837],[-68.519711,-31.469676],[-68.519293,-31.461242]]}},{"type":"Feature","id":"vial_nacional.1174","properties":{"gid":1174,"designacion_de_red_vial":"40","tipo_de_via_de_transporte":"Ruta","tipo_de_superficie_de_via":"Pavimentado","jurisdiccion_de_via_de_transporte":"Ruta Nacional","autoridad_de_fuente":"IGN","fuente_de_captura":"Dirección Nacional de Vialidad","sourceFeatureId":"vial_nacional.1174","selectedForCorridor":"hualilan","selectionMethod":"network path extract between fixed corridor anchors","selectionLengthKm":1.380261,"sourceGeometryClipped":true,"sourceGeometrySimplifiedToleranceM":10,"sourceGeometrySimplificationMethod":"Ramer-Douglas-Peucker on clipped source path"},"geometry":{"type":"LineString","coordinates":[[-68.519293,-31.461242],[-68.518468,-31.448849]]}},{"type":"Feature","id":"vial_nacional.1175","properties":{"gid":1175,"designacion_de_red_vial":"40","tipo_de_via_de_transporte":"Ruta","tipo_de_superficie_de_via":"Pavimentado","jurisdiccion_de_via_de_transporte":"Ruta Nacional","autoridad_de_fuente":"IGN","fuente_de_captura":"Dirección Nacional de Vialidad","sourceFeatureId":"vial_nacional.1175","selectedForCorridor":"hualilan","selectionMethod":"network path extract between fixed corridor anchors","selectionLengthKm":0.269542,"sourceGeometryClipped":true,"sourceGeometrySimplifiedToleranceM":10,"sourceGeometrySimplificationMethod":"Ramer-Douglas-Peucker on clipped source path"},"geometry":{"type":"LineString","coordinates":[[-68.518468,-31.448849],[-68.518629,-31.448199],[-68.519234,-31.4466]]}},{"type":"Feature","id":"vial_nacional.1172","properties":{"gid":1172,"designacion_de_red_vial":"40","tipo_de_via_de_transporte":"Ruta","tipo_de_superficie_de_via":"Pavimentado","jurisdiccion_de_via_de_transporte":"Ruta Nacional","autoridad_de_fuente":"IGN","fuente_de_captura":"Dirección Nacional de Vialidad","sourceFeatureId":"vial_nacional.1172","selectedForCorridor":"hualilan","selectionMethod":"network path extract between fixed corridor anchors","selectionLengthKm":45.107862,"sourceGeometryClipped":true,"sourceGeometrySimplifiedToleranceM":10,"sourceGeometrySimplificationMethod":"Ramer-Douglas-Peucker on clipped source path"},"geometry":{"type":"LineString","coordinates":[[-68.519234,-31.4466],[-68.523091,-31.441598],[-68.52432,-31.440453],[-68.533691,-31.434875],[-68.541665,-31.431494],[-68.542746,-31.430868],[-68.543842,-31.429961],[-68.570091,-31.39612],[-68.571123,-31.39506],[-68.572836,-31.394075],[-68.576833,-31.392292],[-68.580884,-31.391727],[-68.587031,-31.390075],[-68.588781,-31.38918],[-68.591123,-31.38721],[-68.593315,-31.385981],[-68.594477,-31.385516],[-68.597946,-31.384573],[-68.603889,-31.379756],[-68.607174,-31.378093],[-68.608607,-31.376002],[-68.608626,-31.374878],[-68.606424,-31.370175],[-68.606002,-31.36811],[-68.607137,-31.303355],[-68.60739,-31.301359],[-68.608729,-31.29807],[-68.609869,-31.296374],[-68.61274,-31.293994],[-68.614355,-31.292183],[-68.617581,-31.290306],[-68.619775,-31.288653],[-68.62048,-31.287706],[-68.621378,-31.285591],[-68.623203,-31.282673],[-68.627823,-31.277454],[-68.628164,-31.276705],[-68.62834,-31.275717],[-68.629003,-31.263263],[-68.629181,-31.262515],[-68.629819,-31.261346],[-68.6393,-31.248164],[-68.640168,-31.247173],[-68.641436,-31.246096],[-68.65184,-31.238599],[-68.653487,-31.236986],[-68.654494,-31.235489],[-68.655574,-31.233085],[-68.656543,-31.230707],[-68.656923,-31.229002],[-68.656937,-31.227196],[-68.656454,-31.225285],[-68.641526,-31.190966],[-68.640954,-31.188784],[-68.640919,-31.187258],[-68.644688,-31.133461],[-68.644503,-31.132199],[-68.644078,-31.130981],[-68.642156,-31.128108],[-68.641141,-31.127064],[-68.636247,-31.123114],[-68.635428,-31.122103],[-68.635127,-31.121252],[-68.635385,-31.11966],[-68.637694,-31.115316],[-68.638047,-31.114234],[-68.639158,-31.103294],[-68.639053,-31.101884],[-68.638356,-31.098998]]}},{"type":"Feature","id":"vial_nacional.280","properties":{"gid":280,"designacion_de_red_vial":"149","tipo_de_via_de_transporte":"Ruta","tipo_de_superficie_de_via":"Pavimentado","jurisdiccion_de_via_de_transporte":"Ruta Nacional","autoridad_de_fuente":"IGN","fuente_de_captura":"Dirección Nacional de Vialidad","sourceFeatureId":"vial_nacional.280","selectedForCorridor":"hualilan","selectionMethod":"network path extract between fixed corridor anchors","selectionLengthKm":0.169123,"sourceGeometryClipped":true,"sourceGeometrySimplifiedToleranceM":10,"sourceGeometrySimplificationMethod":"Ramer-Douglas-Peucker on clipped source path"},"geometry":{"type":"LineString","coordinates":[[-68.802796,-30.985628],[-68.803569,-30.984259]]}},{"type":"Feature","id":"vial_nacional.1870","properties":{"gid":1870,"designacion_de_red_vial":"149","tipo_de_via_de_transporte":"Ruta","tipo_de_superficie_de_via":"Pavimentado","jurisdiccion_de_via_de_transporte":"Ruta Nacional","autoridad_de_fuente":"IGN","fuente_de_captura":"Dirección Nacional de Vialidad","sourceFeatureId":"vial_nacional.1870","selectedForCorridor":"hualilan","selectionMethod":"network path extract between fixed corridor anchors","selectionLengthKm":39.093503,"sourceGeometryClipped":true,"sourceGeometrySimplifiedToleranceM":10,"sourceGeometrySimplificationMethod":"Ramer-Douglas-Peucker on clipped source path"},"geometry":{"type":"LineString","coordinates":[[-68.803569,-30.984259],[-68.805393,-30.978906],[-68.810475,-30.967926],[-68.810658,-30.967217],[-68.812432,-30.950518],[-68.811262,-30.944807],[-68.811993,-30.940878],[-68.811963,-30.940267],[-68.811241,-30.937569],[-68.812587,-30.933617],[-68.812851,-30.931382],[-68.811947,-30.929076],[-68.812845,-30.926353],[-68.812626,-30.923325],[-68.810344,-30.920896],[-68.810113,-30.920232],[-68.81142,-30.915273],[-68.811825,-30.914641],[-68.81272,-30.913882],[-68.813331,-30.913112],[-68.814145,-30.911066],[-68.814085,-30.910406],[-68.813422,-30.908648],[-68.812439,-30.907085],[-68.812221,-30.906284],[-68.812691,-30.902562],[-68.813812,-30.900542],[-68.814257,-30.898848],[-68.814556,-30.898473],[-68.814942,-30.898335],[-68.815414,-30.898392],[-68.816644,-30.899536],[-68.817232,-30.899479],[-68.818229,-30.89868],[-68.818617,-30.898732],[-68.818945,-30.899011],[-68.81921,-30.900026],[-68.819853,-30.90052],[-68.820309,-30.900419],[-68.820966,-30.899889],[-68.821246,-30.899456],[-68.821502,-30.899385],[-68.82169,-30.899746],[-68.821295,-30.900487],[-68.821639,-30.901062],[-68.822154,-30.901135],[-68.822896,-30.900899],[-68.822971,-30.899947],[-68.8234,-30.899214],[-68.824208,-30.898411],[-68.825345,-30.897607],[-68.82571,-30.897761],[-68.826125,-30.898735],[-68.828197,-30.898316],[-68.828618,-30.8984],[-68.829206,-30.899651],[-68.829722,-30.899772],[-68.83142,-30.899296],[-68.832951,-30.897838],[-68.834687,-30.897461],[-68.836606,-30.897282],[-68.845234,-30.897374],[-68.847398,-30.897091],[-68.944009,-30.866841],[-68.945099,-30.866183],[-68.945516,-30.865335],[-68.94602,-30.862996],[-68.94587,-30.858769],[-68.946015,-30.857788],[-68.950003,-30.850105],[-68.950736,-30.847809],[-68.96359,-30.756562],[-68.963422,-30.753825],[-68.960754,-30.735046],[-68.960415,-30.732408]]}}]}
