{
  "type": "FeatureCollection",
  "features": [
    {
      "type": "Feature",
      "id": "vial_provincial.10291",
      "properties": {
        "gid": 10291,
        "designacion_de_red_vial": "436",
        "tipo_de_via_de_transporte": "Ruta",
        "tipo_de_superficie_de_via": "Pavimentado",
        "jurisdiccion_de_via_de_transporte": "Ruta Provincial",
        "autoridad_de_fuente": "IGN",
        "fuente_de_captura": "UNIDE",
        "sourceFeatureId": "vial_provincial.10291",
        "selectedForCorridor": "hualilan",
        "selectionMethod": "reviewed source-junction clip between pinned coordinates",
        "selectionLengthKm": 0.170469,
        "sourceGeometryClipped": true
      },
      "geometry": {
        "type": "LineString",
        "coordinates": [
          [
            -68.6383556,
            -31.0989982
          ],
          [
            -68.63835538,
            -31.09888614
          ],
          [
            -68.6383552,
            -31.0987965
          ],
          [
            -68.6383668,
            -31.0986773
          ],
          [
            -68.6383919,
            -31.0985619
          ],
          [
            -68.6384294,
            -31.0984542
          ],
          [
            -68.6384721,
            -31.098362
          ],
          [
            -68.638521,
            -31.0982782
          ],
          [
            -68.6385852,
            -31.0981728
          ],
          [
            -68.6386796,
            -31.0980494
          ],
          [
            -68.6388128,
            -31.097932
          ],
          [
            -68.6389243,
            -31.0978392
          ],
          [
            -68.6389799,
            -31.0978059
          ],
          [
            -68.6391483,
            -31.0977201
          ]
        ]
      }
    },
    {
      "type": "Feature",
      "id": "vial_provincial.10290",
      "properties": {
        "gid": 10290,
        "designacion_de_red_vial": "436",
        "tipo_de_via_de_transporte": "Ruta",
        "tipo_de_superficie_de_via": "Pavimentado",
        "jurisdiccion_de_via_de_transporte": "Ruta Provincial",
        "autoridad_de_fuente": "IGN",
        "fuente_de_captura": "UNIDE",
        "sourceFeatureId": "vial_provincial.10290",
        "selectedForCorridor": "hualilan",
        "selectionMethod": "reviewed source-junction clip between pinned coordinates",
        "selectionLengthKm": 22.842258,
        "sourceGeometryClipped": true
      },
      "geometry": {
        "type": "LineString",
        "coordinates": [
          [
            -68.6391483,
            -31.0977201
          ],
          [
            -68.6392025,
            -31.0977021
          ],
          [
            -68.6395533,
            -31.0975859
          ],
          [
            -68.6398513,
            -31.0974877
          ],
          [
            -68.639912,
            -31.097467
          ],
          [
            -68.6399919,
            -31.0974423
          ],
          [
            -68.6402425,
            -31.0973613
          ],
          [
            -68.6403494,
            -31.0973227
          ],
          [
            -68.6405231,
            -31.0972625
          ],
          [
            -68.6406425,
            -31.0972118
          ],
          [
            -68.6407882,
            -31.0971246
          ],
          [
            -68.6409083,
            -31.0970533
          ],
          [
            -68.6410205,
            -31.0969703
          ],
          [
            -68.6411096,
            -31.0968953
          ],
          [
            -68.6412052,
            -31.0967957
          ],
          [
            -68.6412889,
            -31.0967096
          ],
          [
            -68.6414027,
            -31.0965591
          ],
          [
            -68.6419882,
            -31.0957148
          ],
          [
            -68.6426428,
            -31.0948288
          ],
          [
            -68.644526,
            -31.0921954
          ],
          [
            -68.6473419,
            -31.0883089
          ],
          [
            -68.6474744,
            -31.0881003
          ],
          [
            -68.648325,
            -31.0869232
          ],
          [
            -68.6488106,
            -31.0862726
          ],
          [
            -68.6489798,
            -31.086073
          ],
          [
            -68.6491212,
            -31.0859044
          ],
          [
            -68.6493931,
            -31.0856508
          ],
          [
            -68.650193,
            -31.0848204
          ],
          [
            -68.6505747,
            -31.084417
          ],
          [
            -68.650746,
            -31.0842325
          ],
          [
            -68.6508198,
            -31.0841376
          ],
          [
            -68.6509025,
            -31.0840268
          ],
          [
            -68.6509674,
            -31.0839357
          ],
          [
            -68.6516575,
            -31.0829679
          ],
          [
            -68.6524959,
            -31.0816494
          ],
          [
            -68.6526063,
            -31.0815009
          ],
          [
            -68.6526947,
            -31.0813828
          ],
          [
            -68.6528052,
            -31.0812545
          ],
          [
            -68.6529181,
            -31.0811414
          ],
          [
            -68.6529867,
            -31.0810723
          ],
          [
            -68.6530515,
            -31.081011
          ],
          [
            -68.6531868,
            -31.0808913
          ],
          [
            -68.653265,
            -31.0808347
          ],
          [
            -68.6533511,
            -31.0807787
          ],
          [
            -68.6534721,
            -31.0806919
          ],
          [
            -68.6536058,
            -31.0806113
          ],
          [
            -68.6558229,
            -31.0793088
          ],
          [
            -68.6571489,
            -31.0785485
          ],
          [
            -68.658401,
            -31.0778416
          ],
          [
            -68.6587605,
            -31.0776333
          ],
          [
            -68.6595864,
            -31.07719
          ],
          [
            -68.6603055,
            -31.0767683
          ],
          [
            -68.6607433,
            -31.0765404
          ],
          [
            -68.6619092,
            -31.0759679
          ],
          [
            -68.6628418,
            -31.0755201
          ],
          [
            -68.6642929,
            -31.0748163
          ],
          [
            -68.6644649,
            -31.0747341
          ],
          [
            -68.6646133,
            -31.0746651
          ],
          [
            -68.6647868,
            -31.0745908
          ],
          [
            -68.6649847,
            -31.0745086
          ],
          [
            -68.665159,
            -31.074439
          ],
          [
            -68.6652957,
            -31.0743888
          ],
          [
            -68.6654975,
            -31.0743236
          ],
          [
            -68.665622,
            -31.0742855
          ],
          [
            -68.6657465,
            -31.074252
          ],
          [
            -68.665913,
            -31.0742078
          ],
          [
            -68.6709366,
            -31.0729448
          ],
          [
            -68.6718505,
            -31.0727221
          ],
          [
            -68.6719782,
            -31.0726874
          ],
          [
            -68.6721525,
            -31.0726357
          ],
          [
            -68.6722947,
            -31.0725908
          ],
          [
            -68.67245,
            -31.0725415
          ],
          [
            -68.6725975,
            -31.0724886
          ],
          [
            -68.6727568,
            -31.0724226
          ],
          [
            -68.6728818,
            -31.0723646
          ],
          [
            -68.6730218,
            -31.0722965
          ],
          [
            -68.6731986,
            -31.0721996
          ],
          [
            -68.6733807,
            -31.0720935
          ],
          [
            -68.6738372,
            -31.0718148
          ],
          [
            -68.6745582,
            -31.071356
          ],
          [
            -68.6749412,
            -31.0711152
          ],
          [
            -68.6755781,
            -31.0707128
          ],
          [
            -68.6773854,
            -31.0695627
          ],
          [
            -68.6800361,
            -31.0678877
          ],
          [
            -68.6805886,
            -31.0675306
          ],
          [
            -68.6812932,
            -31.0670966
          ],
          [
            -68.6825925,
            -31.066266
          ],
          [
            -68.6841277,
            -31.0652872
          ],
          [
            -68.6842959,
            -31.0651807
          ],
          [
            -68.6862973,
            -31.0639126
          ],
          [
            -68.6893663,
            -31.0619659
          ],
          [
            -68.6895745,
            -31.0618368
          ],
          [
            -68.6905435,
            -31.06123
          ],
          [
            -68.6990553,
            -31.0558202
          ],
          [
            -68.700794,
            -31.0546858
          ],
          [
            -68.7013395,
            -31.0543519
          ],
          [
            -68.7014812,
            -31.0542594
          ],
          [
            -68.7020184,
            -31.0539237
          ],
          [
            -68.703251,
            -31.0531353
          ],
          [
            -68.7057761,
            -31.051542
          ],
          [
            -68.7060714,
            -31.0513445
          ],
          [
            -68.706611,
            -31.0510044
          ],
          [
            -68.709793,
            -31.0489863
          ],
          [
            -68.7124766,
            -31.0472921
          ],
          [
            -68.7133338,
            -31.0467316
          ],
          [
            -68.7144619,
            -31.0460264
          ],
          [
            -68.7151292,
            -31.0456016
          ],
          [
            -68.7158731,
            -31.0451352
          ],
          [
            -68.7166218,
            -31.0446568
          ],
          [
            -68.7171732,
            -31.044312
          ],
          [
            -68.7183642,
            -31.0435611
          ],
          [
            -68.7188668,
            -31.043242
          ],
          [
            -68.7198471,
            -31.0426092
          ],
          [
            -68.7202777,
            -31.0423283
          ],
          [
            -68.7209578,
            -31.0418898
          ],
          [
            -68.7215287,
            -31.0415374
          ],
          [
            -68.7216221,
            -31.0414793
          ],
          [
            -68.7236043,
            -31.0402263
          ],
          [
            -68.7243427,
            -31.0397529
          ],
          [
            -68.7245924,
            -31.0395997
          ],
          [
            -68.7247027,
            -31.039538
          ],
          [
            -68.7248102,
            -31.0394785
          ],
          [
            -68.724926,
            -31.0394169
          ],
          [
            -68.7250425,
            -31.0393587
          ],
          [
            -68.7251656,
            -31.0393052
          ],
          [
            -68.725283,
            -31.0392553
          ],
          [
            -68.7253971,
            -31.0392119
          ],
          [
            -68.7255243,
            -31.0391677
          ],
          [
            -68.7256492,
            -31.0391303
          ],
          [
            -68.7257657,
            -31.0390996
          ],
          [
            -68.7258776,
            -31.0390722
          ],
          [
            -68.725993,
            -31.0390524
          ],
          [
            -68.7288706,
            -31.0386387
          ],
          [
            -68.7305051,
            -31.0384167
          ],
          [
            -68.7309592,
            -31.0383564
          ],
          [
            -68.7313196,
            -31.0383065
          ],
          [
            -68.7316467,
            -31.0382554
          ],
          [
            -68.7318653,
            -31.0382178
          ],
          [
            -68.7320609,
            -31.0381761
          ],
          [
            -68.7322198,
            -31.0381347
          ],
          [
            -68.7323921,
            -31.0380818
          ],
          [
            -68.7325479,
            -31.0380256
          ],
          [
            -68.7327578,
            -31.0379389
          ],
          [
            -68.7334128,
            -31.0376407
          ],
          [
            -68.7338387,
            -31.0374335
          ],
          [
            -68.7343165,
            -31.0372045
          ],
          [
            -68.7345162,
            -31.0371095
          ],
          [
            -68.7347255,
            -31.0370088
          ],
          [
            -68.7351162,
            -31.0368256
          ],
          [
            -68.7353373,
            -31.0367247
          ],
          [
            -68.7355092,
            -31.0366386
          ],
          [
            -68.735631,
            -31.0365743
          ],
          [
            -68.7357552,
            -31.036506
          ],
          [
            -68.7358834,
            -31.0364308
          ],
          [
            -68.7360055,
            -31.0363553
          ],
          [
            -68.7361232,
            -31.0362752
          ],
          [
            -68.7362463,
            -31.0361904
          ],
          [
            -68.7363715,
            -31.0360986
          ],
          [
            -68.7364976,
            -31.0359971
          ],
          [
            -68.7372866,
            -31.0353405
          ],
          [
            -68.7378219,
            -31.0349003
          ],
          [
            -68.7378961,
            -31.0348307
          ],
          [
            -68.7379649,
            -31.0347656
          ],
          [
            -68.738073,
            -31.0346517
          ],
          [
            -68.7381829,
            -31.0345316
          ],
          [
            -68.7382848,
            -31.0344093
          ],
          [
            -68.7386064,
            -31.0339905
          ],
          [
            -68.7391412,
            -31.0332794
          ],
          [
            -68.7396133,
            -31.0326514
          ],
          [
            -68.7398965,
            -31.0322696
          ],
          [
            -68.7401164,
            -31.0319679
          ],
          [
            -68.7403592,
            -31.0316423
          ],
          [
            -68.7407714,
            -31.0310927
          ],
          [
            -68.7411782,
            -31.0305454
          ],
          [
            -68.7413165,
            -31.0303704
          ],
          [
            -68.7414548,
            -31.030223
          ],
          [
            -68.7415308,
            -31.0301535
          ],
          [
            -68.7415907,
            -31.0301069
          ],
          [
            -68.7416935,
            -31.030035
          ],
          [
            -68.741799,
            -31.0299654
          ],
          [
            -68.7421136,
            -31.0297656
          ],
          [
            -68.7424282,
            -31.0295841
          ],
          [
            -68.7432345,
            -31.0290927
          ],
          [
            -68.7435259,
            -31.0289127
          ],
          [
            -68.7436711,
            -31.0288181
          ],
          [
            -68.7438533,
            -31.0286856
          ],
          [
            -68.7439306,
            -31.0286258
          ],
          [
            -68.7440142,
            -31.0285528
          ],
          [
            -68.7440859,
            -31.0284797
          ],
          [
            -68.7441917,
            -31.0283772
          ],
          [
            -68.744276,
            -31.028282
          ],
          [
            -68.7443423,
            -31.0281903
          ],
          [
            -68.7444059,
            -31.0280842
          ],
          [
            -68.7446397,
            -31.0276166
          ],
          [
            -68.7448406,
            -31.0272017
          ],
          [
            -68.7449465,
            -31.0269804
          ],
          [
            -68.7450101,
            -31.0268744
          ],
          [
            -68.7450684,
            -31.0267775
          ],
          [
            -68.7451462,
            -31.0266695
          ],
          [
            -68.74524,
            -31.0265523
          ],
          [
            -68.7455802,
            -31.0261829
          ],
          [
            -68.7463906,
            -31.0252804
          ],
          [
            -68.7469503,
            -31.0246995
          ],
          [
            -68.7470543,
            -31.0245981
          ],
          [
            -68.7471274,
            -31.0245436
          ],
          [
            -68.7472112,
            -31.0244825
          ],
          [
            -68.7473021,
            -31.0244243
          ],
          [
            -68.7475083,
            -31.0243225
          ],
          [
            -68.7477602,
            -31.0242129
          ],
          [
            -68.7479531,
            -31.0241308
          ],
          [
            -68.7481567,
            -31.0240188
          ],
          [
            -68.748275,
            -31.0239359
          ],
          [
            -68.7483611,
            -31.0238577
          ],
          [
            -68.7484533,
            -31.0237515
          ],
          [
            -68.7485053,
            -31.0236591
          ],
          [
            -68.7485658,
            -31.0234935
          ],
          [
            -68.7486353,
            -31.0231725
          ],
          [
            -68.7487641,
            -31.0226576
          ],
          [
            -68.7488719,
            -31.0222562
          ],
          [
            -68.748895,
            -31.0221664
          ],
          [
            -68.748908,
            -31.0221286
          ],
          [
            -68.7489298,
            -31.0220836
          ],
          [
            -68.748958,
            -31.0220388
          ],
          [
            -68.7489969,
            -31.0220078
          ],
          [
            -68.7490452,
            -31.0219836
          ],
          [
            -68.7490935,
            -31.0219641
          ],
          [
            -68.7491552,
            -31.021948
          ],
          [
            -68.749249,
            -31.0219342
          ],
          [
            -68.7493375,
            -31.0219434
          ],
          [
            -68.7493992,
            -31.0219641
          ],
          [
            -68.7494636,
            -31.0220032
          ],
          [
            -68.7495038,
            -31.0220537
          ],
          [
            -68.7495414,
            -31.0221112
          ],
          [
            -68.7495682,
            -31.0222008
          ],
          [
            -68.7495929,
            -31.0223129
          ],
          [
            -68.7497056,
            -31.0228898
          ],
          [
            -68.7497951,
            -31.0233607
          ],
          [
            -68.7498611,
            -31.0237196
          ],
          [
            -68.7500499,
            -31.0245333
          ],
          [
            -68.7501894,
            -31.0249654
          ],
          [
            -68.7503063,
            -31.0252833
          ],
          [
            -68.7504453,
            -31.0255552
          ],
          [
            -68.7506409,
            -31.0258343
          ],
          [
            -68.7509376,
            -31.0261101
          ],
          [
            -68.7511795,
            -31.0263134
          ],
          [
            -68.7514299,
            -31.0264695
          ],
          [
            -68.751611,
            -31.0265524
          ],
          [
            -68.7517566,
            -31.026594
          ],
          [
            -68.7518345,
            -31.0266171
          ],
          [
            -68.7519579,
            -31.0266265
          ],
          [
            -68.7521112,
            -31.0266397
          ],
          [
            -68.7522011,
            -31.0266296
          ],
          [
            -68.7523985,
            -31.0266234
          ],
          [
            -68.7525641,
            -31.0266025
          ],
          [
            -68.7527965,
            -31.026588
          ],
          [
            -68.7529919,
            -31.0265992
          ],
          [
            -68.7533218,
            -31.026619
          ],
          [
            -68.7535766,
            -31.0266391
          ],
          [
            -68.7538028,
            -31.0266569
          ],
          [
            -68.7539459,
            -31.026668
          ],
          [
            -68.7540707,
            -31.0266792
          ],
          [
            -68.7541929,
            -31.0266792
          ],
          [
            -68.7543125,
            -31.0266703
          ],
          [
            -68.7544893,
            -31.026648
          ],
          [
            -68.7546428,
            -31.0266101
          ],
          [
            -68.7548508,
            -31.0265254
          ],
          [
            -68.7550094,
            -31.0264318
          ],
          [
            -68.7551888,
            -31.026307
          ],
          [
            -68.7554359,
            -31.0261221
          ],
          [
            -68.755891,
            -31.0257656
          ],
          [
            -68.7562108,
            -31.0255405
          ],
          [
            -68.7564656,
            -31.0253511
          ],
          [
            -68.7565931,
            -31.0252575
          ],
          [
            -68.7566841,
            -31.025204
          ],
          [
            -68.7567595,
            -31.0251684
          ],
          [
            -68.7568245,
            -31.0251483
          ],
          [
            -68.7569025,
            -31.0251416
          ],
          [
            -68.7569805,
            -31.0251461
          ],
          [
            -68.7571183,
            -31.025175
          ],
          [
            -68.7576696,
            -31.0252798
          ],
          [
            -68.7582989,
            -31.0254202
          ],
          [
            -68.7583717,
            -31.0254335
          ],
          [
            -68.7586006,
            -31.0254714
          ],
          [
            -68.7599554,
            -31.0256876
          ],
          [
            -68.7600906,
            -31.0257098
          ],
          [
            -68.7602076,
            -31.0257321
          ],
          [
            -68.760322,
            -31.0257633
          ],
          [
            -68.7604104,
            -31.025799
          ],
          [
            -68.7604884,
            -31.0258618
          ],
          [
            -68.760562,
            -31.0259271
          ],
          [
            -68.7607008,
            -31.0261092
          ],
          [
            -68.7607978,
            -31.0262649
          ],
          [
            -68.7608956,
            -31.0263937
          ],
          [
            -68.7610301,
            -31.0265745
          ],
          [
            -68.7611589,
            -31.0267011
          ],
          [
            -68.7612828,
            -31.0268157
          ],
          [
            -68.7613593,
            -31.0268868
          ],
          [
            -68.761464,
            -31.026961
          ],
          [
            -68.7615486,
            -31.0270036
          ],
          [
            -68.7617022,
            -31.0271057
          ],
          [
            -68.7618042,
            -31.0271804
          ],
          [
            -68.7618578,
            -31.0272379
          ],
          [
            -68.7619105,
            -31.027307
          ],
          [
            -68.7619931,
            -31.0274601
          ],
          [
            -68.7620588,
            -31.0276094
          ],
          [
            -68.7621167,
            -31.027748
          ],
          [
            -68.7621879,
            -31.0278459
          ],
          [
            -68.7622638,
            -31.0279001
          ],
          [
            -68.7623451,
            -31.0279516
          ],
          [
            -68.7624517,
            -31.0279939
          ],
          [
            -68.7625791,
            -31.0280251
          ],
          [
            -68.7626858,
            -31.028034
          ],
          [
            -68.7627976,
            -31.0280117
          ],
          [
            -68.7629016,
            -31.0279783
          ],
          [
            -68.7629952,
            -31.0279404
          ],
          [
            -68.7630914,
            -31.0278825
          ],
          [
            -68.7631746,
            -31.0278134
          ],
          [
            -68.7632448,
            -31.0277198
          ],
          [
            -68.7632968,
            -31.0276329
          ],
          [
            -68.7633541,
            -31.0274903
          ],
          [
            -68.7634425,
            -31.0272006
          ],
          [
            -68.7639307,
            -31.0256981
          ],
          [
            -68.7640626,
            -31.0252649
          ],
          [
            -68.7641026,
            -31.0251629
          ],
          [
            -68.7641439,
            -31.0250677
          ],
          [
            -68.7641894,
            -31.0249796
          ],
          [
            -68.7642488,
            -31.0248752
          ],
          [
            -68.7643597,
            -31.0246747
          ],
          [
            -68.7644617,
            -31.024478
          ],
          [
            -68.7645524,
            -31.0242909
          ],
          [
            -68.7646235,
            -31.0241271
          ],
          [
            -68.7646853,
            -31.0239737
          ],
          [
            -68.7647265,
            -31.023856
          ],
          [
            -68.7647575,
            -31.0237499
          ],
          [
            -68.7647858,
            -31.0236254
          ],
          [
            -68.7648095,
            -31.0234806
          ],
          [
            -68.7648378,
            -31.0233054
          ],
          [
            -68.7648922,
            -31.0229243
          ],
          [
            -68.764915,
            -31.0228128
          ],
          [
            -68.7649431,
            -31.0227197
          ],
          [
            -68.7649793,
            -31.022622
          ],
          [
            -68.7650236,
            -31.0225301
          ],
          [
            -68.7650773,
            -31.0224347
          ],
          [
            -68.7651507,
            -31.022324
          ],
          [
            -68.7652366,
            -31.0221834
          ],
          [
            -68.765316,
            -31.0220554
          ],
          [
            -68.7653813,
            -31.0219436
          ],
          [
            -68.765443,
            -31.0218387
          ],
          [
            -68.765502,
            -31.0217107
          ],
          [
            -68.7655855,
            -31.0215067
          ],
          [
            -68.7656664,
            -31.0213372
          ],
          [
            -68.7657581,
            -31.0211769
          ],
          [
            -68.7658573,
            -31.0210165
          ],
          [
            -68.7659717,
            -31.0208347
          ],
          [
            -68.7660192,
            -31.0207459
          ],
          [
            -68.7660391,
            -31.020695
          ],
          [
            -68.766054,
            -31.0206441
          ],
          [
            -68.766069,
            -31.0205563
          ],
          [
            -68.7660763,
            -31.020449
          ],
          [
            -68.7660991,
            -31.0197302
          ],
          [
            -68.7661347,
            -31.018996
          ],
          [
            -68.7661299,
            -31.0187241
          ],
          [
            -68.7660981,
            -31.0184416
          ],
          [
            -68.7660539,
            -31.0182289
          ],
          [
            -68.7660135,
            -31.0180792
          ],
          [
            -68.7659731,
            -31.0179294
          ],
          [
            -68.7659366,
            -31.0177434
          ],
          [
            -68.7659087,
            -31.0175501
          ],
          [
            -68.7658924,
            -31.0173962
          ],
          [
            -68.7658653,
            -31.0168457
          ],
          [
            -68.7658332,
            -31.0161607
          ],
          [
            -68.7658063,
            -31.0156733
          ],
          [
            -68.7658063,
            -31.0154481
          ],
          [
            -68.7658171,
            -31.0152757
          ],
          [
            -68.7658412,
            -31.0150826
          ],
          [
            -68.7658761,
            -31.0148895
          ],
          [
            -68.7659378,
            -31.0146642
          ],
          [
            -68.7660236,
            -31.0143378
          ],
          [
            -68.766088,
            -31.0140849
          ],
          [
            -68.7661168,
            -31.0139352
          ],
          [
            -68.7661089,
            -31.013692
          ],
          [
            -68.7661286,
            -31.0134825
          ],
          [
            -68.7661443,
            -31.0133243
          ],
          [
            -68.7662119,
            -31.0131586
          ],
          [
            -68.766287,
            -31.0129889
          ],
          [
            -68.7663035,
            -31.0128031
          ],
          [
            -68.7662733,
            -31.0125653
          ],
          [
            -68.7662371,
            -31.0123069
          ],
          [
            -68.7661634,
            -31.0119821
          ],
          [
            -68.7659523,
            -31.0114213
          ],
          [
            -68.7658868,
            -31.0112325
          ],
          [
            -68.7658739,
            -31.0110717
          ],
          [
            -68.7658902,
            -31.0108817
          ],
          [
            -68.7659366,
            -31.0107123
          ],
          [
            -68.766025,
            -31.010535
          ],
          [
            -68.7661655,
            -31.0103227
          ],
          [
            -68.7663389,
            -31.0102036
          ],
          [
            -68.7664884,
            -31.0101721
          ],
          [
            -68.7666697,
            -31.0101746
          ],
          [
            -68.7669704,
            -31.0102325
          ],
          [
            -68.7672018,
            -31.0102949
          ],
          [
            -68.767465,
            -31.0103523
          ],
          [
            -68.7675665,
            -31.0103584
          ],
          [
            -68.7676976,
            -31.0103578
          ],
          [
            -68.7678805,
            -31.0103028
          ],
          [
            -68.7680164,
            -31.0102574
          ],
          [
            -68.7681548,
            -31.0102118
          ],
          [
            -68.7683082,
            -31.0101645
          ],
          [
            -68.7684157,
            -31.0101348
          ],
          [
            -68.7685611,
            -31.0101285
          ],
          [
            -68.7687309,
            -31.0101441
          ],
          [
            -68.768862,
            -31.0101574
          ],
          [
            -68.7691063,
            -31.0101711
          ],
          [
            -68.7692534,
            -31.010165
          ],
          [
            -68.7694445,
            -31.0101223
          ],
          [
            -68.7696206,
            -31.0100693
          ],
          [
            -68.7698296,
            -31.0099707
          ],
          [
            -68.7708809,
            -31.0095392
          ],
          [
            -68.7711604,
            -31.009432
          ],
          [
            -68.7714417,
            -31.0093733
          ],
          [
            -68.771624,
            -31.0093242
          ],
          [
            -68.7717697,
            -31.0092724
          ],
          [
            -68.7719868,
            -31.0092077
          ],
          [
            -68.772254,
            -31.0091793
          ],
          [
            -68.7724559,
            -31.0091945
          ],
          [
            -68.7727383,
            -31.0092247
          ],
          [
            -68.7730175,
            -31.0092744
          ],
          [
            -68.773207,
            -31.0092786
          ],
          [
            -68.7734261,
            -31.0092699
          ],
          [
            -68.7736071,
            -31.0092249
          ],
          [
            -68.7744131,
            -31.0089562
          ],
          [
            -68.7752718,
            -31.0086582
          ],
          [
            -68.7754613,
            -31.0085887
          ],
          [
            -68.7756509,
            -31.0085146
          ],
          [
            -68.7757716,
            -31.0084571
          ],
          [
            -68.7758822,
            -31.0083906
          ],
          [
            -68.7759873,
            -31.0083104
          ],
          [
            -68.7761147,
            -31.0081962
          ],
          [
            -68.776351,
            -31.0079307
          ],
          [
            -68.7765225,
            -31.0077311
          ],
          [
            -68.7766538,
            -31.007589
          ],
          [
            -68.7771642,
            -31.0070604
          ],
          [
            -68.7772219,
            -31.0069966
          ],
          [
            -68.7772659,
            -31.0069366
          ],
          [
            -68.7773228,
            -31.0068508
          ],
          [
            -68.7773711,
            -31.0067626
          ],
          [
            -68.777413,
            -31.0066761
          ],
          [
            -68.7774521,
            -31.0065871
          ],
          [
            -68.7774963,
            -31.0064873
          ],
          [
            -68.7775317,
            -31.0064132
          ],
          [
            -68.777578,
            -31.0063163
          ],
          [
            -68.7776268,
            -31.0062373
          ],
          [
            -68.7776842,
            -31.0061533
          ],
          [
            -68.7777566,
            -31.0060715
          ],
          [
            -68.7778242,
            -31.0059988
          ],
          [
            -68.7778922,
            -31.0059355
          ],
          [
            -68.7779574,
            -31.0058796
          ],
          [
            -68.7780561,
            -31.0058123
          ],
          [
            -68.778144,
            -31.0057652
          ],
          [
            -68.778263,
            -31.0057053
          ],
          [
            -68.7783958,
            -31.0056481
          ],
          [
            -68.77858,
            -31.0055811
          ],
          [
            -68.7788056,
            -31.0054934
          ],
          [
            -68.7791182,
            -31.0053722
          ],
          [
            -68.7794179,
            -31.0052453
          ],
          [
            -68.779825,
            -31.0050764
          ],
          [
            -68.7803959,
            -31.0048635
          ],
          [
            -68.7810215,
            -31.0046181
          ],
          [
            -68.7812687,
            -31.0045035
          ],
          [
            -68.7815445,
            -31.0043753
          ],
          [
            -68.7818521,
            -31.0042352
          ],
          [
            -68.7819708,
            -31.0041859
          ],
          [
            -68.7821086,
            -31.0041361
          ],
          [
            -68.7822204,
            -31.0041043
          ],
          [
            -68.7823166,
            -31.0040844
          ],
          [
            -68.7823935,
            -31.0040733
          ],
          [
            -68.7824936,
            -31.0040603
          ],
          [
            -68.7825951,
            -31.0040542
          ],
          [
            -68.7827789,
            -31.0040521
          ],
          [
            -68.7835541,
            -31.0040328
          ],
          [
            -68.7845649,
            -31.0040107
          ],
          [
            -68.7855706,
            -31.0039907
          ],
          [
            -68.7863351,
            -31.0039699
          ],
          [
            -68.7875296,
            -31.0039468
          ],
          [
            -68.7884158,
            -31.0039422
          ],
          [
            -68.7885209,
            -31.0039435
          ],
          [
            -68.7886114,
            -31.0039522
          ],
          [
            -68.7887276,
            -31.0039671
          ],
          [
            -68.7888706,
            -31.0039825
          ],
          [
            -68.7890173,
            -31.0040273
          ],
          [
            -68.7891718,
            -31.004054
          ],
          [
            -68.7893273,
            -31.0040939
          ],
          [
            -68.7894786,
            -31.0041333
          ],
          [
            -68.7897491,
            -31.0042126
          ],
          [
            -68.7899311,
            -31.0042776
          ],
          [
            -68.7901592,
            -31.0043833
          ],
          [
            -68.7902528,
            -31.0044258
          ],
          [
            -68.7904686,
            -31.0045236
          ],
          [
            -68.7907202,
            -31.004652
          ],
          [
            -68.790941,
            -31.0047583
          ],
          [
            -68.7910802,
            -31.004828
          ],
          [
            -68.791165,
            -31.0048639
          ],
          [
            -68.7912617,
            -31.004899
          ],
          [
            -68.7913648,
            -31.0049274
          ],
          [
            -68.7914576,
            -31.0049321
          ],
          [
            -68.7915085,
            -31.0049345
          ],
          [
            -68.7916681,
            -31.0049266
          ],
          [
            -68.7917281,
            -31.0049256
          ],
          [
            -68.791856,
            -31.0049027
          ],
          [
            -68.7919933,
            -31.0048618
          ],
          [
            -68.7920862,
            -31.0048207
          ],
          [
            -68.7921956,
            -31.0047758
          ],
          [
            -68.7922995,
            -31.0047246
          ],
          [
            -68.7924297,
            -31.0046478
          ],
          [
            -68.7925429,
            -31.0045766
          ],
          [
            -68.792651,
            -31.004499
          ],
          [
            -68.7927544,
            -31.00442
          ],
          [
            -68.7928397,
            -31.0043322
          ],
          [
            -68.7929053,
            -31.0042496
          ],
          [
            -68.7929605,
            -31.0041491
          ],
          [
            -68.7929935,
            -31.0040611
          ],
          [
            -68.79301,
            -31.0039524
          ],
          [
            -68.7930109,
            -31.0038571
          ],
          [
            -68.7929938,
            -31.0037155
          ],
          [
            -68.792956,
            -31.0035738
          ],
          [
            -68.7929033,
            -31.0033985
          ],
          [
            -68.7928246,
            -31.003163
          ],
          [
            -68.7927389,
            -31.0029297
          ],
          [
            -68.7926237,
            -31.0026885
          ],
          [
            -68.7924155,
            -31.0022873
          ],
          [
            -68.792288,
            -31.0020809
          ],
          [
            -68.7922509,
            -31.0019904
          ],
          [
            -68.7922329,
            -31.0019248
          ],
          [
            -68.7922281,
            -31.0018435
          ],
          [
            -68.7922502,
            -31.0017398
          ],
          [
            -68.7922759,
            -31.0016604
          ],
          [
            -68.7923336,
            -31.0015381
          ],
          [
            -68.7923678,
            -31.001465
          ],
          [
            -68.7923976,
            -31.0014193
          ],
          [
            -68.792451,
            -31.0013585
          ],
          [
            -68.792525,
            -31.0012741
          ],
          [
            -68.7925962,
            -31.0012047
          ],
          [
            -68.7926852,
            -31.0011356
          ],
          [
            -68.792818,
            -31.0010374
          ],
          [
            -68.7929266,
            -31.0009637
          ],
          [
            -68.7931704,
            -31.000802
          ],
          [
            -68.7933028,
            -31.0006973
          ],
          [
            -68.7933718,
            -31.0006356
          ],
          [
            -68.7934198,
            -31.0005854
          ],
          [
            -68.7934775,
            -31.0005089
          ],
          [
            -68.793536,
            -31.0004143
          ],
          [
            -68.7935672,
            -31.0003206
          ],
          [
            -68.7935987,
            -31.0001964
          ],
          [
            -68.7937914,
            -30.9995921
          ],
          [
            -68.7938436,
            -30.9994076
          ],
          [
            -68.7939042,
            -30.9992166
          ],
          [
            -68.7939482,
            -30.999115
          ],
          [
            -68.7939917,
            -30.9990392
          ],
          [
            -68.7940392,
            -30.9989736
          ],
          [
            -68.7940977,
            -30.9989019
          ],
          [
            -68.7941574,
            -30.9988401
          ],
          [
            -68.7942333,
            -30.9987737
          ],
          [
            -68.7943702,
            -30.9986606
          ],
          [
            -68.7945359,
            -30.9985174
          ],
          [
            -68.7947348,
            -30.9983299
          ],
          [
            -68.7950292,
            -30.99805
          ],
          [
            -68.7953236,
            -30.9977701
          ],
          [
            -68.7955992,
            -30.9974855
          ],
          [
            -68.7957209,
            -30.9973709
          ],
          [
            -68.7958051,
            -30.9972884
          ],
          [
            -68.7959443,
            -30.9971773
          ],
          [
            -68.7961202,
            -30.9970397
          ],
          [
            -68.7965425,
            -30.9967465
          ],
          [
            -68.7966365,
            -30.996679
          ],
          [
            -68.7967171,
            -30.9966136
          ],
          [
            -68.796797,
            -30.9965302
          ],
          [
            -68.7968631,
            -30.9964527
          ],
          [
            -68.7969189,
            -30.9963865
          ],
          [
            -68.7969834,
            -30.9963172
          ],
          [
            -68.7970332,
            -30.9962721
          ],
          [
            -68.7971034,
            -30.996218
          ],
          [
            -68.797163,
            -30.9961776
          ],
          [
            -68.7972328,
            -30.9961367
          ],
          [
            -68.7976046,
            -30.9959393
          ],
          [
            -68.797657,
            -30.995908
          ],
          [
            -68.7976993,
            -30.9958797
          ],
          [
            -68.7977337,
            -30.9958455
          ],
          [
            -68.797804,
            -30.9957844
          ],
          [
            -68.7978378,
            -30.9957385
          ],
          [
            -68.7978931,
            -30.9956567
          ],
          [
            -68.7979497,
            -30.9955814
          ],
          [
            -68.7984878,
            -30.994987
          ],
          [
            -68.798585,
            -30.9948803
          ],
          [
            -68.798674,
            -30.9947703
          ],
          [
            -68.7987646,
            -30.9946805
          ],
          [
            -68.7988568,
            -30.9945966
          ],
          [
            -68.7989324,
            -30.9945294
          ],
          [
            -68.7989804,
            -30.9944506
          ],
          [
            -68.7990457,
            -30.9943617
          ],
          [
            -68.7991187,
            -30.9942344
          ],
          [
            -68.7991797,
            -30.9941497
          ],
          [
            -68.7992215,
            -30.9940856
          ],
          [
            -68.799292,
            -30.9939876
          ],
          [
            -68.7995143,
            -30.993659
          ],
          [
            -68.7995762,
            -30.9935531
          ],
          [
            -68.7996506,
            -30.9934365
          ],
          [
            -68.7997104,
            -30.9933075
          ],
          [
            -68.7997604,
            -30.9932194
          ],
          [
            -68.7997979,
            -30.9930822
          ],
          [
            -68.799837,
            -30.9929824
          ],
          [
            -68.7998738,
            -30.9928809
          ],
          [
            -68.7999382,
            -30.9927659
          ],
          [
            -68.7999864,
            -30.9926894
          ],
          [
            -68.8000502,
            -30.9926171
          ],
          [
            -68.8001112,
            -30.9925464
          ],
          [
            -68.800197,
            -30.9924659
          ],
          [
            -68.8002962,
            -30.9923924
          ],
          [
            -68.8004792,
            -30.9922651
          ],
          [
            -68.8006037,
            -30.9921814
          ],
          [
            -68.8007082,
            -30.9920978
          ],
          [
            -68.8007587,
            -30.9920549
          ],
          [
            -68.8011133,
            -30.9917209
          ],
          [
            -68.8012613,
            -30.9916188
          ],
          [
            -68.8014307,
            -30.9914976
          ],
          [
            -68.8016164,
            -30.9913765
          ],
          [
            -68.8017369,
            -30.9912911
          ],
          [
            -68.8018634,
            -30.9911902
          ],
          [
            -68.8019413,
            -30.9911263
          ],
          [
            -68.8020133,
            -30.9910597
          ],
          [
            -68.802132,
            -30.9909189
          ],
          [
            -68.8022102,
            -30.9907975
          ],
          [
            -68.8023588,
            -30.9905608
          ],
          [
            -68.8025032,
            -30.9903093
          ],
          [
            -68.8026181,
            -30.9900988
          ],
          [
            -68.8026848,
            -30.9899631
          ],
          [
            -68.8027208,
            -30.9898623
          ],
          [
            -68.8027388,
            -30.9897789
          ],
          [
            -68.8027488,
            -30.9896927
          ],
          [
            -68.8027468,
            -30.989602
          ],
          [
            -68.8027351,
            -30.989498
          ],
          [
            -68.8027223,
            -30.9894307
          ],
          [
            -68.8027009,
            -30.9893426
          ],
          [
            -68.8026657,
            -30.9892353
          ],
          [
            -68.8026223,
            -30.9891032
          ],
          [
            -68.8025707,
            -30.9889075
          ],
          [
            -68.8025413,
            -30.9887743
          ],
          [
            -68.8025253,
            -30.9886669
          ],
          [
            -68.8025194,
            -30.9885704
          ],
          [
            -68.8025278,
            -30.98845
          ],
          [
            -68.8025444,
            -30.9883451
          ],
          [
            -68.8025807,
            -30.9881841
          ],
          [
            -68.8026956,
            -30.9876975
          ],
          [
            -68.8027446,
            -30.9874966
          ]
        ]
      }
    },
    {
      "type": "Feature",
      "id": "vial_provincial.10289",
      "properties": {
        "gid": 10289,
        "designacion_de_red_vial": "436",
        "tipo_de_via_de_transporte": "Ruta",
        "tipo_de_superficie_de_via": "Pavimentado",
        "jurisdiccion_de_via_de_transporte": "Ruta Provincial",
        "autoridad_de_fuente": "IGN",
        "fuente_de_captura": "UNIDE",
        "sourceFeatureId": "vial_provincial.10289",
        "selectedForCorridor": "hualilan",
        "selectionMethod": "reviewed source-junction clip between pinned coordinates",
        "selectionLengthKm": 0.209719,
        "sourceGeometryClipped": true
      },
      "geometry": {
        "type": "LineString",
        "coordinates": [
          [
            -68.8027446,
            -30.9874966
          ],
          [
            -68.8028318,
            -30.9870348
          ],
          [
            -68.8028555,
            -30.9869004
          ],
          [
            -68.802883,
            -30.9867353
          ],
          [
            -68.8028786,
            -30.9866201
          ],
          [
            -68.8028738,
            -30.9865431
          ],
          [
            -68.80283011,
            -30.98641147
          ],
          [
            -68.8028137,
            -30.98629583
          ],
          [
            -68.80279954,
            -30.98620162
          ],
          [
            -68.80278735,
            -30.98603012
          ],
          [
            -68.80277348,
            -30.98589372
          ],
          [
            -68.8027955,
            -30.9856283
          ]
        ]
      }
    }
  ]
}
