{
  "type": "FeatureCollection",
  "features": [
    {
      "type": "Feature",
      "id": "osm-way-408648158",
      "properties": {
        "highway": "service",
        "name": "Acceso Ruinas Minas de Hualilán",
        "service": "driveway",
        "surface": "dirt",
        "osmWayId": 408648158,
        "sourceFeatureId": "osm-way-408648158",
        "selectedForCorridor": "hualilan",
        "selectionMethod": "reviewed source-junction clip between pinned coordinates",
        "selectionLengthKm": 0.664515,
        "sourceGeometryClipped": true
      },
      "geometry": {
        "type": "LineString",
        "coordinates": [
          [
            -68.9608727,
            -30.7305878
          ],
          [
            -68.9605427,
            -30.7308167
          ],
          [
            -68.9601779,
            -30.7312594
          ],
          [
            -68.9600071,
            -30.7314103
          ],
          [
            -68.9598185,
            -30.7315729
          ],
          [
            -68.9596208,
            -30.731853
          ],
          [
            -68.9577727,
            -30.7338359
          ],
          [
            -68.9574025,
            -30.7342301
          ],
          [
            -68.9569626,
            -30.7346312
          ],
          [
            -68.9566595,
            -30.7349056
          ],
          [
            -68.9563672,
            -30.7351108
          ]
        ]
      }
    },
    {
      "type": "Feature",
      "id": "osm-way-644573146",
      "properties": {
        "highway": "service",
        "service": "driveway",
        "surface": "dirt",
        "osmWayId": 644573146,
        "sourceFeatureId": "osm-way-644573146",
        "selectedForCorridor": "hualilan",
        "selectionMethod": "reviewed source-junction clip between pinned coordinates",
        "selectionLengthKm": 0.796313,
        "sourceGeometryClipped": true
      },
      "geometry": {
        "type": "LineString",
        "coordinates": [
          [
            -68.9563672,
            -30.7351108
          ],
          [
            -68.9561097,
            -30.7351915
          ],
          [
            -68.9559166,
            -30.7351869
          ],
          [
            -68.9558193,
            -30.735098
          ],
          [
            -68.9556779,
            -30.7349264
          ],
          [
            -68.9555652,
            -30.7347788
          ],
          [
            -68.955525,
            -30.7346082
          ],
          [
            -68.955474,
            -30.7344676
          ],
          [
            -68.9553748,
            -30.7343823
          ],
          [
            -68.9551548,
            -30.7342232
          ],
          [
            -68.9550502,
            -30.7340872
          ],
          [
            -68.9548672,
            -30.7338922
          ],
          [
            -68.9545989,
            -30.7336386
          ],
          [
            -68.9542511,
            -30.7332871
          ],
          [
            -68.9539506,
            -30.7329781
          ],
          [
            -68.9537361,
            -30.7327522
          ],
          [
            -68.9536333,
            -30.7326012
          ],
          [
            -68.9536065,
            -30.7323937
          ],
          [
            -68.9536073,
            -30.732102
          ],
          [
            -68.9536012,
            -30.7318772
          ],
          [
            -68.9535851,
            -30.7316836
          ],
          [
            -68.9536127,
            -30.7315072
          ],
          [
            -68.9536387,
            -30.7312409
          ],
          [
            -68.9536717,
            -30.7309077
          ],
          [
            -68.9536655,
            -30.7307798
          ],
          [
            -68.9536226,
            -30.7306553
          ],
          [
            -68.9533767,
            -30.7306541
          ],
          [
            -68.9531889,
            -30.7307049
          ],
          [
            -68.9530119,
            -30.7306956
          ],
          [
            -68.9528509,
            -30.7307048
          ],
          [
            -68.9526525,
            -30.7307187
          ],
          [
            -68.9524433,
            -30.7308155
          ],
          [
            -68.9521528,
            -30.7308859
          ],
          [
            -68.9519658,
            -30.7310231
          ]
        ]
      }
    }
  ]
}
