{
  "type": "FeatureCollection",
  "features": [
    {
      "type": "Feature",
      "id": "veladero-origin-connector-v2",
      "properties": {
        "id": "veladero-origin-connector-v2",
        "corridorId": "veladero",
        "geometryClass": "RECONSTRUCTED_ACCESS",
        "sourceFeatureIds": [],
        "evidenceRefs": [
          "veladero-route-geometry-build-v2"
        ],
        "sourceDatasetId": "veladero-derived-geometry-v2",
        "sourceRetrievedAt": "2026-08-30T21:11:04.861Z",
        "limitations": [
          "Explicit derived connector; not public-road source geometry.",
          "These geometries are explicit derived connectors, not source road features.",
          "They exist only to bridge documented sub-2 km gaps or connect the project location anchor."
        ],
        "geometryChainageStartKm": 0,
        "geometryChainageEndKm": 1.566006
      },
      "geometry": {
        "type": "LineString",
        "coordinates": [
          [
            -68.5364,
            -31.5375
          ],
          [
            -68.5528939,
            -31.5383514
          ]
        ]
      }
    },
    {
      "type": "Feature",
      "id": "veladero-a014-public-v2",
      "properties": {
        "id": "veladero-a014-public-v2",
        "corridorId": "veladero",
        "geometryClass": "PUBLIC_ROAD",
        "sourceFeatureIds": [
          "vial_nacional.2175"
        ],
        "evidenceRefs": [
          "veladero-dnv-road-geometry-v2"
        ],
        "sourceDatasetId": "dnv-rutas-nacionales-20260830",
        "sourceRetrievedAt": "2026-08-30T21:11:04.861Z",
        "sourceLicense": "Otra (Abierta)",
        "limitations": [
          "Frozen corridor-only extract acquired from the official IGN WFS layer with DNV capture metadata; not a live road-status or navigation feed.",
          "Datos Argentina publication cadence is eventual and the geometry may be stale relative to current road works."
        ],
        "geometryChainageStartKm": 1.566006,
        "geometryChainageEndKm": 7.053704
      },
      "geometry": {
        "type": "LineString",
        "coordinates": [
          [
            -68.552894,
            -31.538351
          ],
          [
            -68.553064,
            -31.536995
          ],
          [
            -68.553584,
            -31.535907
          ],
          [
            -68.5569,
            -31.532916
          ],
          [
            -68.557471,
            -31.532024
          ],
          [
            -68.557748,
            -31.531134
          ],
          [
            -68.557714,
            -31.52974
          ],
          [
            -68.55719,
            -31.527725
          ],
          [
            -68.555961,
            -31.525889
          ],
          [
            -68.55471,
            -31.524858
          ],
          [
            -68.55318,
            -31.524099
          ],
          [
            -68.551774,
            -31.523732
          ],
          [
            -68.545721,
            -31.523574
          ],
          [
            -68.543901,
            -31.523304
          ],
          [
            -68.541758,
            -31.522784
          ],
          [
            -68.538997,
            -31.521743
          ],
          [
            -68.531157,
            -31.517789
          ],
          [
            -68.529582,
            -31.517207
          ],
          [
            -68.52708,
            -31.516551
          ],
          [
            -68.525253,
            -31.516225
          ],
          [
            -68.522487,
            -31.516006
          ],
          [
            -68.517435,
            -31.516261
          ]
        ]
      }
    },
    {
      "type": "Feature",
      "id": "veladero-rn40-public-v2",
      "properties": {
        "id": "veladero-rn40-public-v2",
        "corridorId": "veladero",
        "geometryClass": "PUBLIC_ROAD",
        "sourceFeatureIds": [
          "vial_nacional.2570",
          "vial_nacional.2565",
          "vial_nacional.1192",
          "vial_nacional.2201",
          "vial_nacional.1174",
          "vial_nacional.1175",
          "vial_nacional.1172"
        ],
        "evidenceRefs": [
          "veladero-dnv-road-geometry-v2"
        ],
        "sourceDatasetId": "dnv-rutas-nacionales-20260830",
        "sourceRetrievedAt": "2026-08-30T21:11:04.861Z",
        "sourceLicense": "Otra (Abierta)",
        "limitations": [
          "Frozen corridor-only extract acquired from the official IGN WFS layer with DNV capture metadata; not a live road-status or navigation feed.",
          "Datos Argentina publication cadence is eventual and the geometry may be stale relative to current road works."
        ],
        "geometryChainageStartKm": 7.053704,
        "geometryChainageEndKm": 59.963796
      },
      "geometry": {
        "type": "LineString",
        "coordinates": [
          [
            -68.517435,
            -31.516261
          ],
          [
            -68.517464,
            -31.516163
          ],
          [
            -68.517929,
            -31.51467
          ],
          [
            -68.517966,
            -31.514458
          ],
          [
            -68.5176,
            -31.509871
          ],
          [
            -68.518097,
            -31.498646
          ],
          [
            -68.521253,
            -31.479669
          ],
          [
            -68.521135,
            -31.477837
          ],
          [
            -68.519711,
            -31.469676
          ],
          [
            -68.519293,
            -31.461242
          ],
          [
            -68.518468,
            -31.448849
          ],
          [
            -68.518629,
            -31.448199
          ],
          [
            -68.519027,
            -31.447608
          ],
          [
            -68.519234,
            -31.4466
          ],
          [
            -68.523091,
            -31.441598
          ],
          [
            -68.52432,
            -31.440453
          ],
          [
            -68.533691,
            -31.434875
          ],
          [
            -68.541665,
            -31.431494
          ],
          [
            -68.542746,
            -31.430868
          ],
          [
            -68.543842,
            -31.429961
          ],
          [
            -68.570091,
            -31.39612
          ],
          [
            -68.571123,
            -31.39506
          ],
          [
            -68.572836,
            -31.394075
          ],
          [
            -68.576833,
            -31.392292
          ],
          [
            -68.580884,
            -31.391727
          ],
          [
            -68.587031,
            -31.390075
          ],
          [
            -68.588781,
            -31.38918
          ],
          [
            -68.591123,
            -31.38721
          ],
          [
            -68.593315,
            -31.385981
          ],
          [
            -68.594477,
            -31.385516
          ],
          [
            -68.597946,
            -31.384573
          ],
          [
            -68.603889,
            -31.379756
          ],
          [
            -68.607174,
            -31.378093
          ],
          [
            -68.608607,
            -31.376002
          ],
          [
            -68.608626,
            -31.374878
          ],
          [
            -68.606424,
            -31.370175
          ],
          [
            -68.606002,
            -31.36811
          ],
          [
            -68.607137,
            -31.303355
          ],
          [
            -68.60739,
            -31.301359
          ],
          [
            -68.608729,
            -31.29807
          ],
          [
            -68.609869,
            -31.296374
          ],
          [
            -68.61274,
            -31.293994
          ],
          [
            -68.614355,
            -31.292183
          ],
          [
            -68.617581,
            -31.290306
          ],
          [
            -68.619775,
            -31.288653
          ],
          [
            -68.62048,
            -31.287706
          ],
          [
            -68.621378,
            -31.285591
          ],
          [
            -68.623203,
            -31.282673
          ],
          [
            -68.627823,
            -31.277454
          ],
          [
            -68.628164,
            -31.276705
          ],
          [
            -68.62834,
            -31.275717
          ],
          [
            -68.629003,
            -31.263263
          ],
          [
            -68.629181,
            -31.262515
          ],
          [
            -68.629819,
            -31.261346
          ],
          [
            -68.6393,
            -31.248164
          ],
          [
            -68.640168,
            -31.247173
          ],
          [
            -68.641436,
            -31.246096
          ],
          [
            -68.65184,
            -31.238599
          ],
          [
            -68.653487,
            -31.236986
          ],
          [
            -68.654494,
            -31.235489
          ],
          [
            -68.655574,
            -31.233085
          ],
          [
            -68.656543,
            -31.230707
          ],
          [
            -68.656923,
            -31.229002
          ],
          [
            -68.656937,
            -31.227196
          ],
          [
            -68.656454,
            -31.225285
          ],
          [
            -68.641526,
            -31.190966
          ],
          [
            -68.640954,
            -31.188784
          ],
          [
            -68.640919,
            -31.187258
          ],
          [
            -68.644688,
            -31.133461
          ],
          [
            -68.644503,
            -31.132199
          ],
          [
            -68.644078,
            -31.130981
          ],
          [
            -68.642156,
            -31.128108
          ],
          [
            -68.641141,
            -31.127064
          ],
          [
            -68.636247,
            -31.123114
          ],
          [
            -68.635428,
            -31.122103
          ],
          [
            -68.635127,
            -31.121252
          ],
          [
            -68.635385,
            -31.11966
          ],
          [
            -68.637694,
            -31.115316
          ],
          [
            -68.638047,
            -31.114234
          ],
          [
            -68.639158,
            -31.103294
          ],
          [
            -68.639053,
            -31.101884
          ],
          [
            -68.638356,
            -31.098998
          ]
        ]
      }
    },
    {
      "type": "Feature",
      "id": "veladero-rp436-public-v2",
      "properties": {
        "id": "veladero-rp436-public-v2",
        "corridorId": "veladero",
        "geometryClass": "PUBLIC_ROAD",
        "sourceFeatureIds": [
          "vial_provincial.10291",
          "vial_provincial.10290",
          "vial_provincial.10289"
        ],
        "evidenceRefs": [
          "veladero-ign-road-geometry-v2"
        ],
        "sourceDatasetId": "ign-rutas-provinciales-2016-20260830",
        "sourceRetrievedAt": "2026-08-30T21:11:04.861Z",
        "sourceLicense": "Otra (Abierta)",
        "limitations": [
          "Frozen corridor-only extract of the published provincial-road reference layer; not a live road-status or navigation feed.",
          "The published provincial-road dataset is an older reference (2016 vintage in the catalog context) and may not reflect later changes."
        ],
        "geometryChainageStartKm": 59.963796,
        "geometryChainageEndKm": 83.135733
      },
      "geometry": {
        "type": "LineString",
        "coordinates": [
          [
            -68.638356,
            -31.098998
          ],
          [
            -68.638585,
            -31.098173
          ],
          [
            -68.639148,
            -31.09772
          ],
          [
            -68.640642,
            -31.097212
          ],
          [
            -68.641289,
            -31.09671
          ],
          [
            -68.648811,
            -31.086273
          ],
          [
            -68.650746,
            -31.084232
          ],
          [
            -68.652695,
            -31.081383
          ],
          [
            -68.653472,
            -31.080692
          ],
          [
            -68.660306,
            -31.076768
          ],
          [
            -68.664613,
            -31.074665
          ],
          [
            -68.665746,
            -31.074252
          ],
          [
            -68.671978,
            -31.072687
          ],
          [
            -68.673199,
            -31.0722
          ],
          [
            -68.72481,
            -31.039479
          ],
          [
            -68.725878,
            -31.039072
          ],
          [
            -68.73222,
            -31.038135
          ],
          [
            -68.735883,
            -31.036431
          ],
          [
            -68.738183,
            -31.034532
          ],
          [
            -68.741455,
            -31.030223
          ],
          [
            -68.744014,
            -31.028553
          ],
          [
            -68.745146,
            -31.02667
          ],
          [
            -68.746391,
            -31.02528
          ],
          [
            -68.747211,
            -31.024483
          ],
          [
            -68.748361,
            -31.023858
          ],
          [
            -68.748997,
            -31.022008
          ],
          [
            -68.749337,
            -31.021943
          ],
          [
            -68.749541,
            -31.022111
          ],
          [
            -68.75005,
            -31.024533
          ],
          [
            -68.750445,
            -31.025555
          ],
          [
            -68.750938,
            -31.02611
          ],
          [
            -68.751611,
            -31.026552
          ],
          [
            -68.754643,
            -31.02661
          ],
          [
            -68.756593,
            -31.025257
          ],
          [
            -68.75698,
            -31.025146
          ],
          [
            -68.76041,
            -31.025799
          ],
          [
            -68.76103,
            -31.026574
          ],
          [
            -68.761858,
            -31.027238
          ],
          [
            -68.762188,
            -31.027846
          ],
          [
            -68.762686,
            -31.028034
          ],
          [
            -68.763091,
            -31.027883
          ],
          [
            -68.764685,
            -31.023974
          ],
          [
            -68.764979,
            -31.022622
          ],
          [
            -68.766054,
            -31.020644
          ],
          [
            -68.76613,
            -31.018724
          ],
          [
            -68.765892,
            -31.017396
          ],
          [
            -68.765806,
            -31.015448
          ],
          [
            -68.766304,
            -31.012803
          ],
          [
            -68.765874,
            -31.011072
          ],
          [
            -68.766165,
            -31.010323
          ],
          [
            -68.766488,
            -31.010172
          ],
          [
            -68.767567,
            -31.010358
          ],
          [
            -68.768416,
            -31.010135
          ],
          [
            -68.769253,
            -31.010165
          ],
          [
            -68.771987,
            -31.009208
          ],
          [
            -68.773426,
            -31.00927
          ],
          [
            -68.775461,
            -31.008589
          ],
          [
            -68.776115,
            -31.008196
          ],
          [
            -68.777222,
            -31.006997
          ],
          [
            -68.777684,
            -31.006153
          ],
          [
            -68.778056,
            -31.005812
          ],
          [
            -68.78222,
            -31.004104
          ],
          [
            -68.788521,
            -31.003943
          ],
          [
            -68.789749,
            -31.004213
          ],
          [
            -68.791365,
            -31.004927
          ],
          [
            -68.791856,
            -31.004903
          ],
          [
            -68.79243,
            -31.004648
          ],
          [
            -68.792905,
            -31.00425
          ],
          [
            -68.793011,
            -31.003857
          ],
          [
            -68.792233,
            -31.001925
          ],
          [
            -68.792368,
            -31.001465
          ],
          [
            -68.793477,
            -31.000509
          ],
          [
            -68.794098,
            -30.998902
          ],
          [
            -68.795805,
            -30.997288
          ],
          [
            -68.797804,
            -30.995784
          ],
          [
            -68.798932,
            -30.994529
          ],
          [
            -68.800111,
            -30.992546
          ],
          [
            -68.802132,
            -30.990919
          ],
          [
            -68.802739,
            -30.989779
          ],
          [
            -68.802519,
            -30.98857
          ],
          [
            -68.802745,
            -30.987497
          ],
          [
            -68.802883,
            -30.986735
          ],
          [
            -68.802796,
            -30.985628
          ]
        ]
      }
    },
    {
      "type": "Feature",
      "id": "veladero-rn149-public-v2",
      "properties": {
        "id": "veladero-rn149-public-v2",
        "corridorId": "veladero",
        "geometryClass": "PUBLIC_ROAD",
        "sourceFeatureIds": [
          "vial_nacional.280",
          "vial_nacional.1870"
        ],
        "evidenceRefs": [
          "veladero-dnv-road-geometry-v2"
        ],
        "sourceDatasetId": "dnv-rutas-nacionales-20260830",
        "sourceRetrievedAt": "2026-08-30T21:11:04.861Z",
        "sourceLicense": "Otra (Abierta)",
        "limitations": [
          "Frozen corridor-only extract acquired from the official IGN WFS layer with DNV capture metadata; not a live road-status or navigation feed.",
          "Datos Argentina publication cadence is eventual and the geometry may be stale relative to current road works."
        ],
        "geometryChainageStartKm": 83.135733,
        "geometryChainageEndKm": 183.461849
      },
      "geometry": {
        "type": "LineString",
        "coordinates": [
          [
            -68.802796,
            -30.985628
          ],
          [
            -68.803569,
            -30.984259
          ],
          [
            -68.805393,
            -30.978906
          ],
          [
            -68.810475,
            -30.967926
          ],
          [
            -68.810658,
            -30.967217
          ],
          [
            -68.812432,
            -30.950518
          ],
          [
            -68.811262,
            -30.944807
          ],
          [
            -68.811993,
            -30.940878
          ],
          [
            -68.811963,
            -30.940267
          ],
          [
            -68.811241,
            -30.937569
          ],
          [
            -68.812587,
            -30.933617
          ],
          [
            -68.812851,
            -30.931382
          ],
          [
            -68.811947,
            -30.929076
          ],
          [
            -68.812845,
            -30.926353
          ],
          [
            -68.812626,
            -30.923325
          ],
          [
            -68.810344,
            -30.920896
          ],
          [
            -68.810113,
            -30.920232
          ],
          [
            -68.81142,
            -30.915273
          ],
          [
            -68.811825,
            -30.914641
          ],
          [
            -68.81272,
            -30.913882
          ],
          [
            -68.813331,
            -30.913112
          ],
          [
            -68.814145,
            -30.911066
          ],
          [
            -68.814085,
            -30.910406
          ],
          [
            -68.813422,
            -30.908648
          ],
          [
            -68.812439,
            -30.907085
          ],
          [
            -68.812221,
            -30.906284
          ],
          [
            -68.812691,
            -30.902562
          ],
          [
            -68.813812,
            -30.900542
          ],
          [
            -68.814257,
            -30.898848
          ],
          [
            -68.814556,
            -30.898473
          ],
          [
            -68.814942,
            -30.898335
          ],
          [
            -68.815414,
            -30.898392
          ],
          [
            -68.816644,
            -30.899536
          ],
          [
            -68.817232,
            -30.899479
          ],
          [
            -68.818229,
            -30.89868
          ],
          [
            -68.818617,
            -30.898732
          ],
          [
            -68.818945,
            -30.899011
          ],
          [
            -68.81921,
            -30.900026
          ],
          [
            -68.819853,
            -30.90052
          ],
          [
            -68.820309,
            -30.900419
          ],
          [
            -68.820966,
            -30.899889
          ],
          [
            -68.821246,
            -30.899456
          ],
          [
            -68.821502,
            -30.899385
          ],
          [
            -68.82169,
            -30.899746
          ],
          [
            -68.821295,
            -30.900487
          ],
          [
            -68.821639,
            -30.901062
          ],
          [
            -68.822154,
            -30.901135
          ],
          [
            -68.822896,
            -30.900899
          ],
          [
            -68.822971,
            -30.899947
          ],
          [
            -68.8234,
            -30.899214
          ],
          [
            -68.824208,
            -30.898411
          ],
          [
            -68.825345,
            -30.897607
          ],
          [
            -68.82571,
            -30.897761
          ],
          [
            -68.826125,
            -30.898735
          ],
          [
            -68.828197,
            -30.898316
          ],
          [
            -68.828618,
            -30.8984
          ],
          [
            -68.829206,
            -30.899651
          ],
          [
            -68.829722,
            -30.899772
          ],
          [
            -68.83142,
            -30.899296
          ],
          [
            -68.832951,
            -30.897838
          ],
          [
            -68.834687,
            -30.897461
          ],
          [
            -68.836606,
            -30.897282
          ],
          [
            -68.845234,
            -30.897374
          ],
          [
            -68.847398,
            -30.897091
          ],
          [
            -68.944009,
            -30.866841
          ],
          [
            -68.945099,
            -30.866183
          ],
          [
            -68.945516,
            -30.865335
          ],
          [
            -68.94602,
            -30.862996
          ],
          [
            -68.94587,
            -30.858769
          ],
          [
            -68.946015,
            -30.857788
          ],
          [
            -68.950003,
            -30.850105
          ],
          [
            -68.950736,
            -30.847809
          ],
          [
            -68.96359,
            -30.756562
          ],
          [
            -68.963422,
            -30.753825
          ],
          [
            -68.960754,
            -30.735046
          ],
          [
            -68.960417,
            -30.731687
          ],
          [
            -68.960644,
            -30.730941
          ],
          [
            -68.961244,
            -30.730112
          ],
          [
            -68.965822,
            -30.725278
          ],
          [
            -68.966473,
            -30.724363
          ],
          [
            -68.96708,
            -30.722402
          ],
          [
            -68.967653,
            -30.717562
          ],
          [
            -68.968023,
            -30.71659
          ],
          [
            -68.969633,
            -30.713626
          ],
          [
            -68.970584,
            -30.712361
          ],
          [
            -68.971962,
            -30.711567
          ],
          [
            -68.973474,
            -30.711272
          ],
          [
            -68.978328,
            -30.710758
          ],
          [
            -68.97963,
            -30.710418
          ],
          [
            -68.980704,
            -30.70986
          ],
          [
            -68.984809,
            -30.707139
          ],
          [
            -68.985987,
            -30.706687
          ],
          [
            -68.997579,
            -30.706081
          ],
          [
            -68.999411,
            -30.705703
          ],
          [
            -69.000568,
            -30.705126
          ],
          [
            -69.012538,
            -30.697654
          ],
          [
            -69.014367,
            -30.696961
          ],
          [
            -69.024535,
            -30.693762
          ],
          [
            -69.026908,
            -30.692594
          ],
          [
            -69.030373,
            -30.690165
          ],
          [
            -69.036289,
            -30.684528
          ],
          [
            -69.037244,
            -30.683298
          ],
          [
            -69.040267,
            -30.677898
          ],
          [
            -69.047287,
            -30.670439
          ],
          [
            -69.049368,
            -30.668833
          ],
          [
            -69.054531,
            -30.666491
          ],
          [
            -69.056002,
            -30.665685
          ],
          [
            -69.057367,
            -30.664655
          ],
          [
            -69.060037,
            -30.662085
          ],
          [
            -69.06104,
            -30.660668
          ],
          [
            -69.062867,
            -30.657374
          ],
          [
            -69.064181,
            -30.651044
          ],
          [
            -69.065319,
            -30.646976
          ],
          [
            -69.066541,
            -30.643785
          ],
          [
            -69.067184,
            -30.642892
          ],
          [
            -69.068256,
            -30.642246
          ],
          [
            -69.069436,
            -30.642081
          ],
          [
            -69.070227,
            -30.642215
          ],
          [
            -69.07218,
            -30.642909
          ],
          [
            -69.073888,
            -30.643097
          ],
          [
            -69.076252,
            -30.644345
          ],
          [
            -69.077315,
            -30.645326
          ],
          [
            -69.077936,
            -30.645562
          ],
          [
            -69.079317,
            -30.64524
          ],
          [
            -69.080472,
            -30.644478
          ],
          [
            -69.081068,
            -30.643537
          ],
          [
            -69.08311,
            -30.639263
          ],
          [
            -69.084853,
            -30.637205
          ],
          [
            -69.085614,
            -30.633076
          ],
          [
            -69.08677,
            -30.631293
          ],
          [
            -69.086506,
            -30.629271
          ],
          [
            -69.086782,
            -30.628132
          ],
          [
            -69.088237,
            -30.625395
          ],
          [
            -69.100034,
            -30.596779
          ],
          [
            -69.103307,
            -30.590992
          ],
          [
            -69.106305,
            -30.584562
          ],
          [
            -69.106536,
            -30.583533
          ],
          [
            -69.107123,
            -30.573517
          ],
          [
            -69.106681,
            -30.571913
          ],
          [
            -69.10528,
            -30.568164
          ],
          [
            -69.104913,
            -30.565073
          ],
          [
            -69.105068,
            -30.553331
          ],
          [
            -69.105278,
            -30.551878
          ],
          [
            -69.109983,
            -30.54125
          ],
          [
            -69.114587,
            -30.534877
          ],
          [
            -69.120199,
            -30.524196
          ],
          [
            -69.121127,
            -30.520874
          ],
          [
            -69.121664,
            -30.519859
          ],
          [
            -69.124517,
            -30.516012
          ],
          [
            -69.128676,
            -30.50941
          ],
          [
            -69.140452,
            -30.491821
          ],
          [
            -69.144071,
            -30.485527
          ],
          [
            -69.144988,
            -30.483248
          ],
          [
            -69.145406,
            -30.478829
          ],
          [
            -69.145723,
            -30.477192
          ],
          [
            -69.151135,
            -30.463823
          ],
          [
            -69.16594,
            -30.441344
          ],
          [
            -69.166616,
            -30.440013
          ],
          [
            -69.166941,
            -30.439085
          ],
          [
            -69.167382,
            -30.436692
          ],
          [
            -69.167544,
            -30.430529
          ],
          [
            -69.167991,
            -30.42819
          ],
          [
            -69.168436,
            -30.427028
          ],
          [
            -69.16886,
            -30.426381
          ],
          [
            -69.170028,
            -30.425327
          ],
          [
            -69.176552,
            -30.420953
          ],
          [
            -69.189792,
            -30.409623
          ],
          [
            -69.191058,
            -30.408989
          ],
          [
            -69.196734,
            -30.407373
          ],
          [
            -69.197692,
            -30.407316
          ],
          [
            -69.199037,
            -30.407659
          ],
          [
            -69.203587,
            -30.409629
          ],
          [
            -69.213303,
            -30.415969
          ],
          [
            -69.214949,
            -30.416436
          ],
          [
            -69.221159,
            -30.417371
          ],
          [
            -69.221849,
            -30.41727
          ],
          [
            -69.222258,
            -30.416896
          ],
          [
            -69.223115,
            -30.41372
          ],
          [
            -69.224151,
            -30.407731
          ],
          [
            -69.223472,
            -30.399819
          ],
          [
            -69.222877,
            -30.397011
          ],
          [
            -69.222145,
            -30.395009
          ],
          [
            -69.220157,
            -30.39193
          ],
          [
            -69.219618,
            -30.390118
          ],
          [
            -69.219589,
            -30.389185
          ],
          [
            -69.218978,
            -30.3879
          ],
          [
            -69.21823,
            -30.386912
          ],
          [
            -69.216454,
            -30.3854
          ],
          [
            -69.213932,
            -30.380702
          ],
          [
            -69.212376,
            -30.378684
          ],
          [
            -69.209801,
            -30.374426
          ],
          [
            -69.20922,
            -30.373195
          ],
          [
            -69.207457,
            -30.365697
          ],
          [
            -69.207242,
            -30.364355
          ],
          [
            -69.207142,
            -30.361202
          ],
          [
            -69.206122,
            -30.35729
          ],
          [
            -69.206188,
            -30.355747
          ],
          [
            -69.206653,
            -30.354222
          ],
          [
            -69.20632,
            -30.352463
          ],
          [
            -69.207481,
            -30.348544
          ],
          [
            -69.207301,
            -30.347422
          ],
          [
            -69.207076,
            -30.346825
          ],
          [
            -69.205719,
            -30.344991
          ],
          [
            -69.202921,
            -30.338727
          ],
          [
            -69.20249,
            -30.337702
          ],
          [
            -69.2014,
            -30.333408
          ],
          [
            -69.201871,
            -30.32758
          ],
          [
            -69.204251,
            -30.320879
          ],
          [
            -69.204624,
            -30.320807
          ],
          [
            -69.209132,
            -30.321998
          ]
        ]
      }
    },
    {
      "type": "Feature",
      "id": "veladero-rp432-public-v2",
      "properties": {
        "id": "veladero-rp432-public-v2",
        "corridorId": "veladero",
        "geometryClass": "PUBLIC_ROAD",
        "sourceFeatureIds": [
          "vial_provincial.10552"
        ],
        "evidenceRefs": [
          "veladero-ign-road-geometry-v2"
        ],
        "sourceDatasetId": "ign-rutas-provinciales-2016-20260830",
        "sourceRetrievedAt": "2026-08-30T21:11:04.861Z",
        "sourceLicense": "Otra (Abierta)",
        "limitations": [
          "Frozen corridor-only extract of the published provincial-road reference layer; not a live road-status or navigation feed.",
          "The published provincial-road dataset is an older reference (2016 vintage in the catalog context) and may not reflect later changes."
        ],
        "geometryChainageStartKm": 183.461849,
        "geometryChainageEndKm": 186.733227
      },
      "geometry": {
        "type": "LineString",
        "coordinates": [
          [
            -69.209132,
            -30.321998
          ],
          [
            -69.209395,
            -30.32162
          ],
          [
            -69.209419,
            -30.319981
          ],
          [
            -69.209907,
            -30.318744
          ],
          [
            -69.21262,
            -30.31715
          ],
          [
            -69.213738,
            -30.316162
          ],
          [
            -69.214155,
            -30.316139
          ],
          [
            -69.21676,
            -30.317007
          ],
          [
            -69.217343,
            -30.316828
          ],
          [
            -69.2177,
            -30.316019
          ],
          [
            -69.218164,
            -30.314068
          ],
          [
            -69.218247,
            -30.31226
          ],
          [
            -69.21795,
            -30.309666
          ],
          [
            -69.218033,
            -30.309274
          ],
          [
            -69.222235,
            -30.308355
          ],
          [
            -69.224448,
            -30.30697
          ],
          [
            -69.22979,
            -30.305876
          ]
        ]
      }
    },
    {
      "type": "Feature",
      "id": "veladero-rn150-public-v2",
      "properties": {
        "id": "veladero-rn150-public-v2",
        "corridorId": "veladero",
        "geometryClass": "PUBLIC_ROAD",
        "sourceFeatureIds": [
          "vial_nacional.1875"
        ],
        "evidenceRefs": [
          "veladero-dnv-road-geometry-v2"
        ],
        "sourceDatasetId": "dnv-rutas-nacionales-20260830",
        "sourceRetrievedAt": "2026-08-30T21:11:04.861Z",
        "sourceLicense": "Otra (Abierta)",
        "limitations": [
          "Frozen corridor-only extract acquired from the official IGN WFS layer with DNV capture metadata; not a live road-status or navigation feed.",
          "Datos Argentina publication cadence is eventual and the geometry may be stale relative to current road works."
        ],
        "geometryChainageStartKm": 186.733227,
        "geometryChainageEndKm": 189.464561
      },
      "geometry": {
        "type": "LineString",
        "coordinates": [
          [
            -69.22979,
            -30.305876
          ],
          [
            -69.231731,
            -30.296624
          ],
          [
            -69.231951,
            -30.294069
          ],
          [
            -69.231808,
            -30.291983
          ],
          [
            -69.23137,
            -30.289955
          ],
          [
            -69.229626,
            -30.283833
          ],
          [
            -69.228751,
            -30.281829
          ]
        ]
      }
    },
    {
      "type": "Feature",
      "id": "veladero-rp418-public-v2",
      "properties": {
        "id": "veladero-rp418-public-v2",
        "corridorId": "veladero",
        "geometryClass": "PUBLIC_ROAD",
        "sourceFeatureIds": [
          "vial_provincial.11207"
        ],
        "evidenceRefs": [
          "veladero-ign-road-geometry-v2"
        ],
        "sourceDatasetId": "ign-rutas-provinciales-2016-20260830",
        "sourceRetrievedAt": "2026-08-30T21:11:04.861Z",
        "sourceLicense": "Otra (Abierta)",
        "limitations": [
          "Frozen corridor-only extract of the published provincial-road reference layer; not a live road-status or navigation feed.",
          "The published provincial-road dataset is an older reference (2016 vintage in the catalog context) and may not reflect later changes."
        ],
        "geometryChainageStartKm": 189.464561,
        "geometryChainageEndKm": 200.731173
      },
      "geometry": {
        "type": "LineString",
        "coordinates": [
          [
            -69.228751,
            -30.281829
          ],
          [
            -69.229447,
            -30.280264
          ],
          [
            -69.230776,
            -30.27901
          ],
          [
            -69.231001,
            -30.276417
          ],
          [
            -69.232248,
            -30.273491
          ],
          [
            -69.232535,
            -30.270046
          ],
          [
            -69.232237,
            -30.267405
          ],
          [
            -69.232591,
            -30.266433
          ],
          [
            -69.24203,
            -30.253369
          ],
          [
            -69.260959,
            -30.229241
          ],
          [
            -69.263076,
            -30.226112
          ],
          [
            -69.263897,
            -30.224529
          ],
          [
            -69.264278,
            -30.222828
          ],
          [
            -69.265586,
            -30.220722
          ],
          [
            -69.26611,
            -30.21933
          ],
          [
            -69.266967,
            -30.218093
          ],
          [
            -69.267121,
            -30.21682
          ],
          [
            -69.265182,
            -30.202864
          ],
          [
            -69.265134,
            -30.201627
          ],
          [
            -69.266205,
            -30.199581
          ],
          [
            -69.266633,
            -30.198331
          ],
          [
            -69.267443,
            -30.197201
          ],
          [
            -69.267312,
            -30.195417
          ],
          [
            -69.267776,
            -30.194477
          ],
          [
            -69.268394,
            -30.194144
          ],
          [
            -69.271273,
            -30.193608
          ],
          [
            -69.271559,
            -30.193358
          ],
          [
            -69.271538,
            -30.192979
          ]
        ]
      }
    },
    {
      "type": "Feature",
      "id": "veladero-tudcum-handoff-v2",
      "properties": {
        "id": "veladero-tudcum-handoff-v2",
        "corridorId": "veladero",
        "geometryClass": "RECONSTRUCTED_ACCESS",
        "sourceFeatureIds": [],
        "evidenceRefs": [
          "veladero-route-geometry-build-v2"
        ],
        "sourceDatasetId": "veladero-derived-geometry-v2",
        "sourceRetrievedAt": "2026-08-30T21:11:04.861Z",
        "limitations": [
          "Explicit sub-250 m source handoff connector; not asserted as public-road source geometry.",
          "These geometries are explicit derived connectors, not source road features.",
          "They exist only to bridge documented sub-2 km gaps or connect the project location anchor."
        ],
        "geometryChainageStartKm": 200.731173,
        "geometryChainageEndKm": 200.77387
      },
      "geometry": {
        "type": "LineString",
        "coordinates": [
          [
            -69.2715383,
            -30.1929791
          ],
          [
            -69.2715666,
            -30.1925959
          ]
        ]
      }
    },
    {
      "type": "Feature",
      "id": "veladero-osm-access-v2",
      "properties": {
        "id": "veladero-osm-access-v2",
        "corridorId": "veladero",
        "geometryClass": "RECONSTRUCTED_ACCESS",
        "sourceFeatureIds": [
          "osm-way-902151791",
          "osm-way-334802858",
          "osm-way-460236251",
          "osm-way-895225206",
          "osm-way-202755706",
          "osm-way-202755694",
          "osm-way-202755695",
          "osm-way-202796801",
          "osm-way-202796800",
          "osm-way-202799443",
          "osm-way-202799442",
          "osm-way-1067023015",
          "osm-way-1067023016",
          "osm-way-334800560",
          "osm-way-1067023020",
          "osm-way-1067023019",
          "osm-way-1067023024",
          "osm-way-1067023023",
          "osm-way-246355411",
          "osm-way-1067051854",
          "osm-way-1464930582",
          "osm-way-1067051853",
          "osm-way-246645197",
          "osm-way-246643818",
          "osm-way-246644692",
          "osm-way-246644691",
          "osm-way-246643820",
          "osm-way-246643821"
        ],
        "evidenceRefs": [
          "veladero-osm-access-geometry-v2"
        ],
        "sourceDatasetId": "osm-high-mountain-access-20260830",
        "sourceRetrievedAt": "2026-08-30T21:11:04.861Z",
        "sourceLicense": "ODbL 1.0",
        "limitations": [
          "Publicly mapped access geometry is not operator navigation, access authorization or a current road-status feed.",
          "Publicly mapped access geometry only; not operator-supplied navigation or authorization evidence.",
          "OSM tags and geometry do not establish current road condition, closure, safety or transitability."
        ],
        "geometryChainageStartKm": 200.77387,
        "geometryChainageEndKm": 365.831327
      },
      "geometry": {
        "type": "LineString",
        "coordinates": [
          [
            -69.271567,
            -30.192596
          ],
          [
            -69.278631,
            -30.194601
          ],
          [
            -69.28651,
            -30.196567
          ],
          [
            -69.287794,
            -30.199968
          ],
          [
            -69.290114,
            -30.202265
          ],
          [
            -69.297514,
            -30.200315
          ],
          [
            -69.305212,
            -30.200876
          ],
          [
            -69.332426,
            -30.195403
          ],
          [
            -69.332669,
            -30.195221
          ],
          [
            -69.353761,
            -30.193481
          ],
          [
            -69.354034,
            -30.193383
          ],
          [
            -69.380384,
            -30.19215
          ],
          [
            -69.398043,
            -30.189081
          ],
          [
            -69.424737,
            -30.189076
          ],
          [
            -69.434336,
            -30.186981
          ],
          [
            -69.434468,
            -30.186855
          ],
          [
            -69.453793,
            -30.177946
          ],
          [
            -69.456698,
            -30.171575
          ],
          [
            -69.456703,
            -30.167011
          ],
          [
            -69.472416,
            -30.15318
          ],
          [
            -69.479862,
            -30.142469
          ],
          [
            -69.483401,
            -30.130215
          ],
          [
            -69.483799,
            -30.113165
          ],
          [
            -69.492902,
            -30.107819
          ],
          [
            -69.499165,
            -30.097192
          ],
          [
            -69.508942,
            -30.095697
          ],
          [
            -69.510332,
            -30.093093
          ],
          [
            -69.508341,
            -30.090549
          ],
          [
            -69.510804,
            -30.088451
          ],
          [
            -69.510938,
            -30.088326
          ],
          [
            -69.52192,
            -30.084236
          ],
          [
            -69.530872,
            -30.076758
          ],
          [
            -69.539482,
            -30.063737
          ],
          [
            -69.541043,
            -30.058388
          ],
          [
            -69.546639,
            -30.053559
          ],
          [
            -69.54672,
            -30.05351
          ],
          [
            -69.569742,
            -30.031167
          ],
          [
            -69.571964,
            -30.030279
          ],
          [
            -69.573074,
            -30.031432
          ],
          [
            -69.571395,
            -30.03243
          ],
          [
            -69.576062,
            -30.032779
          ],
          [
            -69.575407,
            -30.029635
          ],
          [
            -69.577419,
            -30.026537
          ],
          [
            -69.586799,
            -30.018527
          ],
          [
            -69.585701,
            -30.022631
          ],
          [
            -69.596221,
            -30.008082
          ],
          [
            -69.600156,
            -29.999207
          ],
          [
            -69.610356,
            -29.987223
          ],
          [
            -69.613039,
            -29.986935
          ],
          [
            -69.61247,
            -29.990061
          ],
          [
            -69.613395,
            -29.987927
          ],
          [
            -69.613867,
            -29.989687
          ],
          [
            -69.615769,
            -29.988184
          ],
          [
            -69.614964,
            -29.990821
          ],
          [
            -69.617201,
            -29.989081
          ],
          [
            -69.618787,
            -29.991005
          ],
          [
            -69.618591,
            -29.989502
          ],
          [
            -69.620055,
            -29.990754
          ],
          [
            -69.619063,
            -29.992031
          ],
          [
            -69.621666,
            -29.989999
          ],
          [
            -69.621592,
            -29.992127
          ],
          [
            -69.62313,
            -29.989858
          ],
          [
            -69.622783,
            -29.992248
          ],
          [
            -69.624738,
            -29.99047
          ],
          [
            -69.624025,
            -29.993899
          ],
          [
            -69.625548,
            -29.991613
          ],
          [
            -69.625913,
            -29.995214
          ],
          [
            -69.62763,
            -29.992919
          ],
          [
            -69.626138,
            -29.989562
          ],
          [
            -69.624363,
            -29.987353
          ],
          [
            -69.621275,
            -29.986801
          ],
          [
            -69.619924,
            -29.983801
          ],
          [
            -69.627393,
            -29.979561
          ],
          [
            -69.624248,
            -29.982367
          ],
          [
            -69.633959,
            -29.980259
          ],
          [
            -69.634862,
            -29.977353
          ],
          [
            -69.632836,
            -29.973996
          ],
          [
            -69.636143,
            -29.969488
          ],
          [
            -69.635191,
            -29.967035
          ],
          [
            -69.629847,
            -29.964661
          ],
          [
            -69.626983,
            -29.961581
          ],
          [
            -69.629273,
            -29.957008
          ],
          [
            -69.642334,
            -29.953823
          ],
          [
            -69.640248,
            -29.95315
          ],
          [
            -69.64355,
            -29.95365
          ],
          [
            -69.640906,
            -29.952153
          ],
          [
            -69.644629,
            -29.953228
          ],
          [
            -69.649243,
            -29.958489
          ],
          [
            -69.654274,
            -29.960022
          ],
          [
            -69.663174,
            -29.959466
          ],
          [
            -69.668296,
            -29.957525
          ],
          [
            -69.674937,
            -29.958265
          ],
          [
            -69.677657,
            -29.956105
          ],
          [
            -69.680855,
            -29.958685
          ],
          [
            -69.68992,
            -29.959885
          ],
          [
            -69.686084,
            -29.962861
          ],
          [
            -69.697606,
            -29.963955
          ],
          [
            -69.70415,
            -29.968005
          ],
          [
            -69.712772,
            -29.970764
          ],
          [
            -69.717927,
            -29.967566
          ],
          [
            -69.722518,
            -29.966798
          ],
          [
            -69.727176,
            -29.971716
          ],
          [
            -69.727809,
            -29.963422
          ],
          [
            -69.731544,
            -29.955144
          ],
          [
            -69.742116,
            -29.942519
          ],
          [
            -69.744621,
            -29.935728
          ],
          [
            -69.744137,
            -29.931606
          ],
          [
            -69.74137,
            -29.92828
          ],
          [
            -69.741837,
            -29.92093
          ],
          [
            -69.738766,
            -29.918024
          ],
          [
            -69.737845,
            -29.914245
          ],
          [
            -69.736577,
            -29.899512
          ],
          [
            -69.729456,
            -29.878499
          ],
          [
            -69.71301,
            -29.846366
          ],
          [
            -69.705146,
            -29.838396
          ],
          [
            -69.687427,
            -29.826235
          ],
          [
            -69.685254,
            -29.819886
          ],
          [
            -69.678254,
            -29.812294
          ],
          [
            -69.677836,
            -29.80827
          ],
          [
            -69.678209,
            -29.807957
          ],
          [
            -69.689533,
            -29.803921
          ],
          [
            -69.702676,
            -29.802065
          ],
          [
            -69.709021,
            -29.798863
          ],
          [
            -69.715356,
            -29.791402
          ],
          [
            -69.732889,
            -29.776822
          ],
          [
            -69.733369,
            -29.773735
          ],
          [
            -69.737268,
            -29.76916
          ],
          [
            -69.738931,
            -29.760176
          ],
          [
            -69.741314,
            -29.756652
          ],
          [
            -69.74337,
            -29.737922
          ],
          [
            -69.742559,
            -29.733818
          ],
          [
            -69.739905,
            -29.732057
          ],
          [
            -69.738972,
            -29.729134
          ],
          [
            -69.740473,
            -29.720772
          ],
          [
            -69.735483,
            -29.713602
          ],
          [
            -69.725581,
            -29.706975
          ],
          [
            -69.722899,
            -29.703079
          ],
          [
            -69.72487,
            -29.683207
          ],
          [
            -69.729346,
            -29.67188
          ],
          [
            -69.731776,
            -29.657484
          ],
          [
            -69.727946,
            -29.652546
          ],
          [
            -69.728719,
            -29.649231
          ],
          [
            -69.728794,
            -29.648963
          ],
          [
            -69.732123,
            -29.636503
          ],
          [
            -69.73005,
            -29.632531
          ],
          [
            -69.730524,
            -29.619806
          ],
          [
            -69.733514,
            -29.614115
          ],
          [
            -69.742189,
            -29.610445
          ],
          [
            -69.744743,
            -29.605691
          ],
          [
            -69.747044,
            -29.594371
          ],
          [
            -69.746184,
            -29.586092
          ],
          [
            -69.742764,
            -29.580192
          ],
          [
            -69.742953,
            -29.5762
          ],
          [
            -69.745497,
            -29.568589
          ],
          [
            -69.751399,
            -29.558771
          ],
          [
            -69.750064,
            -29.552199
          ],
          [
            -69.75273,
            -29.544517
          ],
          [
            -69.766508,
            -29.524518
          ],
          [
            -69.767433,
            -29.511111
          ],
          [
            -69.770977,
            -29.499727
          ],
          [
            -69.770921,
            -29.495372
          ],
          [
            -69.764846,
            -29.490886
          ],
          [
            -69.769139,
            -29.488387
          ],
          [
            -69.769953,
            -29.485345
          ],
          [
            -69.778327,
            -29.478762
          ],
          [
            -69.783441,
            -29.471758
          ],
          [
            -69.793288,
            -29.465433
          ],
          [
            -69.801752,
            -29.456887
          ],
          [
            -69.817543,
            -29.450273
          ],
          [
            -69.82126,
            -29.444701
          ],
          [
            -69.828906,
            -29.445134
          ],
          [
            -69.83172,
            -29.440887
          ],
          [
            -69.845877,
            -29.433736
          ],
          [
            -69.847691,
            -29.430147
          ],
          [
            -69.861393,
            -29.428836
          ],
          [
            -69.876599,
            -29.415812
          ],
          [
            -69.883345,
            -29.414203
          ],
          [
            -69.889595,
            -29.410569
          ],
          [
            -69.891837,
            -29.411401
          ],
          [
            -69.900676,
            -29.402209
          ],
          [
            -69.900904,
            -29.401807
          ],
          [
            -69.915707,
            -29.389197
          ],
          [
            -69.916542,
            -29.383677
          ],
          [
            -69.928794,
            -29.370133
          ],
          [
            -69.932118,
            -29.367215
          ],
          [
            -69.931369,
            -29.370227
          ],
          [
            -69.932855,
            -29.373649
          ],
          [
            -69.942398,
            -29.390911
          ],
          [
            -69.942407,
            -29.389725
          ],
          [
            -69.941942,
            -29.388953
          ],
          [
            -69.944424,
            -29.389645
          ],
          [
            -69.942548,
            -29.376697
          ],
          [
            -69.944801,
            -29.368904
          ],
          [
            -69.946796,
            -29.375821
          ],
          [
            -69.95053,
            -29.365907
          ],
          [
            -69.951464,
            -29.368385
          ]
        ]
      }
    },
    {
      "type": "Feature",
      "id": "veladero-project-approach-v2",
      "properties": {
        "id": "veladero-project-approach-v2",
        "corridorId": "veladero",
        "geometryClass": "APPROXIMATE_APPROACH",
        "sourceFeatureIds": [],
        "evidenceRefs": [
          "veladero-route-geometry-build-v2",
          "barrick-veladero-access"
        ],
        "sourceDatasetId": "veladero-derived-geometry-v2",
        "sourceRetrievedAt": "2026-08-30T21:11:04.861Z",
        "limitations": [
          "Approximate project-location connection only; not operator navigation or an access-authorization statement.",
          "These geometries are explicit derived connectors, not source road features.",
          "They exist only to bridge documented sub-2 km gaps or connect the project location anchor."
        ],
        "geometryChainageStartKm": 365.831327,
        "geometryChainageEndKm": 365.904849
      },
      "geometry": {
        "type": "LineString",
        "coordinates": [
          [
            -69.9514639,
            -29.3683847
          ],
          [
            -69.95222,
            -29.36833
          ]
        ]
      }
    }
  ]
}
