{
  "type": "FeatureCollection",
  "features": [
    {
      "type": "Feature",
      "id": "vial_provincial.10291",
      "properties": {
        "gid": 10291,
        "designacion_de_red_vial": "436",
        "tipo_de_via_de_transporte": "Ruta",
        "tipo_de_superficie_de_via": "Pavimentado",
        "jurisdiccion_de_via_de_transporte": "Ruta Provincial",
        "autoridad_de_fuente": "IGN",
        "fuente_de_captura": "UNIDE",
        "sourceFeatureId": "vial_provincial.10291",
        "selectedForCorridor": "los-azules",
        "selectionMethod": "reviewed source-junction clip between pinned coordinates",
        "selectionLengthKm": 0.170469,
        "sourceGeometryClipped": true
      },
      "geometry": {
        "type": "LineString",
        "coordinates": [
          [
            -68.6383556,
            -31.0989982
          ],
          [
            -68.63835538,
            -31.09888614
          ],
          [
            -68.6383552,
            -31.0987965
          ],
          [
            -68.6383668,
            -31.0986773
          ],
          [
            -68.6383919,
            -31.0985619
          ],
          [
            -68.6384294,
            -31.0984542
          ],
          [
            -68.6384721,
            -31.098362
          ],
          [
            -68.638521,
            -31.0982782
          ],
          [
            -68.6385852,
            -31.0981728
          ],
          [
            -68.6386796,
            -31.0980494
          ],
          [
            -68.6388128,
            -31.097932
          ],
          [
            -68.6389243,
            -31.0978392
          ],
          [
            -68.6389799,
            -31.0978059
          ],
          [
            -68.6391483,
            -31.0977201
          ]
        ]
      }
    },
    {
      "type": "Feature",
      "id": "vial_provincial.10290",
      "properties": {
        "gid": 10290,
        "designacion_de_red_vial": "436",
        "tipo_de_via_de_transporte": "Ruta",
        "tipo_de_superficie_de_via": "Pavimentado",
        "jurisdiccion_de_via_de_transporte": "Ruta Provincial",
        "autoridad_de_fuente": "IGN",
        "fuente_de_captura": "UNIDE",
        "sourceFeatureId": "vial_provincial.10290",
        "selectedForCorridor": "los-azules",
        "selectionMethod": "reviewed source-junction clip between pinned coordinates",
        "selectionLengthKm": 22.842258,
        "sourceGeometryClipped": true
      },
      "geometry": {
        "type": "LineString",
        "coordinates": [
          [
            -68.6391483,
            -31.0977201
          ],
          [
            -68.6392025,
            -31.0977021
          ],
          [
            -68.6395533,
            -31.0975859
          ],
          [
            -68.6398513,
            -31.0974877
          ],
          [
            -68.639912,
            -31.097467
          ],
          [
            -68.6399919,
            -31.0974423
          ],
          [
            -68.6402425,
            -31.0973613
          ],
          [
            -68.6403494,
            -31.0973227
          ],
          [
            -68.6405231,
            -31.0972625
          ],
          [
            -68.6406425,
            -31.0972118
          ],
          [
            -68.6407882,
            -31.0971246
          ],
          [
            -68.6409083,
            -31.0970533
          ],
          [
            -68.6410205,
            -31.0969703
          ],
          [
            -68.6411096,
            -31.0968953
          ],
          [
            -68.6412052,
            -31.0967957
          ],
          [
            -68.6412889,
            -31.0967096
          ],
          [
            -68.6414027,
            -31.0965591
          ],
          [
            -68.6419882,
            -31.0957148
          ],
          [
            -68.6426428,
            -31.0948288
          ],
          [
            -68.644526,
            -31.0921954
          ],
          [
            -68.6473419,
            -31.0883089
          ],
          [
            -68.6474744,
            -31.0881003
          ],
          [
            -68.648325,
            -31.0869232
          ],
          [
            -68.6488106,
            -31.0862726
          ],
          [
            -68.6489798,
            -31.086073
          ],
          [
            -68.6491212,
            -31.0859044
          ],
          [
            -68.6493931,
            -31.0856508
          ],
          [
            -68.650193,
            -31.0848204
          ],
          [
            -68.6505747,
            -31.084417
          ],
          [
            -68.650746,
            -31.0842325
          ],
          [
            -68.6508198,
            -31.0841376
          ],
          [
            -68.6509025,
            -31.0840268
          ],
          [
            -68.6509674,
            -31.0839357
          ],
          [
            -68.6516575,
            -31.0829679
          ],
          [
            -68.6524959,
            -31.0816494
          ],
          [
            -68.6526063,
            -31.0815009
          ],
          [
            -68.6526947,
            -31.0813828
          ],
          [
            -68.6528052,
            -31.0812545
          ],
          [
            -68.6529181,
            -31.0811414
          ],
          [
            -68.6529867,
            -31.0810723
          ],
          [
            -68.6530515,
            -31.081011
          ],
          [
            -68.6531868,
            -31.0808913
          ],
          [
            -68.653265,
            -31.0808347
          ],
          [
            -68.6533511,
            -31.0807787
          ],
          [
            -68.6534721,
            -31.0806919
          ],
          [
            -68.6536058,
            -31.0806113
          ],
          [
            -68.6558229,
            -31.0793088
          ],
          [
            -68.6571489,
            -31.0785485
          ],
          [
            -68.658401,
            -31.0778416
          ],
          [
            -68.6587605,
            -31.0776333
          ],
          [
            -68.6595864,
            -31.07719
          ],
          [
            -68.6603055,
            -31.0767683
          ],
          [
            -68.6607433,
            -31.0765404
          ],
          [
            -68.6619092,
            -31.0759679
          ],
          [
            -68.6628418,
            -31.0755201
          ],
          [
            -68.6642929,
            -31.0748163
          ],
          [
            -68.6644649,
            -31.0747341
          ],
          [
            -68.6646133,
            -31.0746651
          ],
          [
            -68.6647868,
            -31.0745908
          ],
          [
            -68.6649847,
            -31.0745086
          ],
          [
            -68.665159,
            -31.074439
          ],
          [
            -68.6652957,
            -31.0743888
          ],
          [
            -68.6654975,
            -31.0743236
          ],
          [
            -68.665622,
            -31.0742855
          ],
          [
            -68.6657465,
            -31.074252
          ],
          [
            -68.665913,
            -31.0742078
          ],
          [
            -68.6709366,
            -31.0729448
          ],
          [
            -68.6718505,
            -31.0727221
          ],
          [
            -68.6719782,
            -31.0726874
          ],
          [
            -68.6721525,
            -31.0726357
          ],
          [
            -68.6722947,
            -31.0725908
          ],
          [
            -68.67245,
            -31.0725415
          ],
          [
            -68.6725975,
            -31.0724886
          ],
          [
            -68.6727568,
            -31.0724226
          ],
          [
            -68.6728818,
            -31.0723646
          ],
          [
            -68.6730218,
            -31.0722965
          ],
          [
            -68.6731986,
            -31.0721996
          ],
          [
            -68.6733807,
            -31.0720935
          ],
          [
            -68.6738372,
            -31.0718148
          ],
          [
            -68.6745582,
            -31.071356
          ],
          [
            -68.6749412,
            -31.0711152
          ],
          [
            -68.6755781,
            -31.0707128
          ],
          [
            -68.6773854,
            -31.0695627
          ],
          [
            -68.6800361,
            -31.0678877
          ],
          [
            -68.6805886,
            -31.0675306
          ],
          [
            -68.6812932,
            -31.0670966
          ],
          [
            -68.6825925,
            -31.066266
          ],
          [
            -68.6841277,
            -31.0652872
          ],
          [
            -68.6842959,
            -31.0651807
          ],
          [
            -68.6862973,
            -31.0639126
          ],
          [
            -68.6893663,
            -31.0619659
          ],
          [
            -68.6895745,
            -31.0618368
          ],
          [
            -68.6905435,
            -31.06123
          ],
          [
            -68.6990553,
            -31.0558202
          ],
          [
            -68.700794,
            -31.0546858
          ],
          [
            -68.7013395,
            -31.0543519
          ],
          [
            -68.7014812,
            -31.0542594
          ],
          [
            -68.7020184,
            -31.0539237
          ],
          [
            -68.703251,
            -31.0531353
          ],
          [
            -68.7057761,
            -31.051542
          ],
          [
            -68.7060714,
            -31.0513445
          ],
          [
            -68.706611,
            -31.0510044
          ],
          [
            -68.709793,
            -31.0489863
          ],
          [
            -68.7124766,
            -31.0472921
          ],
          [
            -68.7133338,
            -31.0467316
          ],
          [
            -68.7144619,
            -31.0460264
          ],
          [
            -68.7151292,
            -31.0456016
          ],
          [
            -68.7158731,
            -31.0451352
          ],
          [
            -68.7166218,
            -31.0446568
          ],
          [
            -68.7171732,
            -31.044312
          ],
          [
            -68.7183642,
            -31.0435611
          ],
          [
            -68.7188668,
            -31.043242
          ],
          [
            -68.7198471,
            -31.0426092
          ],
          [
            -68.7202777,
            -31.0423283
          ],
          [
            -68.7209578,
            -31.0418898
          ],
          [
            -68.7215287,
            -31.0415374
          ],
          [
            -68.7216221,
            -31.0414793
          ],
          [
            -68.7236043,
            -31.0402263
          ],
          [
            -68.7243427,
            -31.0397529
          ],
          [
            -68.7245924,
            -31.0395997
          ],
          [
            -68.7247027,
            -31.039538
          ],
          [
            -68.7248102,
            -31.0394785
          ],
          [
            -68.724926,
            -31.0394169
          ],
          [
            -68.7250425,
            -31.0393587
          ],
          [
            -68.7251656,
            -31.0393052
          ],
          [
            -68.725283,
            -31.0392553
          ],
          [
            -68.7253971,
            -31.0392119
          ],
          [
            -68.7255243,
            -31.0391677
          ],
          [
            -68.7256492,
            -31.0391303
          ],
          [
            -68.7257657,
            -31.0390996
          ],
          [
            -68.7258776,
            -31.0390722
          ],
          [
            -68.725993,
            -31.0390524
          ],
          [
            -68.7288706,
            -31.0386387
          ],
          [
            -68.7305051,
            -31.0384167
          ],
          [
            -68.7309592,
            -31.0383564
          ],
          [
            -68.7313196,
            -31.0383065
          ],
          [
            -68.7316467,
            -31.0382554
          ],
          [
            -68.7318653,
            -31.0382178
          ],
          [
            -68.7320609,
            -31.0381761
          ],
          [
            -68.7322198,
            -31.0381347
          ],
          [
            -68.7323921,
            -31.0380818
          ],
          [
            -68.7325479,
            -31.0380256
          ],
          [
            -68.7327578,
            -31.0379389
          ],
          [
            -68.7334128,
            -31.0376407
          ],
          [
            -68.7338387,
            -31.0374335
          ],
          [
            -68.7343165,
            -31.0372045
          ],
          [
            -68.7345162,
            -31.0371095
          ],
          [
            -68.7347255,
            -31.0370088
          ],
          [
            -68.7351162,
            -31.0368256
          ],
          [
            -68.7353373,
            -31.0367247
          ],
          [
            -68.7355092,
            -31.0366386
          ],
          [
            -68.735631,
            -31.0365743
          ],
          [
            -68.7357552,
            -31.036506
          ],
          [
            -68.7358834,
            -31.0364308
          ],
          [
            -68.7360055,
            -31.0363553
          ],
          [
            -68.7361232,
            -31.0362752
          ],
          [
            -68.7362463,
            -31.0361904
          ],
          [
            -68.7363715,
            -31.0360986
          ],
          [
            -68.7364976,
            -31.0359971
          ],
          [
            -68.7372866,
            -31.0353405
          ],
          [
            -68.7378219,
            -31.0349003
          ],
          [
            -68.7378961,
            -31.0348307
          ],
          [
            -68.7379649,
            -31.0347656
          ],
          [
            -68.738073,
            -31.0346517
          ],
          [
            -68.7381829,
            -31.0345316
          ],
          [
            -68.7382848,
            -31.0344093
          ],
          [
            -68.7386064,
            -31.0339905
          ],
          [
            -68.7391412,
            -31.0332794
          ],
          [
            -68.7396133,
            -31.0326514
          ],
          [
            -68.7398965,
            -31.0322696
          ],
          [
            -68.7401164,
            -31.0319679
          ],
          [
            -68.7403592,
            -31.0316423
          ],
          [
            -68.7407714,
            -31.0310927
          ],
          [
            -68.7411782,
            -31.0305454
          ],
          [
            -68.7413165,
            -31.0303704
          ],
          [
            -68.7414548,
            -31.030223
          ],
          [
            -68.7415308,
            -31.0301535
          ],
          [
            -68.7415907,
            -31.0301069
          ],
          [
            -68.7416935,
            -31.030035
          ],
          [
            -68.741799,
            -31.0299654
          ],
          [
            -68.7421136,
            -31.0297656
          ],
          [
            -68.7424282,
            -31.0295841
          ],
          [
            -68.7432345,
            -31.0290927
          ],
          [
            -68.7435259,
            -31.0289127
          ],
          [
            -68.7436711,
            -31.0288181
          ],
          [
            -68.7438533,
            -31.0286856
          ],
          [
            -68.7439306,
            -31.0286258
          ],
          [
            -68.7440142,
            -31.0285528
          ],
          [
            -68.7440859,
            -31.0284797
          ],
          [
            -68.7441917,
            -31.0283772
          ],
          [
            -68.744276,
            -31.028282
          ],
          [
            -68.7443423,
            -31.0281903
          ],
          [
            -68.7444059,
            -31.0280842
          ],
          [
            -68.7446397,
            -31.0276166
          ],
          [
            -68.7448406,
            -31.0272017
          ],
          [
            -68.7449465,
            -31.0269804
          ],
          [
            -68.7450101,
            -31.0268744
          ],
          [
            -68.7450684,
            -31.0267775
          ],
          [
            -68.7451462,
            -31.0266695
          ],
          [
            -68.74524,
            -31.0265523
          ],
          [
            -68.7455802,
            -31.0261829
          ],
          [
            -68.7463906,
            -31.0252804
          ],
          [
            -68.7469503,
            -31.0246995
          ],
          [
            -68.7470543,
            -31.0245981
          ],
          [
            -68.7471274,
            -31.0245436
          ],
          [
            -68.7472112,
            -31.0244825
          ],
          [
            -68.7473021,
            -31.0244243
          ],
          [
            -68.7475083,
            -31.0243225
          ],
          [
            -68.7477602,
            -31.0242129
          ],
          [
            -68.7479531,
            -31.0241308
          ],
          [
            -68.7481567,
            -31.0240188
          ],
          [
            -68.748275,
            -31.0239359
          ],
          [
            -68.7483611,
            -31.0238577
          ],
          [
            -68.7484533,
            -31.0237515
          ],
          [
            -68.7485053,
            -31.0236591
          ],
          [
            -68.7485658,
            -31.0234935
          ],
          [
            -68.7486353,
            -31.0231725
          ],
          [
            -68.7487641,
            -31.0226576
          ],
          [
            -68.7488719,
            -31.0222562
          ],
          [
            -68.748895,
            -31.0221664
          ],
          [
            -68.748908,
            -31.0221286
          ],
          [
            -68.7489298,
            -31.0220836
          ],
          [
            -68.748958,
            -31.0220388
          ],
          [
            -68.7489969,
            -31.0220078
          ],
          [
            -68.7490452,
            -31.0219836
          ],
          [
            -68.7490935,
            -31.0219641
          ],
          [
            -68.7491552,
            -31.021948
          ],
          [
            -68.749249,
            -31.0219342
          ],
          [
            -68.7493375,
            -31.0219434
          ],
          [
            -68.7493992,
            -31.0219641
          ],
          [
            -68.7494636,
            -31.0220032
          ],
          [
            -68.7495038,
            -31.0220537
          ],
          [
            -68.7495414,
            -31.0221112
          ],
          [
            -68.7495682,
            -31.0222008
          ],
          [
            -68.7495929,
            -31.0223129
          ],
          [
            -68.7497056,
            -31.0228898
          ],
          [
            -68.7497951,
            -31.0233607
          ],
          [
            -68.7498611,
            -31.0237196
          ],
          [
            -68.7500499,
            -31.0245333
          ],
          [
            -68.7501894,
            -31.0249654
          ],
          [
            -68.7503063,
            -31.0252833
          ],
          [
            -68.7504453,
            -31.0255552
          ],
          [
            -68.7506409,
            -31.0258343
          ],
          [
            -68.7509376,
            -31.0261101
          ],
          [
            -68.7511795,
            -31.0263134
          ],
          [
            -68.7514299,
            -31.0264695
          ],
          [
            -68.751611,
            -31.0265524
          ],
          [
            -68.7517566,
            -31.026594
          ],
          [
            -68.7518345,
            -31.0266171
          ],
          [
            -68.7519579,
            -31.0266265
          ],
          [
            -68.7521112,
            -31.0266397
          ],
          [
            -68.7522011,
            -31.0266296
          ],
          [
            -68.7523985,
            -31.0266234
          ],
          [
            -68.7525641,
            -31.0266025
          ],
          [
            -68.7527965,
            -31.026588
          ],
          [
            -68.7529919,
            -31.0265992
          ],
          [
            -68.7533218,
            -31.026619
          ],
          [
            -68.7535766,
            -31.0266391
          ],
          [
            -68.7538028,
            -31.0266569
          ],
          [
            -68.7539459,
            -31.026668
          ],
          [
            -68.7540707,
            -31.0266792
          ],
          [
            -68.7541929,
            -31.0266792
          ],
          [
            -68.7543125,
            -31.0266703
          ],
          [
            -68.7544893,
            -31.026648
          ],
          [
            -68.7546428,
            -31.0266101
          ],
          [
            -68.7548508,
            -31.0265254
          ],
          [
            -68.7550094,
            -31.0264318
          ],
          [
            -68.7551888,
            -31.026307
          ],
          [
            -68.7554359,
            -31.0261221
          ],
          [
            -68.755891,
            -31.0257656
          ],
          [
            -68.7562108,
            -31.0255405
          ],
          [
            -68.7564656,
            -31.0253511
          ],
          [
            -68.7565931,
            -31.0252575
          ],
          [
            -68.7566841,
            -31.025204
          ],
          [
            -68.7567595,
            -31.0251684
          ],
          [
            -68.7568245,
            -31.0251483
          ],
          [
            -68.7569025,
            -31.0251416
          ],
          [
            -68.7569805,
            -31.0251461
          ],
          [
            -68.7571183,
            -31.025175
          ],
          [
            -68.7576696,
            -31.0252798
          ],
          [
            -68.7582989,
            -31.0254202
          ],
          [
            -68.7583717,
            -31.0254335
          ],
          [
            -68.7586006,
            -31.0254714
          ],
          [
            -68.7599554,
            -31.0256876
          ],
          [
            -68.7600906,
            -31.0257098
          ],
          [
            -68.7602076,
            -31.0257321
          ],
          [
            -68.760322,
            -31.0257633
          ],
          [
            -68.7604104,
            -31.025799
          ],
          [
            -68.7604884,
            -31.0258618
          ],
          [
            -68.760562,
            -31.0259271
          ],
          [
            -68.7607008,
            -31.0261092
          ],
          [
            -68.7607978,
            -31.0262649
          ],
          [
            -68.7608956,
            -31.0263937
          ],
          [
            -68.7610301,
            -31.0265745
          ],
          [
            -68.7611589,
            -31.0267011
          ],
          [
            -68.7612828,
            -31.0268157
          ],
          [
            -68.7613593,
            -31.0268868
          ],
          [
            -68.761464,
            -31.026961
          ],
          [
            -68.7615486,
            -31.0270036
          ],
          [
            -68.7617022,
            -31.0271057
          ],
          [
            -68.7618042,
            -31.0271804
          ],
          [
            -68.7618578,
            -31.0272379
          ],
          [
            -68.7619105,
            -31.027307
          ],
          [
            -68.7619931,
            -31.0274601
          ],
          [
            -68.7620588,
            -31.0276094
          ],
          [
            -68.7621167,
            -31.027748
          ],
          [
            -68.7621879,
            -31.0278459
          ],
          [
            -68.7622638,
            -31.0279001
          ],
          [
            -68.7623451,
            -31.0279516
          ],
          [
            -68.7624517,
            -31.0279939
          ],
          [
            -68.7625791,
            -31.0280251
          ],
          [
            -68.7626858,
            -31.028034
          ],
          [
            -68.7627976,
            -31.0280117
          ],
          [
            -68.7629016,
            -31.0279783
          ],
          [
            -68.7629952,
            -31.0279404
          ],
          [
            -68.7630914,
            -31.0278825
          ],
          [
            -68.7631746,
            -31.0278134
          ],
          [
            -68.7632448,
            -31.0277198
          ],
          [
            -68.7632968,
            -31.0276329
          ],
          [
            -68.7633541,
            -31.0274903
          ],
          [
            -68.7634425,
            -31.0272006
          ],
          [
            -68.7639307,
            -31.0256981
          ],
          [
            -68.7640626,
            -31.0252649
          ],
          [
            -68.7641026,
            -31.0251629
          ],
          [
            -68.7641439,
            -31.0250677
          ],
          [
            -68.7641894,
            -31.0249796
          ],
          [
            -68.7642488,
            -31.0248752
          ],
          [
            -68.7643597,
            -31.0246747
          ],
          [
            -68.7644617,
            -31.024478
          ],
          [
            -68.7645524,
            -31.0242909
          ],
          [
            -68.7646235,
            -31.0241271
          ],
          [
            -68.7646853,
            -31.0239737
          ],
          [
            -68.7647265,
            -31.023856
          ],
          [
            -68.7647575,
            -31.0237499
          ],
          [
            -68.7647858,
            -31.0236254
          ],
          [
            -68.7648095,
            -31.0234806
          ],
          [
            -68.7648378,
            -31.0233054
          ],
          [
            -68.7648922,
            -31.0229243
          ],
          [
            -68.764915,
            -31.0228128
          ],
          [
            -68.7649431,
            -31.0227197
          ],
          [
            -68.7649793,
            -31.022622
          ],
          [
            -68.7650236,
            -31.0225301
          ],
          [
            -68.7650773,
            -31.0224347
          ],
          [
            -68.7651507,
            -31.022324
          ],
          [
            -68.7652366,
            -31.0221834
          ],
          [
            -68.765316,
            -31.0220554
          ],
          [
            -68.7653813,
            -31.0219436
          ],
          [
            -68.765443,
            -31.0218387
          ],
          [
            -68.765502,
            -31.0217107
          ],
          [
            -68.7655855,
            -31.0215067
          ],
          [
            -68.7656664,
            -31.0213372
          ],
          [
            -68.7657581,
            -31.0211769
          ],
          [
            -68.7658573,
            -31.0210165
          ],
          [
            -68.7659717,
            -31.0208347
          ],
          [
            -68.7660192,
            -31.0207459
          ],
          [
            -68.7660391,
            -31.020695
          ],
          [
            -68.766054,
            -31.0206441
          ],
          [
            -68.766069,
            -31.0205563
          ],
          [
            -68.7660763,
            -31.020449
          ],
          [
            -68.7660991,
            -31.0197302
          ],
          [
            -68.7661347,
            -31.018996
          ],
          [
            -68.7661299,
            -31.0187241
          ],
          [
            -68.7660981,
            -31.0184416
          ],
          [
            -68.7660539,
            -31.0182289
          ],
          [
            -68.7660135,
            -31.0180792
          ],
          [
            -68.7659731,
            -31.0179294
          ],
          [
            -68.7659366,
            -31.0177434
          ],
          [
            -68.7659087,
            -31.0175501
          ],
          [
            -68.7658924,
            -31.0173962
          ],
          [
            -68.7658653,
            -31.0168457
          ],
          [
            -68.7658332,
            -31.0161607
          ],
          [
            -68.7658063,
            -31.0156733
          ],
          [
            -68.7658063,
            -31.0154481
          ],
          [
            -68.7658171,
            -31.0152757
          ],
          [
            -68.7658412,
            -31.0150826
          ],
          [
            -68.7658761,
            -31.0148895
          ],
          [
            -68.7659378,
            -31.0146642
          ],
          [
            -68.7660236,
            -31.0143378
          ],
          [
            -68.766088,
            -31.0140849
          ],
          [
            -68.7661168,
            -31.0139352
          ],
          [
            -68.7661089,
            -31.013692
          ],
          [
            -68.7661286,
            -31.0134825
          ],
          [
            -68.7661443,
            -31.0133243
          ],
          [
            -68.7662119,
            -31.0131586
          ],
          [
            -68.766287,
            -31.0129889
          ],
          [
            -68.7663035,
            -31.0128031
          ],
          [
            -68.7662733,
            -31.0125653
          ],
          [
            -68.7662371,
            -31.0123069
          ],
          [
            -68.7661634,
            -31.0119821
          ],
          [
            -68.7659523,
            -31.0114213
          ],
          [
            -68.7658868,
            -31.0112325
          ],
          [
            -68.7658739,
            -31.0110717
          ],
          [
            -68.7658902,
            -31.0108817
          ],
          [
            -68.7659366,
            -31.0107123
          ],
          [
            -68.766025,
            -31.010535
          ],
          [
            -68.7661655,
            -31.0103227
          ],
          [
            -68.7663389,
            -31.0102036
          ],
          [
            -68.7664884,
            -31.0101721
          ],
          [
            -68.7666697,
            -31.0101746
          ],
          [
            -68.7669704,
            -31.0102325
          ],
          [
            -68.7672018,
            -31.0102949
          ],
          [
            -68.767465,
            -31.0103523
          ],
          [
            -68.7675665,
            -31.0103584
          ],
          [
            -68.7676976,
            -31.0103578
          ],
          [
            -68.7678805,
            -31.0103028
          ],
          [
            -68.7680164,
            -31.0102574
          ],
          [
            -68.7681548,
            -31.0102118
          ],
          [
            -68.7683082,
            -31.0101645
          ],
          [
            -68.7684157,
            -31.0101348
          ],
          [
            -68.7685611,
            -31.0101285
          ],
          [
            -68.7687309,
            -31.0101441
          ],
          [
            -68.768862,
            -31.0101574
          ],
          [
            -68.7691063,
            -31.0101711
          ],
          [
            -68.7692534,
            -31.010165
          ],
          [
            -68.7694445,
            -31.0101223
          ],
          [
            -68.7696206,
            -31.0100693
          ],
          [
            -68.7698296,
            -31.0099707
          ],
          [
            -68.7708809,
            -31.0095392
          ],
          [
            -68.7711604,
            -31.009432
          ],
          [
            -68.7714417,
            -31.0093733
          ],
          [
            -68.771624,
            -31.0093242
          ],
          [
            -68.7717697,
            -31.0092724
          ],
          [
            -68.7719868,
            -31.0092077
          ],
          [
            -68.772254,
            -31.0091793
          ],
          [
            -68.7724559,
            -31.0091945
          ],
          [
            -68.7727383,
            -31.0092247
          ],
          [
            -68.7730175,
            -31.0092744
          ],
          [
            -68.773207,
            -31.0092786
          ],
          [
            -68.7734261,
            -31.0092699
          ],
          [
            -68.7736071,
            -31.0092249
          ],
          [
            -68.7744131,
            -31.0089562
          ],
          [
            -68.7752718,
            -31.0086582
          ],
          [
            -68.7754613,
            -31.0085887
          ],
          [
            -68.7756509,
            -31.0085146
          ],
          [
            -68.7757716,
            -31.0084571
          ],
          [
            -68.7758822,
            -31.0083906
          ],
          [
            -68.7759873,
            -31.0083104
          ],
          [
            -68.7761147,
            -31.0081962
          ],
          [
            -68.776351,
            -31.0079307
          ],
          [
            -68.7765225,
            -31.0077311
          ],
          [
            -68.7766538,
            -31.007589
          ],
          [
            -68.7771642,
            -31.0070604
          ],
          [
            -68.7772219,
            -31.0069966
          ],
          [
            -68.7772659,
            -31.0069366
          ],
          [
            -68.7773228,
            -31.0068508
          ],
          [
            -68.7773711,
            -31.0067626
          ],
          [
            -68.777413,
            -31.0066761
          ],
          [
            -68.7774521,
            -31.0065871
          ],
          [
            -68.7774963,
            -31.0064873
          ],
          [
            -68.7775317,
            -31.0064132
          ],
          [
            -68.777578,
            -31.0063163
          ],
          [
            -68.7776268,
            -31.0062373
          ],
          [
            -68.7776842,
            -31.0061533
          ],
          [
            -68.7777566,
            -31.0060715
          ],
          [
            -68.7778242,
            -31.0059988
          ],
          [
            -68.7778922,
            -31.0059355
          ],
          [
            -68.7779574,
            -31.0058796
          ],
          [
            -68.7780561,
            -31.0058123
          ],
          [
            -68.778144,
            -31.0057652
          ],
          [
            -68.778263,
            -31.0057053
          ],
          [
            -68.7783958,
            -31.0056481
          ],
          [
            -68.77858,
            -31.0055811
          ],
          [
            -68.7788056,
            -31.0054934
          ],
          [
            -68.7791182,
            -31.0053722
          ],
          [
            -68.7794179,
            -31.0052453
          ],
          [
            -68.779825,
            -31.0050764
          ],
          [
            -68.7803959,
            -31.0048635
          ],
          [
            -68.7810215,
            -31.0046181
          ],
          [
            -68.7812687,
            -31.0045035
          ],
          [
            -68.7815445,
            -31.0043753
          ],
          [
            -68.7818521,
            -31.0042352
          ],
          [
            -68.7819708,
            -31.0041859
          ],
          [
            -68.7821086,
            -31.0041361
          ],
          [
            -68.7822204,
            -31.0041043
          ],
          [
            -68.7823166,
            -31.0040844
          ],
          [
            -68.7823935,
            -31.0040733
          ],
          [
            -68.7824936,
            -31.0040603
          ],
          [
            -68.7825951,
            -31.0040542
          ],
          [
            -68.7827789,
            -31.0040521
          ],
          [
            -68.7835541,
            -31.0040328
          ],
          [
            -68.7845649,
            -31.0040107
          ],
          [
            -68.7855706,
            -31.0039907
          ],
          [
            -68.7863351,
            -31.0039699
          ],
          [
            -68.7875296,
            -31.0039468
          ],
          [
            -68.7884158,
            -31.0039422
          ],
          [
            -68.7885209,
            -31.0039435
          ],
          [
            -68.7886114,
            -31.0039522
          ],
          [
            -68.7887276,
            -31.0039671
          ],
          [
            -68.7888706,
            -31.0039825
          ],
          [
            -68.7890173,
            -31.0040273
          ],
          [
            -68.7891718,
            -31.004054
          ],
          [
            -68.7893273,
            -31.0040939
          ],
          [
            -68.7894786,
            -31.0041333
          ],
          [
            -68.7897491,
            -31.0042126
          ],
          [
            -68.7899311,
            -31.0042776
          ],
          [
            -68.7901592,
            -31.0043833
          ],
          [
            -68.7902528,
            -31.0044258
          ],
          [
            -68.7904686,
            -31.0045236
          ],
          [
            -68.7907202,
            -31.004652
          ],
          [
            -68.790941,
            -31.0047583
          ],
          [
            -68.7910802,
            -31.004828
          ],
          [
            -68.791165,
            -31.0048639
          ],
          [
            -68.7912617,
            -31.004899
          ],
          [
            -68.7913648,
            -31.0049274
          ],
          [
            -68.7914576,
            -31.0049321
          ],
          [
            -68.7915085,
            -31.0049345
          ],
          [
            -68.7916681,
            -31.0049266
          ],
          [
            -68.7917281,
            -31.0049256
          ],
          [
            -68.791856,
            -31.0049027
          ],
          [
            -68.7919933,
            -31.0048618
          ],
          [
            -68.7920862,
            -31.0048207
          ],
          [
            -68.7921956,
            -31.0047758
          ],
          [
            -68.7922995,
            -31.0047246
          ],
          [
            -68.7924297,
            -31.0046478
          ],
          [
            -68.7925429,
            -31.0045766
          ],
          [
            -68.792651,
            -31.004499
          ],
          [
            -68.7927544,
            -31.00442
          ],
          [
            -68.7928397,
            -31.0043322
          ],
          [
            -68.7929053,
            -31.0042496
          ],
          [
            -68.7929605,
            -31.0041491
          ],
          [
            -68.7929935,
            -31.0040611
          ],
          [
            -68.79301,
            -31.0039524
          ],
          [
            -68.7930109,
            -31.0038571
          ],
          [
            -68.7929938,
            -31.0037155
          ],
          [
            -68.792956,
            -31.0035738
          ],
          [
            -68.7929033,
            -31.0033985
          ],
          [
            -68.7928246,
            -31.003163
          ],
          [
            -68.7927389,
            -31.0029297
          ],
          [
            -68.7926237,
            -31.0026885
          ],
          [
            -68.7924155,
            -31.0022873
          ],
          [
            -68.792288,
            -31.0020809
          ],
          [
            -68.7922509,
            -31.0019904
          ],
          [
            -68.7922329,
            -31.0019248
          ],
          [
            -68.7922281,
            -31.0018435
          ],
          [
            -68.7922502,
            -31.0017398
          ],
          [
            -68.7922759,
            -31.0016604
          ],
          [
            -68.7923336,
            -31.0015381
          ],
          [
            -68.7923678,
            -31.001465
          ],
          [
            -68.7923976,
            -31.0014193
          ],
          [
            -68.792451,
            -31.0013585
          ],
          [
            -68.792525,
            -31.0012741
          ],
          [
            -68.7925962,
            -31.0012047
          ],
          [
            -68.7926852,
            -31.0011356
          ],
          [
            -68.792818,
            -31.0010374
          ],
          [
            -68.7929266,
            -31.0009637
          ],
          [
            -68.7931704,
            -31.000802
          ],
          [
            -68.7933028,
            -31.0006973
          ],
          [
            -68.7933718,
            -31.0006356
          ],
          [
            -68.7934198,
            -31.0005854
          ],
          [
            -68.7934775,
            -31.0005089
          ],
          [
            -68.793536,
            -31.0004143
          ],
          [
            -68.7935672,
            -31.0003206
          ],
          [
            -68.7935987,
            -31.0001964
          ],
          [
            -68.7937914,
            -30.9995921
          ],
          [
            -68.7938436,
            -30.9994076
          ],
          [
            -68.7939042,
            -30.9992166
          ],
          [
            -68.7939482,
            -30.999115
          ],
          [
            -68.7939917,
            -30.9990392
          ],
          [
            -68.7940392,
            -30.9989736
          ],
          [
            -68.7940977,
            -30.9989019
          ],
          [
            -68.7941574,
            -30.9988401
          ],
          [
            -68.7942333,
            -30.9987737
          ],
          [
            -68.7943702,
            -30.9986606
          ],
          [
            -68.7945359,
            -30.9985174
          ],
          [
            -68.7947348,
            -30.9983299
          ],
          [
            -68.7950292,
            -30.99805
          ],
          [
            -68.7953236,
            -30.9977701
          ],
          [
            -68.7955992,
            -30.9974855
          ],
          [
            -68.7957209,
            -30.9973709
          ],
          [
            -68.7958051,
            -30.9972884
          ],
          [
            -68.7959443,
            -30.9971773
          ],
          [
            -68.7961202,
            -30.9970397
          ],
          [
            -68.7965425,
            -30.9967465
          ],
          [
            -68.7966365,
            -30.996679
          ],
          [
            -68.7967171,
            -30.9966136
          ],
          [
            -68.796797,
            -30.9965302
          ],
          [
            -68.7968631,
            -30.9964527
          ],
          [
            -68.7969189,
            -30.9963865
          ],
          [
            -68.7969834,
            -30.9963172
          ],
          [
            -68.7970332,
            -30.9962721
          ],
          [
            -68.7971034,
            -30.996218
          ],
          [
            -68.797163,
            -30.9961776
          ],
          [
            -68.7972328,
            -30.9961367
          ],
          [
            -68.7976046,
            -30.9959393
          ],
          [
            -68.797657,
            -30.995908
          ],
          [
            -68.7976993,
            -30.9958797
          ],
          [
            -68.7977337,
            -30.9958455
          ],
          [
            -68.797804,
            -30.9957844
          ],
          [
            -68.7978378,
            -30.9957385
          ],
          [
            -68.7978931,
            -30.9956567
          ],
          [
            -68.7979497,
            -30.9955814
          ],
          [
            -68.7984878,
            -30.994987
          ],
          [
            -68.798585,
            -30.9948803
          ],
          [
            -68.798674,
            -30.9947703
          ],
          [
            -68.7987646,
            -30.9946805
          ],
          [
            -68.7988568,
            -30.9945966
          ],
          [
            -68.7989324,
            -30.9945294
          ],
          [
            -68.7989804,
            -30.9944506
          ],
          [
            -68.7990457,
            -30.9943617
          ],
          [
            -68.7991187,
            -30.9942344
          ],
          [
            -68.7991797,
            -30.9941497
          ],
          [
            -68.7992215,
            -30.9940856
          ],
          [
            -68.799292,
            -30.9939876
          ],
          [
            -68.7995143,
            -30.993659
          ],
          [
            -68.7995762,
            -30.9935531
          ],
          [
            -68.7996506,
            -30.9934365
          ],
          [
            -68.7997104,
            -30.9933075
          ],
          [
            -68.7997604,
            -30.9932194
          ],
          [
            -68.7997979,
            -30.9930822
          ],
          [
            -68.799837,
            -30.9929824
          ],
          [
            -68.7998738,
            -30.9928809
          ],
          [
            -68.7999382,
            -30.9927659
          ],
          [
            -68.7999864,
            -30.9926894
          ],
          [
            -68.8000502,
            -30.9926171
          ],
          [
            -68.8001112,
            -30.9925464
          ],
          [
            -68.800197,
            -30.9924659
          ],
          [
            -68.8002962,
            -30.9923924
          ],
          [
            -68.8004792,
            -30.9922651
          ],
          [
            -68.8006037,
            -30.9921814
          ],
          [
            -68.8007082,
            -30.9920978
          ],
          [
            -68.8007587,
            -30.9920549
          ],
          [
            -68.8011133,
            -30.9917209
          ],
          [
            -68.8012613,
            -30.9916188
          ],
          [
            -68.8014307,
            -30.9914976
          ],
          [
            -68.8016164,
            -30.9913765
          ],
          [
            -68.8017369,
            -30.9912911
          ],
          [
            -68.8018634,
            -30.9911902
          ],
          [
            -68.8019413,
            -30.9911263
          ],
          [
            -68.8020133,
            -30.9910597
          ],
          [
            -68.802132,
            -30.9909189
          ],
          [
            -68.8022102,
            -30.9907975
          ],
          [
            -68.8023588,
            -30.9905608
          ],
          [
            -68.8025032,
            -30.9903093
          ],
          [
            -68.8026181,
            -30.9900988
          ],
          [
            -68.8026848,
            -30.9899631
          ],
          [
            -68.8027208,
            -30.9898623
          ],
          [
            -68.8027388,
            -30.9897789
          ],
          [
            -68.8027488,
            -30.9896927
          ],
          [
            -68.8027468,
            -30.989602
          ],
          [
            -68.8027351,
            -30.989498
          ],
          [
            -68.8027223,
            -30.9894307
          ],
          [
            -68.8027009,
            -30.9893426
          ],
          [
            -68.8026657,
            -30.9892353
          ],
          [
            -68.8026223,
            -30.9891032
          ],
          [
            -68.8025707,
            -30.9889075
          ],
          [
            -68.8025413,
            -30.9887743
          ],
          [
            -68.8025253,
            -30.9886669
          ],
          [
            -68.8025194,
            -30.9885704
          ],
          [
            -68.8025278,
            -30.98845
          ],
          [
            -68.8025444,
            -30.9883451
          ],
          [
            -68.8025807,
            -30.9881841
          ],
          [
            -68.8026956,
            -30.9876975
          ],
          [
            -68.8027446,
            -30.9874966
          ]
        ]
      }
    },
    {
      "type": "Feature",
      "id": "vial_provincial.10289",
      "properties": {
        "gid": 10289,
        "designacion_de_red_vial": "436",
        "tipo_de_via_de_transporte": "Ruta",
        "tipo_de_superficie_de_via": "Pavimentado",
        "jurisdiccion_de_via_de_transporte": "Ruta Provincial",
        "autoridad_de_fuente": "IGN",
        "fuente_de_captura": "UNIDE",
        "sourceFeatureId": "vial_provincial.10289",
        "selectedForCorridor": "los-azules",
        "selectionMethod": "reviewed source-junction clip between pinned coordinates",
        "selectionLengthKm": 0.209719,
        "sourceGeometryClipped": true
      },
      "geometry": {
        "type": "LineString",
        "coordinates": [
          [
            -68.8027446,
            -30.9874966
          ],
          [
            -68.8028318,
            -30.9870348
          ],
          [
            -68.8028555,
            -30.9869004
          ],
          [
            -68.802883,
            -30.9867353
          ],
          [
            -68.8028786,
            -30.9866201
          ],
          [
            -68.8028738,
            -30.9865431
          ],
          [
            -68.80283011,
            -30.98641147
          ],
          [
            -68.8028137,
            -30.98629583
          ],
          [
            -68.80279954,
            -30.98620162
          ],
          [
            -68.80278735,
            -30.98603012
          ],
          [
            -68.80277348,
            -30.98589372
          ],
          [
            -68.8027955,
            -30.9856283
          ]
        ]
      }
    },
    {
      "type": "Feature",
      "id": "vial_provincial.10272",
      "properties": {
        "gid": 10272,
        "designacion_de_red_vial": "406",
        "tipo_de_via_de_transporte": "Ruta",
        "tipo_de_superficie_de_via": "Pavimentado",
        "jurisdiccion_de_via_de_transporte": "Ruta Provincial",
        "autoridad_de_fuente": "IGN",
        "fuente_de_captura": "UNIDE",
        "sourceFeatureId": "vial_provincial.10272",
        "selectedForCorridor": "los-azules",
        "selectionMethod": "reviewed source-junction clip between pinned coordinates",
        "selectionLengthKm": 30.139027,
        "sourceGeometryClipped": true
      },
      "geometry": {
        "type": "LineString",
        "coordinates": [
          [
            -69.4437769,
            -31.5625244
          ],
          [
            -69.443574,
            -31.5618394
          ],
          [
            -69.4433378,
            -31.5609222
          ],
          [
            -69.443116,
            -31.5602885
          ],
          [
            -69.4425789,
            -31.5589755
          ],
          [
            -69.4422184,
            -31.5580371
          ],
          [
            -69.4454512,
            -31.557289
          ],
          [
            -69.4457665,
            -31.557212
          ],
          [
            -69.4460412,
            -31.5571384
          ],
          [
            -69.4464276,
            -31.5570276
          ],
          [
            -69.4467165,
            -31.5569584
          ],
          [
            -69.4469452,
            -31.5569202
          ],
          [
            -69.4471981,
            -31.5568851
          ],
          [
            -69.4474157,
            -31.5568708
          ],
          [
            -69.4476294,
            -31.5568704
          ],
          [
            -69.4478526,
            -31.5569014
          ],
          [
            -69.448074,
            -31.5569544
          ],
          [
            -69.4482973,
            -31.5570428
          ],
          [
            -69.4485144,
            -31.5571633
          ],
          [
            -69.4487345,
            -31.5572914
          ],
          [
            -69.4489424,
            -31.557423
          ],
          [
            -69.4491452,
            -31.5575282
          ],
          [
            -69.4492659,
            -31.5575807
          ],
          [
            -69.4493846,
            -31.5576229
          ],
          [
            -69.4495295,
            -31.5576595
          ],
          [
            -69.4497252,
            -31.5576944
          ],
          [
            -69.4499971,
            -31.5577227
          ],
          [
            -69.4505331,
            -31.5577657
          ],
          [
            -69.4538023,
            -31.5580278
          ],
          [
            -69.4553979,
            -31.5581509
          ],
          [
            -69.4559075,
            -31.5580725
          ],
          [
            -69.4562544,
            -31.5579398
          ],
          [
            -69.4564668,
            -31.5577656
          ],
          [
            -69.4566862,
            -31.5575598
          ],
          [
            -69.4568315,
            -31.5573863
          ],
          [
            -69.4569452,
            -31.5571267
          ],
          [
            -69.457031,
            -31.5568141
          ],
          [
            -69.45704237,
            -31.55596013
          ],
          [
            -69.4569345,
            -31.5553429
          ],
          [
            -69.4569622,
            -31.555129
          ],
          [
            -69.4570117,
            -31.5549234
          ],
          [
            -69.4580631,
            -31.5519978
          ],
          [
            -69.4586819,
            -31.5503916
          ],
          [
            -69.4588074,
            -31.5500447
          ],
          [
            -69.4588519,
            -31.5496903
          ],
          [
            -69.458795,
            -31.5493359
          ],
          [
            -69.4586105,
            -31.5487478
          ],
          [
            -69.4581094,
            -31.5474554
          ],
          [
            -69.4575981,
            -31.546109
          ],
          [
            -69.4568565,
            -31.5445419
          ],
          [
            -69.456254,
            -31.5432602
          ],
          [
            -69.4556255,
            -31.5417477
          ],
          [
            -69.4552222,
            -31.5408328
          ],
          [
            -69.4545442,
            -31.5393103
          ],
          [
            -69.4539305,
            -31.5379707
          ],
          [
            -69.4535355,
            -31.5371305
          ],
          [
            -69.4531171,
            -31.5362892
          ],
          [
            -69.4526256,
            -31.5353529
          ],
          [
            -69.4521317,
            -31.5343953
          ],
          [
            -69.4520976,
            -31.5341679
          ],
          [
            -69.4520724,
            -31.5337502
          ],
          [
            -69.4519584,
            -31.5324943
          ],
          [
            -69.45188787,
            -31.5310956
          ],
          [
            -69.45176175,
            -31.5301738
          ],
          [
            -69.4516559,
            -31.5283506
          ],
          [
            -69.451576,
            -31.527692
          ],
          [
            -69.4515272,
            -31.5272898
          ],
          [
            -69.4514112,
            -31.5269067
          ],
          [
            -69.4510551,
            -31.5263387
          ],
          [
            -69.4498964,
            -31.5248022
          ],
          [
            -69.449014,
            -31.5236535
          ],
          [
            -69.4487221,
            -31.5232486
          ],
          [
            -69.4475381,
            -31.5213188
          ],
          [
            -69.4463946,
            -31.5195093
          ],
          [
            -69.4453474,
            -31.5181076
          ],
          [
            -69.444708,
            -31.5169094
          ],
          [
            -69.4442014,
            -31.5162062
          ],
          [
            -69.4436351,
            -31.5155558
          ],
          [
            -69.4427296,
            -31.5147052
          ],
          [
            -69.4425277,
            -31.5143678
          ],
          [
            -69.4423561,
            -31.5138739
          ],
          [
            -69.4418326,
            -31.5124826
          ],
          [
            -69.441465,
            -31.5110412
          ],
          [
            -69.4413563,
            -31.5103514
          ],
          [
            -69.441146,
            -31.507836
          ],
          [
            -69.4411076,
            -31.5075108
          ],
          [
            -69.4410257,
            -31.5072242
          ],
          [
            -69.4408219,
            -31.5067028
          ],
          [
            -69.4400847,
            -31.5052622
          ],
          [
            -69.4398382,
            -31.5047789
          ],
          [
            -69.4397704,
            -31.5046172
          ],
          [
            -69.4395666,
            -31.5038305
          ],
          [
            -69.4393435,
            -31.5032623
          ],
          [
            -69.438483,
            -31.5020376
          ],
          [
            -69.4377641,
            -31.5011411
          ],
          [
            -69.4372407,
            -31.5003351
          ],
          [
            -69.437056,
            -31.4999794
          ],
          [
            -69.4370131,
            -31.4997049
          ],
          [
            -69.437069,
            -31.4986153
          ],
          [
            -69.4369809,
            -31.4983144
          ],
          [
            -69.4368544,
            -31.4980298
          ],
          [
            -69.4365068,
            -31.497545
          ],
          [
            -69.4363587,
            -31.4972807
          ],
          [
            -69.4362923,
            -31.4969595
          ],
          [
            -69.4363781,
            -31.4965204
          ],
          [
            -69.4364253,
            -31.4958708
          ],
          [
            -69.4362923,
            -31.4946175
          ],
          [
            -69.4362493,
            -31.4939954
          ],
          [
            -69.4362923,
            -31.4934099
          ],
          [
            -69.4364253,
            -31.4922115
          ],
          [
            -69.436597,
            -31.4910404
          ],
          [
            -69.4367342,
            -31.4901541
          ],
          [
            -69.4368415,
            -31.4898521
          ],
          [
            -69.4370024,
            -31.4895228
          ],
          [
            -69.4373457,
            -31.4890196
          ],
          [
            -69.4374745,
            -31.4886628
          ],
          [
            -69.4374745,
            -31.488306
          ],
          [
            -69.4373265,
            -31.488003
          ],
          [
            -69.4370131,
            -31.4876564
          ],
          [
            -69.4364123,
            -31.4872904
          ],
          [
            -69.4360368,
            -31.4869794
          ],
          [
            -69.4355325,
            -31.486467
          ],
          [
            -69.4348374,
            -31.4854779
          ],
          [
            -69.4338733,
            -31.4840241
          ],
          [
            -69.4336391,
            -31.4835827
          ],
          [
            -69.4335159,
            -31.4832359
          ],
          [
            -69.433264,
            -31.4820869
          ],
          [
            -69.4331974,
            -31.4817832
          ],
          [
            -69.4331215,
            -31.4815228
          ],
          [
            -69.43286081,
            -31.48088356
          ],
          [
            -69.43251341,
            -31.4805076
          ],
          [
            -69.4312174,
            -31.4794837
          ],
          [
            -69.4310017,
            -31.4791895
          ],
          [
            -69.4308169,
            -31.4788847
          ],
          [
            -69.4307554,
            -31.4786227
          ],
          [
            -69.4306868,
            -31.478255
          ],
          [
            -69.4305142,
            -31.4771555
          ],
          [
            -69.4303491,
            -31.4750912
          ],
          [
            -69.4303235,
            -31.4747409
          ],
          [
            -69.4303367,
            -31.474551
          ],
          [
            -69.4303939,
            -31.4743766
          ],
          [
            -69.4304803,
            -31.4742023
          ],
          [
            -69.4312266,
            -31.4728348
          ],
          [
            -69.4313418,
            -31.4726164
          ],
          [
            -69.4314254,
            -31.472402
          ],
          [
            -69.4314635,
            -31.4721904
          ],
          [
            -69.4314562,
            -31.4720029
          ],
          [
            -69.4314002,
            -31.4717683
          ],
          [
            -69.4312973,
            -31.471572
          ],
          [
            -69.4311586,
            -31.4713701
          ],
          [
            -69.4304871,
            -31.4707317
          ],
          [
            -69.4299548,
            -31.4702779
          ],
          [
            -69.4297787,
            -31.4700898
          ],
          [
            -69.4296582,
            -31.4699598
          ],
          [
            -69.4295215,
            -31.4697578
          ],
          [
            -69.4293581,
            -31.4694535
          ],
          [
            -69.4285518,
            -31.467915
          ],
          [
            -69.4284755,
            -31.4677303
          ],
          [
            -69.428409,
            -31.4675346
          ],
          [
            -69.4284778,
            -31.4671882
          ],
          [
            -69.4285803,
            -31.4666844
          ],
          [
            -69.4290523,
            -31.4652477
          ],
          [
            -69.4291596,
            -31.4648084
          ],
          [
            -69.4292024,
            -31.4645578
          ],
          [
            -69.4292024,
            -31.464295
          ],
          [
            -69.4291038,
            -31.4639901
          ],
          [
            -69.4291235,
            -31.4638136
          ],
          [
            -69.4291811,
            -31.4636645
          ],
          [
            -69.42949,
            -31.4632002
          ],
          [
            -69.429578,
            -31.462969
          ],
          [
            -69.4295627,
            -31.4627095
          ],
          [
            -69.4292075,
            -31.4619478
          ],
          [
            -69.4284817,
            -31.4603911
          ],
          [
            -69.4283013,
            -31.4598758
          ],
          [
            -69.4282766,
            -31.4596002
          ],
          [
            -69.4283335,
            -31.4593724
          ],
          [
            -69.4284417,
            -31.4591773
          ],
          [
            -69.4292505,
            -31.4581482
          ],
          [
            -69.4294365,
            -31.4577983
          ],
          [
            -69.4298361,
            -31.4567923
          ],
          [
            -69.4299211,
            -31.4564481
          ],
          [
            -69.4299542,
            -31.4562424
          ],
          [
            -69.4299101,
            -31.4552923
          ],
          [
            -69.4299635,
            -31.4550654
          ],
          [
            -69.4304926,
            -31.4539376
          ],
          [
            -69.4311456,
            -31.4526198
          ],
          [
            -69.4317149,
            -31.4511087
          ],
          [
            -69.4317864,
            -31.450835
          ],
          [
            -69.4318398,
            -31.4506072
          ],
          [
            -69.4318535,
            -31.4503977
          ],
          [
            -69.4318763,
            -31.4500452
          ],
          [
            -69.4319137,
            -31.4498082
          ],
          [
            -69.4320446,
            -31.4495342
          ],
          [
            -69.4321437,
            -31.4493591
          ],
          [
            -69.4322992,
            -31.4491876
          ],
          [
            -69.4325118,
            -31.4489424
          ],
          [
            -69.4331347,
            -31.4484835
          ],
          [
            -69.433347,
            -31.4482721
          ],
          [
            -69.4335381,
            -31.4480487
          ],
          [
            -69.4347415,
            -31.4460257
          ],
          [
            -69.4358952,
            -31.444202
          ],
          [
            -69.4374525,
            -31.4411462
          ],
          [
            -69.4395484,
            -31.4379993
          ],
          [
            -69.4402449,
            -31.4367492
          ],
          [
            -69.4404236,
            -31.4364075
          ],
          [
            -69.440646,
            -31.435895
          ],
          [
            -69.4408006,
            -31.4354089
          ],
          [
            -69.4409067,
            -31.4349318
          ],
          [
            -69.4409209,
            -31.4346117
          ],
          [
            -69.4408855,
            -31.4343761
          ],
          [
            -69.4408239,
            -31.4341184
          ],
          [
            -69.4406873,
            -31.4337782
          ],
          [
            -69.440505,
            -31.4334898
          ],
          [
            -69.4387384,
            -31.4311063
          ],
          [
            -69.4385567,
            -31.4307342
          ],
          [
            -69.4384809,
            -31.4304106
          ],
          [
            -69.4384825,
            -31.4299982
          ],
          [
            -69.4385711,
            -31.4296141
          ],
          [
            -69.440455,
            -31.4238556
          ],
          [
            -69.4420429,
            -31.4182891
          ],
          [
            -69.443678,
            -31.4130243
          ],
          [
            -69.4447186,
            -31.4097738
          ],
          [
            -69.4457379,
            -31.4063583
          ],
          [
            -69.4462486,
            -31.4045543
          ],
          [
            -69.4465861,
            -31.4034808
          ],
          [
            -69.4468383,
            -31.4028909
          ],
          [
            -69.4471834,
            -31.4023792
          ],
          [
            -69.4474668,
            -31.4020531
          ],
          [
            -69.4477629,
            -31.4017908
          ],
          [
            -69.4483922,
            -31.4013582
          ],
          [
            -69.4502397,
            -31.400232
          ],
          [
            -69.4504995,
            -31.400013
          ],
          [
            -69.4507118,
            -31.3997192
          ],
          [
            -69.4508878,
            -31.3992522
          ],
          [
            -69.4510039,
            -31.398865
          ],
          [
            -69.451091,
            -31.398718
          ],
          [
            -69.4512275,
            -31.3985709
          ],
          [
            -69.4514615,
            -31.3984106
          ],
          [
            -69.4524983,
            -31.3980758
          ],
          [
            -69.4539348,
            -31.3976404
          ],
          [
            -69.4553939,
            -31.3972375
          ],
          [
            -69.4558794,
            -31.397127
          ],
          [
            -69.4589129,
            -31.3967979
          ],
          [
            -69.4600076,
            -31.3966487
          ],
          [
            -69.4610111,
            -31.3965094
          ],
          [
            -69.4617262,
            -31.3963218
          ],
          [
            -69.4622189,
            -31.3961412
          ],
          [
            -69.4629964,
            -31.395692
          ],
          [
            -69.4633981,
            -31.3953731
          ],
          [
            -69.4641359,
            -31.3947991
          ],
          [
            -69.4646309,
            -31.3943446
          ],
          [
            -69.4650232,
            -31.393938
          ],
          [
            -69.4653073,
            -31.3935742
          ],
          [
            -69.4657436,
            -31.3929221
          ],
          [
            -69.4660506,
            -31.3922558
          ],
          [
            -69.4662472,
            -31.391807
          ],
          [
            -69.4664242,
            -31.3913867
          ],
          [
            -69.4666178,
            -31.3909826
          ],
          [
            -69.4668898,
            -31.3906076
          ],
          [
            -69.4671341,
            -31.3903423
          ],
          [
            -69.4675637,
            -31.3899835
          ],
          [
            -69.4687779,
            -31.3891384
          ],
          [
            -69.4690488,
            -31.3889231
          ],
          [
            -69.4693009,
            -31.3886998
          ],
          [
            -69.4696812,
            -31.3882668
          ],
          [
            -69.4699155,
            -31.3877926
          ],
          [
            -69.4700065,
            -31.3873371
          ],
          [
            -69.4700161,
            -31.3867343
          ],
          [
            -69.4699681,
            -31.3853549
          ],
          [
            -69.4699853,
            -31.3849764
          ],
          [
            -69.4700237,
            -31.3846629
          ],
          [
            -69.4702706,
            -31.3834672
          ],
          [
            -69.4705283,
            -31.3822837
          ],
          [
            -69.4706209,
            -31.381778
          ],
          [
            -69.4706678,
            -31.3812391
          ],
          [
            -69.470755,
            -31.380203
          ],
          [
            -69.4707597,
            -31.3794335
          ],
          [
            -69.4707204,
            -31.3790071
          ],
          [
            -69.4706289,
            -31.3785125
          ],
          [
            -69.4704748,
            -31.3779384
          ],
          [
            -69.4702507,
            -31.3771928
          ],
          [
            -69.4699892,
            -31.3761442
          ],
          [
            -69.4696745,
            -31.3749013
          ],
          [
            -69.4692186,
            -31.3733094
          ],
          [
            -69.4690076,
            -31.3725704
          ],
          [
            -69.4687843,
            -31.3719577
          ],
          [
            -69.4685878,
            -31.3715651
          ],
          [
            -69.4683438,
            -31.3711972
          ],
          [
            -69.4679904,
            -31.3707814
          ],
          [
            -69.4676205,
            -31.3704102
          ],
          [
            -69.4670704,
            -31.369968
          ],
          [
            -69.4660826,
            -31.3692728
          ],
          [
            -69.4649782,
            -31.3684887
          ],
          [
            -69.4630521,
            -31.367243
          ],
          [
            -69.4620455,
            -31.3666306
          ],
          [
            -69.4609787,
            -31.3660299
          ],
          [
            -69.4606108,
            -31.365807
          ],
          [
            -69.4602429,
            -31.365542
          ],
          [
            -69.4597712,
            -31.3651428
          ],
          [
            -69.4593182,
            -31.3646487
          ],
          [
            -69.4588657,
            -31.3640709
          ],
          [
            -69.4583979,
            -31.3633839
          ],
          [
            -69.4580872,
            -31.3630054
          ],
          [
            -69.4575783,
            -31.3623853
          ],
          [
            -69.4569346,
            -31.3617004
          ],
          [
            -69.4566335,
            -31.3614465
          ],
          [
            -69.4562338,
            -31.3611927
          ],
          [
            -69.4558514,
            -31.3610023
          ],
          [
            -69.4554198,
            -31.3608119
          ],
          [
            -69.454691,
            -31.3605211
          ],
          [
            -69.45415612,
            -31.36038888
          ],
          [
            -69.4540417,
            -31.3603606
          ],
          [
            -69.453291,
            -31.3602324
          ],
          [
            -69.453136,
            -31.3601858
          ],
          [
            -69.4529246,
            -31.3601025
          ],
          [
            -69.4525669,
            -31.3599914
          ],
          [
            -69.4522091,
            -31.3598526
          ],
          [
            -69.4513709,
            -31.3593915
          ],
          [
            -69.4509038,
            -31.3592465
          ],
          [
            -69.4506643,
            -31.3592007
          ],
          [
            -69.4505015,
            -31.3591696
          ],
          [
            -69.4500052,
            -31.359151
          ],
          [
            -69.4497214,
            -31.3591403
          ],
          [
            -69.4494881,
            -31.3591316
          ],
          [
            -69.4490068,
            -31.359053
          ],
          [
            -69.4486342,
            -31.3589529
          ],
          [
            -69.4482615,
            -31.3587792
          ],
          [
            -69.448227,
            -31.3587665
          ],
          [
            -69.447342,
            -31.3583341
          ],
          [
            -69.4448297,
            -31.3573753
          ],
          [
            -69.4439775,
            -31.3570501
          ],
          [
            -69.4427802,
            -31.3564282
          ],
          [
            -69.4413862,
            -31.355704
          ],
          [
            -69.4411614,
            -31.3555873
          ],
          [
            -69.4397671,
            -31.3548924
          ],
          [
            -69.4388013,
            -31.3543191
          ],
          [
            -69.4378647,
            -31.3538665
          ],
          [
            -69.4373409,
            -31.3535981
          ],
          [
            -69.437006,
            -31.3534311
          ],
          [
            -69.4366446,
            -31.3532508
          ],
          [
            -69.4363285,
            -31.3531211
          ],
          [
            -69.4360161,
            -31.352993
          ],
          [
            -69.435671,
            -31.3529035
          ],
          [
            -69.4352088,
            -31.3527772
          ],
          [
            -69.4343461,
            -31.3524299
          ],
          [
            -69.4339333,
            -31.3521721
          ],
          [
            -69.4338184,
            -31.352047
          ],
          [
            -69.4331849,
            -31.3515164
          ],
          [
            -69.4318291,
            -31.3503649
          ],
          [
            -69.4313732,
            -31.3498535
          ],
          [
            -69.4312512,
            -31.3496972
          ],
          [
            -69.4311021,
            -31.3495062
          ],
          [
            -69.4309172,
            -31.3492904
          ],
          [
            -69.4308676,
            -31.3492584
          ],
          [
            -69.4307755,
            -31.3492325
          ],
          [
            -69.430375,
            -31.3492483
          ],
          [
            -69.4301115,
            -31.3492154
          ],
          [
            -69.4297773,
            -31.349122
          ],
          [
            -69.4296338,
            -31.3490365
          ],
          [
            -69.4294691,
            -31.3488905
          ],
          [
            -69.4292596,
            -31.3487642
          ],
          [
            -69.4291117,
            -31.3486905
          ],
          [
            -69.4289823,
            -31.3485651
          ],
          [
            -69.4288529,
            -31.3483695
          ],
          [
            -69.4287431,
            -31.3482695
          ],
          [
            -69.4285017,
            -31.3481274
          ],
          [
            -69.4282306,
            -31.3478643
          ],
          [
            -69.4280272,
            -31.3476538
          ],
          [
            -69.4278547,
            -31.3474591
          ],
          [
            -69.4277838,
            -31.3473333
          ]
        ]
      }
    }
  ]
}
